{
  "type": "FeatureCollection",
  "name": "Aroroy",
  "crs": {
    "type": "name",
    "properties": {
      "name": "urn:ogc:def:crs:OGC:1.3:CRS84"
    }
  },
  "features": [
    {
      "type": "Feature",
      "properties": {
        "ADM4_EN": "Aroroy",
        "ADM4_PCODE": "PH0506210002",
        "ADM4_REF": null,
        "ADM3_EN": "Juban",
        "ADM3_PCODE": "PH0506210",
        "ADM2_EN": "Sorsogon",
        "ADM2_PCODE": "PH05062",
        "ADM1_EN": "Region V (Bicol Region)",
        "ADM1_PCODE": "PH05",
        "ADM0_EN": "Philippines (the)",
        "ADM0_PCODE": "PH",
        "date": "2022-11-09",
        "validOn": "2023-11-06",
        "validTo": null,
        "Shape_Leng": 0.06769378558,
        "Shape_Area": 0.0002526833,
        "AREA_SQKM": 3.0347361015
      },
      "geometry": {
        "type": "MultiPolygon",
        "coordinates": [
          [
            [
              [
                124.01133745200002,
                12.830660992000048
              ],
              [
                124.01129827800003,
                12.82591707000006
              ],
              [
                124.01231825600007,
                12.822387302000038
              ],
              [
                124.01280623700006,
                12.819154516000026
              ],
              [
                124.013279226,
                12.817190646000029
              ],
              [
                124.01477620100002,
                12.813306899000054
              ],
              [
                124.00514585300004,
                12.81517262500006
              ],
              [
                124.00150263900002,
                12.814016340000023
              ],
              [
                123.99937360700005,
                12.814163170000029
              ],
              [
                123.9980154320001,
                12.813429021000047
              ],
              [
                123.99699305700005,
                12.814026683000066
              ],
              [
                123.99694283100007,
                12.814072724000027
              ],
              [
                123.99671262800007,
                12.81429455500006
              ],
              [
                123.99782029500011,
                12.825028202000055
              ],
              [
                123.99806430300009,
                12.826459104000037
              ],
              [
                123.9968443140001,
                12.828091001000075
              ],
              [
                123.99750642300012,
                12.82971641100005
              ],
              [
                124.00287495100008,
                12.83102602200006
              ],
              [
                124.01010692600005,
                12.832288088000041
              ],
              [
                124.01133745200002,
                12.830660992000048
              ]
            ]
          ]
        ]
      }
    }
  ]
}