{
  "type": "FeatureCollection",
  "name": "Calateo",
  "crs": {
    "type": "name",
    "properties": {
      "name": "urn:ogc:def:crs:OGC:1.3:CRS84"
    }
  },
  "features": [
    {
      "type": "Feature",
      "properties": {
        "ADM4_EN": "Calateo",
        "ADM4_PCODE": "PH0506210007",
        "ADM4_REF": null,
        "ADM3_EN": "Juban",
        "ADM3_PCODE": "PH0506210",
        "ADM2_EN": "Sorsogon",
        "ADM2_PCODE": "PH05062",
        "ADM1_EN": "Region V (Bicol Region)",
        "ADM1_PCODE": "PH05",
        "ADM0_EN": "Philippines (the)",
        "ADM0_PCODE": "PH",
        "date": "2022-11-09",
        "validOn": "2023-11-06",
        "validTo": null,
        "Shape_Leng": 0.07115424674,
        "Shape_Area": 0.00019100867,
        "AREA_SQKM": 2.29418303635
      },
      "geometry": {
        "type": "MultiPolygon",
        "coordinates": [
          [
            [
              [
                123.9783502680001,
                12.814204034000056
              ],
              [
                123.97944926200012,
                12.813432080000041
              ],
              [
                123.98098225800004,
                12.813222086000053
              ],
              [
                123.98172225100006,
                12.812261147000072
              ],
              [
                123.98263025000006,
                12.812220145000026
              ],
              [
                123.98305024400008,
                12.811386199000026
              ],
              [
                123.98452223700008,
                12.810512249000055
              ],
              [
                123.98581223100007,
                12.809892284000057
              ],
              [
                123.98660522300008,
                12.808689361000063
              ],
              [
                123.98618521600008,
                12.807291457000076
              ],
              [
                123.98718224600009,
                12.806882036000047
              ],
              [
                123.98903120300008,
                12.805810542000074
              ],
              [
                123.9903362020001,
                12.806038519000026
              ],
              [
                123.99179499200011,
                12.805310139000028
              ],
              [
                123.99212210700011,
                12.80496880100003
              ],
              [
                123.99232122,
                12.804670131000023
              ],
              [
                123.99236388700001,
                12.804442573000074
              ],
              [
                123.99226433100011,
                12.804058569000063
              ],
              [
                123.99203677300011,
                12.803845233000061
              ],
              [
                123.9917096580001,
                12.803717231000064
              ],
              [
                123.9912260960001,
                12.803560785000059
              ],
              [
                123.9908563140001,
                12.803432783000062
              ],
              [
                123.99048653200009,
                12.803447006000056
              ],
              [
                123.99005986100008,
                12.80329056000005
              ],
              [
                123.98969007800008,
                12.803105669000047
              ],
              [
                123.98926340700007,
                12.802721664000046
              ],
              [
                123.98889362500006,
                12.802479883000046
              ],
              [
                123.98845178900001,
                12.80179140000007
              ],
              [
                123.98810958800004,
                12.801243877000047
              ],
              [
                123.98797270700004,
                12.80008039200004
              ],
              [
                123.98797270700004,
                12.799122228000044
              ],
              [
                123.98756206600001,
                12.798232504000055
              ],
              [
                123.98728830400012,
                12.797205900000051
              ],
              [
                123.9870145430001,
                12.796110855000052
              ],
              [
                123.98691014200006,
                12.794250331000057
              ],
              [
                123.98567025500006,
                12.792230268000026
              ],
              [
                123.98545809300003,
                12.79268625800006
              ],
              [
                123.97592188300007,
                12.800516619000064
              ],
              [
                123.97525293100011,
                12.801460219000035
              ],
              [
                123.97871428100007,
                12.806004900000062
              ],
              [
                123.97760271900006,
                12.808943355000054
              ],
              [
                123.97301690300003,
                12.81584553600004
              ],
              [
                123.9783502680001,
                12.814204034000056
              ]
            ]
          ]
        ]
      }
    }
  ]
}