{
  "type": "FeatureCollection",
  "name": "Lajong",
  "crs": {
    "type": "name",
    "properties": {
      "name": "urn:ogc:def:crs:OGC:1.3:CRS84"
    }
  },
  "features": [
    {
      "type": "Feature",
      "properties": {
        "ADM4_EN": "Lajong",
        "ADM4_PCODE": "PH0506210016",
        "ADM4_REF": null,
        "ADM3_EN": "Juban",
        "ADM3_PCODE": "PH0506210",
        "ADM2_EN": "Sorsogon",
        "ADM2_PCODE": "PH05062",
        "ADM1_EN": "Region V (Bicol Region)",
        "ADM1_PCODE": "PH05",
        "ADM0_EN": "Philippines (the)",
        "ADM0_PCODE": "PH",
        "date": "2022-11-09",
        "validOn": "2023-11-06",
        "validTo": null,
        "Shape_Leng": 0.11855872708,
        "Shape_Area": 0.00080909699,
        "AREA_SQKM": 9.71729718562
      },
      "geometry": {
        "type": "MultiPolygon",
        "coordinates": [
          [
            [
              [
                123.9612144130001,
                12.83511272100003
              ],
              [
                123.97081369900002,
                12.817167657000027
              ],
              [
                123.97157528800005,
                12.815752966000048
              ],
              [
                123.96397188900005,
                12.814361361000067
              ],
              [
                123.94201130200008,
                12.809350556000027
              ],
              [
                123.93435931400006,
                12.809184608000066
              ],
              [
                123.93286433500009,
                12.812567388000048
              ],
              [
                123.92978536200008,
                12.816481142000043
              ],
              [
                123.92759738200004,
                12.819482952000044
              ],
              [
                123.92922242100008,
                12.824673321000034
              ],
              [
                123.92864247400007,
                12.828491249000024
              ],
              [
                123.927109029,
                12.830389202000049
              ],
              [
                123.93290943700003,
                12.830834160000052
              ],
              [
                123.94037943300009,
                12.832348018000062
              ],
              [
                123.94212943100001,
                12.832601992000036
              ],
              [
                123.94359842900008,
                12.832657980000022
              ],
              [
                123.94557442700011,
                12.832815959000072
              ],
              [
                123.9515944210001,
                12.833641871000054
              ],
              [
                123.95910141800005,
                12.83534271600007
              ],
              [
                123.9612144130001,
                12.83511272100003
              ]
            ]
          ]
        ]
      }
    }
  ]
}