{
  "type": "FeatureCollection",
  "name": "North Poblacion",
  "crs": {
    "type": "name",
    "properties": {
      "name": "urn:ogc:def:crs:OGC:1.3:CRS84"
    }
  },
  "features": [
    {
      "type": "Feature",
      "properties": {
        "ADM4_EN": "North Poblacion",
        "ADM4_PCODE": "PH0506210019",
        "ADM4_REF": null,
        "ADM3_EN": "Juban",
        "ADM3_PCODE": "PH0506210",
        "ADM2_EN": "Sorsogon",
        "ADM2_PCODE": "PH05062",
        "ADM1_EN": "Region V (Bicol Region)",
        "ADM1_PCODE": "PH05",
        "ADM0_EN": "Philippines (the)",
        "ADM0_PCODE": "PH",
        "date": "2022-11-09",
        "validOn": "2023-11-06",
        "validTo": null,
        "Shape_Leng": 0.01550775016,
        "Shape_Area": 0.0000138036,
        "AREA_SQKM": 0.16576489141
      },
      "geometry": {
        "type": "MultiPolygon",
        "coordinates": [
          [
            [
              [
                123.99084315100004,
                12.848764488000029
              ],
              [
                123.99007306200008,
                12.848422678000077
              ],
              [
                123.99008084200011,
                12.848403086000076
              ],
              [
                123.99038066300011,
                12.847643919000063
              ],
              [
                123.98997487300005,
                12.847498844000029
              ],
              [
                123.98918901500008,
                12.847138947000076
              ],
              [
                123.98886085100003,
                12.847004685000059
              ],
              [
                123.98631132700007,
                12.846571614000027
              ],
              [
                123.98583256800009,
                12.849697811000055
              ],
              [
                123.98769327000002,
                12.849992126000075
              ],
              [
                123.98808752500008,
                12.85007454600003
              ],
              [
                123.98906305800006,
                12.850226946000078
              ],
              [
                123.98934353800007,
                12.850285652000025
              ],
              [
                123.99038287600001,
                12.85051031200004
              ],
              [
                123.99084315100004,
                12.848764488000029
              ]
            ]
          ]
        ]
      }
    }
  ]
}