{
  "type": "FeatureCollection",
  "name": "Puting Sapa",
  "crs": {
    "type": "name",
    "properties": {
      "name": "urn:ogc:def:crs:OGC:1.3:CRS84"
    }
  },
  "features": [
    {
      "type": "Feature",
      "properties": {
        "ADM4_EN": "Puting Sapa",
        "ADM4_PCODE": "PH0506210021",
        "ADM4_REF": null,
        "ADM3_EN": "Juban",
        "ADM3_PCODE": "PH0506210",
        "ADM2_EN": "Sorsogon",
        "ADM2_PCODE": "PH05062",
        "ADM1_EN": "Region V (Bicol Region)",
        "ADM1_PCODE": "PH05",
        "ADM0_EN": "Philippines (the)",
        "ADM0_PCODE": "PH",
        "date": "2022-11-09",
        "validOn": "2023-11-06",
        "validTo": null,
        "Shape_Leng": 0.09941938751,
        "Shape_Area": 0.0006049077,
        "AREA_SQKM": 7.26625313417
      },
      "geometry": {
        "type": "MultiPolygon",
        "coordinates": [
          [
            [
              [
                124.01036307700008,
                12.789649514000075
              ],
              [
                124.01393406600005,
                12.788672561000055
              ],
              [
                124.01842704900002,
                12.787062645000049
              ],
              [
                124.02082302600002,
                12.783660862000033
              ],
              [
                124.02288300600003,
                12.780651053000042
              ],
              [
                124.02466098100001,
                12.776756306000038
              ],
              [
                124.02482894700006,
                12.770668715000056
              ],
              [
                124.01743494900006,
                12.768674888000021
              ],
              [
                124.00808594700004,
                12.765558148000025
              ],
              [
                124.00244594600008,
                12.76368330500003
              ],
              [
                123.9979419450001,
                12.76204743900007
              ],
              [
                123.99415394400012,
                12.760680551000064
              ],
              [
                123.99760056100001,
                12.787035932000038
              ],
              [
                123.99780987400004,
                12.787661710000066
              ],
              [
                124.00070408300007,
                12.787678699000026
              ],
              [
                124.0030850820001,
                12.788334642000052
              ],
              [
                124.00532808300011,
                12.789232570000024
              ],
              [
                124.00754808500005,
                12.790258489000053
              ],
              [
                124.00844008500007,
                12.790496468000072
              ],
              [
                124.01036307700008,
                12.789649514000075
              ]
            ]
          ]
        ]
      }
    }
  ]
}