{
  "type": "FeatureCollection",
  "name": "South Poblacion",
  "crs": {
    "type": "name",
    "properties": {
      "name": "urn:ogc:def:crs:OGC:1.3:CRS84"
    }
  },
  "features": [
    {
      "type": "Feature",
      "properties": {
        "ADM4_EN": "South Poblacion",
        "ADM4_PCODE": "PH0506210020",
        "ADM4_REF": null,
        "ADM3_EN": "Juban",
        "ADM3_PCODE": "PH0506210",
        "ADM2_EN": "Sorsogon",
        "ADM2_PCODE": "PH05062",
        "ADM1_EN": "Region V (Bicol Region)",
        "ADM1_PCODE": "PH05",
        "ADM0_EN": "Philippines (the)",
        "ADM0_PCODE": "PH",
        "date": "2022-11-09",
        "validOn": "2023-11-06",
        "validTo": null,
        "Shape_Leng": 0.02618388776,
        "Shape_Area": 0.0000306828,
        "AREA_SQKM": 0.36846858932
      },
      "geometry": {
        "type": "MultiPolygon",
        "coordinates": [
          [
            [
              [
                123.99449769700004,
                12.847767918000045
              ],
              [
                123.99491192700009,
                12.846639802000027
              ],
              [
                123.99496480800008,
                12.846102184000074
              ],
              [
                123.9955705970001,
                12.844657915000028
              ],
              [
                123.99237983300009,
                12.844005707000065
              ],
              [
                123.99205473900008,
                12.843838428000026
              ],
              [
                123.99164022700006,
                12.843712204000042
              ],
              [
                123.99076184100011,
                12.84341437300003
              ],
              [
                123.99039398800005,
                12.843253923000077
              ],
              [
                123.98789999400003,
                12.841959331000055
              ],
              [
                123.98792226100011,
                12.843784407000044
              ],
              [
                123.98716701800004,
                12.844734175000042
              ],
              [
                123.98631132700007,
                12.846571614000027
              ],
              [
                123.98886085100003,
                12.847004685000059
              ],
              [
                123.98918901500008,
                12.847138947000076
              ],
              [
                123.98997487300005,
                12.847498844000029
              ],
              [
                123.99038066300011,
                12.847643919000063
              ],
              [
                123.9907418790001,
                12.84680277900003
              ],
              [
                123.9942665320001,
                12.848341568000023
              ],
              [
                123.99449769700004,
                12.847767918000045
              ]
            ]
          ]
        ]
      }
    }
  ]
}