{
  "type": "FeatureCollection",
  "name": "Bacalon",
  "crs": {
    "type": "name",
    "properties": {
      "name": "urn:ogc:def:crs:OGC:1.3:CRS84"
    }
  },
  "features": [
    {
      "type": "Feature",
      "properties": {
        "ADM4_EN": "Bacalon",
        "ADM4_PCODE": "PH0506211004",
        "ADM4_REF": null,
        "ADM3_EN": "Magallanes",
        "ADM3_PCODE": "PH0506211",
        "ADM2_EN": "Sorsogon",
        "ADM2_PCODE": "PH05062",
        "ADM1_EN": "Region V (Bicol Region)",
        "ADM1_PCODE": "PH05",
        "ADM0_EN": "Philippines (the)",
        "ADM0_PCODE": "PH",
        "date": "2022-11-09",
        "validOn": "2023-11-06",
        "validTo": null,
        "Shape_Leng": 0.08799711717,
        "Shape_Area": 0.00043324256,
        "AREA_SQKM": 5.20314710626
      },
      "geometry": {
        "type": "MultiPolygon",
        "coordinates": [
          [
            [
              [
                123.87347662600007,
                12.836200495000071
              ],
              [
                123.8816685480001,
                12.835554118000061
              ],
              [
                123.88153854400002,
                12.834766172000059
              ],
              [
                123.88118051900005,
                12.830233478000025
              ],
              [
                123.88075349700011,
                12.826115757000025
              ],
              [
                123.88053947600008,
                12.822360011000058
              ],
              [
                123.87871046300006,
                12.819405219000032
              ],
              [
                123.87846146000004,
                12.81884425800007
              ],
              [
                123.87834245700003,
                12.818317294000053
              ],
              [
                123.8780914570001,
                12.818276299000047
              ],
              [
                123.87525945900006,
                12.817770348000067
              ],
              [
                123.86961445800011,
                12.815934501000072
              ],
              [
                123.86866847300007,
                12.818250351000074
              ],
              [
                123.86618049900005,
                12.822239096000033
              ],
              [
                123.85443581200002,
                12.821980569000061
              ],
              [
                123.85285754800009,
                12.826090580000027
              ],
              [
                123.85193273200002,
                12.829698992000033
              ],
              [
                123.85258150800007,
                12.829698992000033
              ],
              [
                123.85373802200002,
                12.829698992000033
              ],
              [
                123.85424576000003,
                12.829557954000052
              ],
              [
                123.85475349800004,
                12.82984003000007
              ],
              [
                123.85489453700006,
                12.830150315000026
              ],
              [
                123.85517661300003,
                12.830799091000074
              ],
              [
                123.85545869000009,
                12.831278621000024
              ],
              [
                123.85574076700004,
                12.83170173600007
              ],
              [
                123.85600357100009,
                12.832233479000024
              ],
              [
                123.86010285900011,
                12.83753219700003
              ],
              [
                123.87347662600007,
                12.836200495000071
              ]
            ]
          ]
        ]
      }
    }
  ]
}