{
  "type": "FeatureCollection",
  "name": "Cawit Extension",
  "crs": {
    "type": "name",
    "properties": {
      "name": "urn:ogc:def:crs:OGC:1.3:CRS84"
    }
  },
  "features": [
    {
      "type": "Feature",
      "properties": {
        "ADM4_EN": "Cawit Extension",
        "ADM4_PCODE": "PH0506211017",
        "ADM4_REF": null,
        "ADM3_EN": "Magallanes",
        "ADM3_PCODE": "PH0506211",
        "ADM2_EN": "Sorsogon",
        "ADM2_PCODE": "PH05062",
        "ADM1_EN": "Region V (Bicol Region)",
        "ADM1_PCODE": "PH05",
        "ADM0_EN": "Philippines (the)",
        "ADM0_PCODE": "PH",
        "date": "2022-11-09",
        "validOn": "2023-11-06",
        "validTo": null,
        "Shape_Leng": 0.01568520738,
        "Shape_Area": 0.00001260523,
        "AREA_SQKM": 0.15138833919
      },
      "geometry": {
        "type": "MultiPolygon",
        "coordinates": [
          [
            [
              [
                123.84102243300003,
                12.825445057000024
              ],
              [
                123.84124300500002,
                12.825265986000034
              ],
              [
                123.84162503800007,
                12.824955009000064
              ],
              [
                123.84198505000006,
                12.824661886000058
              ],
              [
                123.8423396820001,
                12.824372861000029
              ],
              [
                123.84235604300011,
                12.824360409000064
              ],
              [
                123.84125886100003,
                12.823480953000058
              ],
              [
                123.84063744900004,
                12.822984731000076
              ],
              [
                123.83957593200012,
                12.822113099000035
              ],
              [
                123.83927954,
                12.82165628000007
              ],
              [
                123.83933056100011,
                12.821037739000076
              ],
              [
                123.83903563400008,
                12.821445492000066
              ],
              [
                123.83902163200003,
                12.821429653000052
              ],
              [
                123.838853362,
                12.821631298000057
              ],
              [
                123.83865245400011,
                12.821934102000057
              ],
              [
                123.83819564300006,
                12.82254673600005
              ],
              [
                123.83774157500011,
                12.823083895000025
              ],
              [
                123.83730601400009,
                12.823547957000073
              ],
              [
                123.8370556960001,
                12.82377875700007
              ],
              [
                123.83707439400007,
                12.823795647000054
              ],
              [
                123.83712141900003,
                12.823747384000058
              ],
              [
                123.83754227500003,
                12.82436907500005
              ],
              [
                123.83874588900005,
                12.825453436000032
              ],
              [
                123.83891202500001,
                12.825330626000039
              ],
              [
                123.83910034900009,
                12.825577268000075
              ],
              [
                123.83982879900009,
                12.826416981000023
              ],
              [
                123.84102243300003,
                12.825445057000024
              ]
            ]
          ]
        ]
      }
    }
  ]
}