{
  "type": "FeatureCollection",
  "name": "Lapinig",
  "crs": {
    "type": "name",
    "properties": {
      "name": "urn:ogc:def:crs:OGC:1.3:CRS84"
    }
  },
  "features": [
    {
      "type": "Feature",
      "properties": {
        "ADM4_EN": "Lapinig",
        "ADM4_PCODE": "PH0506211022",
        "ADM4_REF": null,
        "ADM3_EN": "Magallanes",
        "ADM3_PCODE": "PH0506211",
        "ADM2_EN": "Sorsogon",
        "ADM2_PCODE": "PH05062",
        "ADM1_EN": "Region V (Bicol Region)",
        "ADM1_PCODE": "PH05",
        "ADM0_EN": "Philippines (the)",
        "ADM0_PCODE": "PH",
        "date": "2022-11-09",
        "validOn": "2023-11-06",
        "validTo": null,
        "Shape_Leng": 0.15585773188,
        "Shape_Area": 0.00039439561,
        "AREA_SQKM": 4.73776415855
      },
      "geometry": {
        "type": "MultiPolygon",
        "coordinates": [
          [
            [
              [
                123.88835744200003,
                12.769350832000043
              ],
              [
                123.8895864640001,
                12.766253696000035
              ],
              [
                123.90396602400006,
                12.76582763500005
              ],
              [
                123.91448211500006,
                12.767446522000057
              ],
              [
                123.94072308000011,
                12.768975278000028
              ],
              [
                123.94073108100008,
                12.766002365000077
              ],
              [
                123.92664525200007,
                12.764468909000072
              ],
              [
                123.90569597500007,
                12.762459627000055
              ],
              [
                123.90497715800007,
                12.761501205000059
              ],
              [
                123.90337829900011,
                12.76099632200004
              ],
              [
                123.87738012000011,
                12.757461392000039
              ],
              [
                123.87611412800004,
                12.758399335000036
              ],
              [
                123.87664013400001,
                12.759770240000023
              ],
              [
                123.87567913900011,
                12.760320208000053
              ],
              [
                123.8753795670001,
                12.760785156000054
              ],
              [
                123.87571014800005,
                12.762007095000058
              ],
              [
                123.87530515700007,
                12.763408003000052
              ],
              [
                123.87405415800004,
                12.763330015000065
              ],
              [
                123.87371116000008,
                12.763440009000021
              ],
              [
                123.87325816300006,
                12.763821986000039
              ],
              [
                123.87296189000006,
                12.764713321000045
              ],
              [
                123.87308582900005,
                12.765162597000028
              ],
              [
                123.87319170500007,
                12.765618380000035
              ],
              [
                123.87344591400006,
                12.766847447000032
              ],
              [
                123.87327092900011,
                12.767220081000062
              ],
              [
                123.87316979700006,
                12.767578231000073
              ],
              [
                123.8729599620001,
                12.768207227000062
              ],
              [
                123.87272886800008,
                12.768438283000023
              ],
              [
                123.87241424700005,
                12.768617508000034
              ],
              [
                123.87225319400011,
                12.769028972000058
              ],
              [
                123.87172211900008,
                12.769507856000075
              ],
              [
                123.8712275790001,
                12.770025662000023
              ],
              [
                123.88835744200003,
                12.769350832000043
              ]
            ]
          ]
        ]
      }
    }
  ]
}