{
  "type": "FeatureCollection",
  "name": "Magsaysay",
  "crs": {
    "type": "name",
    "properties": {
      "name": "urn:ogc:def:crs:OGC:1.3:CRS84"
    }
  },
  "features": [
    {
      "type": "Feature",
      "properties": {
        "ADM4_EN": "Magsaysay",
        "ADM4_PCODE": "PH0506211023",
        "ADM4_REF": null,
        "ADM3_EN": "Magallanes",
        "ADM3_PCODE": "PH0506211",
        "ADM2_EN": "Sorsogon",
        "ADM2_PCODE": "PH05062",
        "ADM1_EN": "Region V (Bicol Region)",
        "ADM1_PCODE": "PH05",
        "ADM0_EN": "Philippines (the)",
        "ADM0_PCODE": "PH",
        "date": "2022-11-09",
        "validOn": "2023-11-06",
        "validTo": null,
        "Shape_Leng": 0.09850237286,
        "Shape_Area": 0.00045282874,
        "AREA_SQKM": 5.43908717416
      },
      "geometry": {
        "type": "MultiPolygon",
        "coordinates": [
          [
            [
              [
                123.9383142370001,
                12.796649430000059
              ],
              [
                123.93921621700008,
                12.79324665400003
              ],
              [
                123.93953219000002,
                12.788554967000039
              ],
              [
                123.92493339700002,
                12.788274909000052
              ],
              [
                123.91567512600011,
                12.78660327700004
              ],
              [
                123.91323197200006,
                12.786506837000047
              ],
              [
                123.91090423100002,
                12.78736420100006
              ],
              [
                123.9046153050001,
                12.788755624000032
              ],
              [
                123.90083818800008,
                12.79215503000006
              ],
              [
                123.89809429800005,
                12.79548972300006
              ],
              [
                123.90846330500005,
                12.79992136900006
              ],
              [
                123.90861173300004,
                12.79917560000007
              ],
              [
                123.91264493400001,
                12.79931877100006
              ],
              [
                123.9367002680001,
                12.801658101000044
              ],
              [
                123.9383142370001,
                12.796649430000059
              ]
            ]
          ]
        ]
      }
    }
  ]
}