{
  "type": "FeatureCollection",
  "name": "Pili",
  "crs": {
    "type": "name",
    "properties": {
      "name": "urn:ogc:def:crs:OGC:1.3:CRS84"
    }
  },
  "features": [
    {
      "type": "Feature",
      "properties": {
        "ADM4_EN": "Pili",
        "ADM4_PCODE": "PH0506211027",
        "ADM4_REF": null,
        "ADM3_EN": "Magallanes",
        "ADM3_PCODE": "PH0506211",
        "ADM2_EN": "Sorsogon",
        "ADM2_PCODE": "PH05062",
        "ADM1_EN": "Region V (Bicol Region)",
        "ADM1_PCODE": "PH05",
        "ADM0_EN": "Philippines (the)",
        "ADM0_PCODE": "PH",
        "date": "2022-11-09",
        "validOn": "2023-11-06",
        "validTo": null,
        "Shape_Leng": 0.08787646866,
        "Shape_Area": 0.00044533512,
        "AREA_SQKM": 5.34849571737
      },
      "geometry": {
        "type": "MultiPolygon",
        "coordinates": [
          [
            [
              [
                123.91376748000005,
                12.832901124000045
              ],
              [
                123.92112804300007,
                12.834401141000058
              ],
              [
                123.927109029,
                12.830389202000049
              ],
              [
                123.92864247400007,
                12.828491249000024
              ],
              [
                123.92922242100008,
                12.824673321000034
              ],
              [
                123.92759738200004,
                12.819482952000044
              ],
              [
                123.92978536200008,
                12.816481142000043
              ],
              [
                123.92513723200011,
                12.814850501000024
              ],
              [
                123.92278993000002,
                12.813832393000041
              ],
              [
                123.92420396700004,
                12.811428530000057
              ],
              [
                123.92386459800002,
                12.810269019000032
              ],
              [
                123.92203106300008,
                12.809838523000053
              ],
              [
                123.9203307900001,
                12.811492804000068
              ],
              [
                123.92027080100002,
                12.811616211000057
              ],
              [
                123.91990915000008,
                12.812291521000077
              ],
              [
                123.91959420500007,
                12.812361794000026
              ],
              [
                123.9144683190001,
                12.809830667000028
              ],
              [
                123.90636537900002,
                12.812623527000028
              ],
              [
                123.90647507900007,
                12.819450836000044
              ],
              [
                123.90813057900004,
                12.827164828000036
              ],
              [
                123.90973749500006,
                12.834421044000067
              ],
              [
                123.91376748000005,
                12.832901124000045
              ]
            ]
          ]
        ]
      }
    }
  ]
}