{
  "type": "FeatureCollection",
  "name": "Santa Elena",
  "crs": {
    "type": "name",
    "properties": {
      "name": "urn:ogc:def:crs:OGC:1.3:CRS84"
    }
  },
  "features": [
    {
      "type": "Feature",
      "properties": {
        "ADM4_EN": "Santa Elena",
        "ADM4_PCODE": "PH0506211030",
        "ADM4_REF": null,
        "ADM3_EN": "Magallanes",
        "ADM3_PCODE": "PH0506211",
        "ADM2_EN": "Sorsogon",
        "ADM2_PCODE": "PH05062",
        "ADM1_EN": "Region V (Bicol Region)",
        "ADM1_PCODE": "PH05",
        "ADM0_EN": "Philippines (the)",
        "ADM0_PCODE": "PH",
        "date": "2022-11-09",
        "validOn": "2023-11-06",
        "validTo": null,
        "Shape_Leng": 0.08008923484,
        "Shape_Area": 0.00027717844,
        "AREA_SQKM": 3.32881727886
      },
      "geometry": {
        "type": "MultiPolygon",
        "coordinates": [
          [
            [
              [
                123.89299856700006,
                12.842308604000038
              ],
              [
                123.89688955200006,
                12.840733689000047
              ],
              [
                123.90237097200009,
                12.838623435000045
              ],
              [
                123.89568151600008,
                12.833288732000028
              ],
              [
                123.89438773400002,
                12.83104617500004
              ],
              [
                123.89159891400004,
                12.820695915000044
              ],
              [
                123.87834245700003,
                12.818317294000053
              ],
              [
                123.87846146000004,
                12.81884425800007
              ],
              [
                123.87871046300006,
                12.819405219000032
              ],
              [
                123.88053947600008,
                12.822360011000058
              ],
              [
                123.88075349700011,
                12.826115757000025
              ],
              [
                123.88118051900005,
                12.830233478000025
              ],
              [
                123.88153854400002,
                12.834766172000059
              ],
              [
                123.8816685480001,
                12.835554118000061
              ],
              [
                123.88628649200007,
                12.834864586000037
              ],
              [
                123.88708588100008,
                12.835908344000075
              ],
              [
                123.89079357700007,
                12.84340454200003
              ],
              [
                123.89299856700006,
                12.842308604000038
              ]
            ]
          ]
        ]
      }
    }
  ]
}