{
  "type": "FeatureCollection",
  "name": "Siuton",
  "crs": {
    "type": "name",
    "properties": {
      "name": "urn:ogc:def:crs:OGC:1.3:CRS84"
    }
  },
  "features": [
    {
      "type": "Feature",
      "properties": {
        "ADM4_EN": "Siuton",
        "ADM4_PCODE": "PH0506211031",
        "ADM4_REF": null,
        "ADM3_EN": "Magallanes",
        "ADM3_PCODE": "PH0506211",
        "ADM2_EN": "Sorsogon",
        "ADM2_PCODE": "PH05062",
        "ADM1_EN": "Region V (Bicol Region)",
        "ADM1_PCODE": "PH05",
        "ADM0_EN": "Philippines (the)",
        "ADM0_PCODE": "PH",
        "date": "2022-11-09",
        "validOn": "2023-11-06",
        "validTo": null,
        "Shape_Leng": 0.09339600464,
        "Shape_Area": 0.00036142156,
        "AREA_SQKM": 4.34116705327
      },
      "geometry": {
        "type": "MultiPolygon",
        "coordinates": [
          [
            [
              [
                123.87556483100002,
                12.801093193000042
              ],
              [
                123.87678880700003,
                12.801634020000051
              ],
              [
                123.87925099200004,
                12.800096933000077
              ],
              [
                123.88083077600004,
                12.800552367000023
              ],
              [
                123.88225400400006,
                12.801135890000069
              ],
              [
                123.88814616900004,
                12.798801796000078
              ],
              [
                123.89043683200009,
                12.796086679000041
              ],
              [
                123.88977962800004,
                12.794323375000033
              ],
              [
                123.89008739300004,
                12.79247678400003
              ],
              [
                123.89198994100002,
                12.793092314000035
              ],
              [
                123.89261440900009,
                12.79002554400006
              ],
              [
                123.89198994100002,
                12.786069674000032
              ],
              [
                123.89098271000012,
                12.78209670700005
              ],
              [
                123.8869046100001,
                12.783434901000021
              ],
              [
                123.87945483200008,
                12.787802012000043
              ],
              [
                123.87738830700005,
                12.791062132000036
              ],
              [
                123.87337518400011,
                12.791157535000025
              ],
              [
                123.86250540500009,
                12.79095023900004
              ],
              [
                123.8570534370001,
                12.795426546000044
              ],
              [
                123.85696321500006,
                12.795505354000056
              ],
              [
                123.86620770000002,
                12.799413275000063
              ],
              [
                123.87307037700009,
                12.802295400000048
              ],
              [
                123.87556483100002,
                12.801093193000042
              ]
            ]
          ]
        ]
      }
    }
  ]
}