{
  "type": "FeatureCollection",
  "name": "Tulatula Norte",
  "crs": {
    "type": "name",
    "properties": {
      "name": "urn:ogc:def:crs:OGC:1.3:CRS84"
    }
  },
  "features": [
    {
      "type": "Feature",
      "properties": {
        "ADM4_EN": "Tulatula Norte",
        "ADM4_PCODE": "PH0506211033",
        "ADM4_REF": null,
        "ADM3_EN": "Magallanes",
        "ADM3_PCODE": "PH0506211",
        "ADM2_EN": "Sorsogon",
        "ADM2_PCODE": "PH05062",
        "ADM1_EN": "Region V (Bicol Region)",
        "ADM1_PCODE": "PH05",
        "ADM0_EN": "Philippines (the)",
        "ADM0_PCODE": "PH",
        "date": "2022-11-09",
        "validOn": "2023-11-06",
        "validTo": null,
        "Shape_Leng": 0.06109087796,
        "Shape_Area": 0.0002347337,
        "AREA_SQKM": 2.81909883463
      },
      "geometry": {
        "type": "MultiPolygon",
        "coordinates": [
          [
            [
              [
                123.90558651200001,
                12.836153950000039
              ],
              [
                123.90800550200004,
                12.835178002000077
              ],
              [
                123.90973749500006,
                12.834421044000067
              ],
              [
                123.90813057900004,
                12.827164828000036
              ],
              [
                123.90647507900007,
                12.819450836000044
              ],
              [
                123.90457042300011,
                12.81989704700004
              ],
              [
                123.9024894260001,
                12.81979906500004
              ],
              [
                123.90005543000007,
                12.819805078000059
              ],
              [
                123.8958214380001,
                12.820047084000066
              ],
              [
                123.8943634420001,
                12.820242079000025
              ],
              [
                123.89364418600007,
                12.821059606000063
              ],
              [
                123.89159891400004,
                12.820695915000044
              ],
              [
                123.89438773400002,
                12.83104617500004
              ],
              [
                123.89568151600008,
                12.833288732000028
              ],
              [
                123.90237097200009,
                12.838623435000045
              ],
              [
                123.90558651200001,
                12.836153950000039
              ]
            ]
          ]
        ]
      }
    }
  ]
}