{
  "type": "FeatureCollection",
  "name": "Tulatula Sur",
  "crs": {
    "type": "name",
    "properties": {
      "name": "urn:ogc:def:crs:OGC:1.3:CRS84"
    }
  },
  "features": [
    {
      "type": "Feature",
      "properties": {
        "ADM4_EN": "Tulatula Sur",
        "ADM4_PCODE": "PH0506211034",
        "ADM4_REF": null,
        "ADM3_EN": "Magallanes",
        "ADM3_PCODE": "PH0506211",
        "ADM2_EN": "Sorsogon",
        "ADM2_PCODE": "PH05062",
        "ADM1_EN": "Region V (Bicol Region)",
        "ADM1_PCODE": "PH05",
        "ADM0_EN": "Philippines (the)",
        "ADM0_PCODE": "PH",
        "date": "2022-11-09",
        "validOn": "2023-11-06",
        "validTo": null,
        "Shape_Leng": 0.12885627426,
        "Shape_Area": 0.00062544007,
        "AREA_SQKM": 7.51298184883
      },
      "geometry": {
        "type": "MultiPolygon",
        "coordinates": [
          [
            [
              [
                123.89570305400002,
                12.780544902000031
              ],
              [
                123.90335228100002,
                12.77931877900005
              ],
              [
                123.90544479500011,
                12.778943308000066
              ],
              [
                123.91253717600011,
                12.777979823000067
              ],
              [
                123.94008014500002,
                12.780501506000064
              ],
              [
                123.94016310900008,
                12.774045940000065
              ],
              [
                123.94072308000011,
                12.768975278000028
              ],
              [
                123.91448211500006,
                12.767446522000057
              ],
              [
                123.90396602400006,
                12.76582763500005
              ],
              [
                123.8895864640001,
                12.766253696000035
              ],
              [
                123.88835744200003,
                12.769350832000043
              ],
              [
                123.88962224800002,
                12.778662328000053
              ],
              [
                123.89107014300009,
                12.782061733000035
              ],
              [
                123.89570305400002,
                12.780544902000031
              ]
            ]
          ]
        ]
      }
    }
  ]
}