{
  "type": "FeatureCollection",
  "name": "Perlas",
  "crs": {
    "type": "name",
    "properties": {
      "name": "urn:ogc:def:crs:OGC:1.3:CRS84"
    }
  },
  "features": [
    {
      "type": "Feature",
      "properties": {
        "ADM4_EN": "Perlas",
        "ADM4_PCODE": "PH0506214011",
        "ADM4_REF": null,
        "ADM3_EN": "Prieto Diaz",
        "ADM3_PCODE": "PH0506214",
        "ADM2_EN": "Sorsogon",
        "ADM2_PCODE": "PH05062",
        "ADM1_EN": "Region V (Bicol Region)",
        "ADM1_PCODE": "PH05",
        "ADM0_EN": "Philippines (the)",
        "ADM0_PCODE": "PH",
        "date": "2022-11-09",
        "validOn": "2023-11-06",
        "validTo": null,
        "Shape_Leng": 0.01057183848,
        "Shape_Area": 0.0000062214,
        "AREA_SQKM": 0.07465570572
      },
      "geometry": {
        "type": "MultiPolygon",
        "coordinates": [
          [
            [
              [
                124.19610016500008,
                13.040766474000066
              ],
              [
                124.19626849100007,
                13.04002048700005
              ],
              [
                124.19635360200004,
                13.039342987000055
              ],
              [
                124.19613383700005,
                13.03935096500004
              ],
              [
                124.19564789600008,
                13.039334352000026
              ],
              [
                124.19528603900005,
                13.039348945000029
              ],
              [
                124.1943878300001,
                13.039354022000055
              ],
              [
                124.19339647800007,
                13.039323006000075
              ],
              [
                124.19277447000002,
                13.039339160000054
              ],
              [
                124.192603501,
                13.040115179000054
              ],
              [
                124.19245398100009,
                13.040846166000051
              ],
              [
                124.19306530900008,
                13.040933020000068
              ],
              [
                124.19364497900006,
                13.04100644700003
              ],
              [
                124.19426563200011,
                13.041078811000034
              ],
              [
                124.19526880900003,
                13.041179144000068
              ],
              [
                124.19582554400006,
                13.041229016000045
              ],
              [
                124.19590553900002,
                13.04125435700007
              ],
              [
                124.19610016500008,
                13.040766474000066
              ]
            ]
          ]
        ]
      }
    }
  ]
}