{
  "type": "FeatureCollection",
  "name": "San Juan",
  "crs": {
    "type": "name",
    "properties": {
      "name": "urn:ogc:def:crs:OGC:1.3:CRS84"
    }
  },
  "features": [
    {
      "type": "Feature",
      "properties": {
        "ADM4_EN": "San Juan",
        "ADM4_PCODE": "PH0506214017",
        "ADM4_REF": null,
        "ADM3_EN": "Prieto Diaz",
        "ADM3_PCODE": "PH0506214",
        "ADM2_EN": "Sorsogon",
        "ADM2_PCODE": "PH05062",
        "ADM1_EN": "Region V (Bicol Region)",
        "ADM1_PCODE": "PH05",
        "ADM0_EN": "Philippines (the)",
        "ADM0_PCODE": "PH",
        "date": "2022-11-09",
        "validOn": "2023-11-06",
        "validTo": null,
        "Shape_Leng": 0.03898200976,
        "Shape_Area": 0.00008230365,
        "AREA_SQKM": 0.98759575833
      },
      "geometry": {
        "type": "MultiPolygon",
        "coordinates": [
          [
            [
              [
                124.18471624900008,
                13.051957955000034
              ],
              [
                124.185113236,
                13.049830095000061
              ],
              [
                124.18464822900012,
                13.048462190000066
              ],
              [
                124.1847852200001,
                13.046905293000066
              ],
              [
                124.17801257600001,
                13.045001571000057
              ],
              [
                124.17471127100009,
                13.044704453000065
              ],
              [
                124.17144124600009,
                13.047311339000032
              ],
              [
                124.169839249,
                13.047296349000021
              ],
              [
                124.17258700400009,
                13.049529647000043
              ],
              [
                124.17535502700002,
                13.051386376000039
              ],
              [
                124.184251259,
                13.053539851000039
              ],
              [
                124.18471624900008,
                13.051957955000034
              ]
            ]
          ]
        ]
      }
    }
  ]
}