{
  "type": "FeatureCollection",
  "name": "San Antonio",
  "crs": {
    "type": "name",
    "properties": {
      "name": "urn:ogc:def:crs:OGC:1.3:CRS84"
    }
  },
  "features": [
    {
      "type": "Feature",
      "properties": {
        "ADM4_EN": "San Antonio",
        "ADM4_PCODE": "PH0506214014",
        "ADM4_REF": null,
        "ADM3_EN": "Prieto Diaz",
        "ADM3_PCODE": "PH0506214",
        "ADM2_EN": "Sorsogon",
        "ADM2_PCODE": "PH05062",
        "ADM1_EN": "Region V (Bicol Region)",
        "ADM1_PCODE": "PH05",
        "ADM0_EN": "Philippines (the)",
        "ADM0_PCODE": "PH",
        "date": "2022-11-09",
        "validOn": "2023-11-06",
        "validTo": null,
        "Shape_Leng": 0.04324200798,
        "Shape_Area": 0.00009416363,
        "AREA_SQKM": 1.1298693148
      },
      "geometry": {
        "type": "MultiPolygon",
        "coordinates": [
          [
            [
              [
                124.1614393430001,
                13.061240460000022
              ],
              [
                124.1618533410001,
                13.061059470000032
              ],
              [
                124.16391133700006,
                13.06096046500005
              ],
              [
                124.16845832800004,
                13.060804451000024
              ],
              [
                124.1656971330001,
                13.056502375000036
              ],
              [
                124.1555250780001,
                13.053426069000068
              ],
              [
                124.1519678200001,
                13.053180741000062
              ],
              [
                124.15075634700008,
                13.058726687000046
              ],
              [
                124.15111634800007,
                13.058967669000026
              ],
              [
                124.15291734900006,
                13.059631614000068
              ],
              [
                124.15531334800005,
                13.06028655700004
              ],
              [
                124.1584103460001,
                13.060929497000075
              ],
              [
                124.15938797000001,
                13.06119564900007
              ],
              [
                124.16114734500002,
                13.061511443000029
              ],
              [
                124.1614393430001,
                13.061240460000022
              ]
            ]
          ]
        ]
      }
    }
  ]
}