{
  "type": "FeatureCollection",
  "name": "Salvacion",
  "crs": {
    "type": "name",
    "properties": {
      "name": "urn:ogc:def:crs:OGC:1.3:CRS84"
    }
  },
  "features": [
    {
      "type": "Feature",
      "properties": {
        "ADM4_EN": "Salvacion",
        "ADM4_PCODE": "PH0506206028",
        "ADM4_REF": null,
        "ADM3_EN": "Castilla",
        "ADM3_PCODE": "PH0506206",
        "ADM2_EN": "Sorsogon",
        "ADM2_PCODE": "PH05062",
        "ADM1_EN": "Region V (Bicol Region)",
        "ADM1_PCODE": "PH05",
        "ADM0_EN": "Philippines (the)",
        "ADM0_PCODE": "PH",
        "date": "2022-11-09",
        "validOn": "2023-11-06",
        "validTo": null,
        "Shape_Leng": 0.05046946532,
        "Shape_Area": 0.00016003051,
        "AREA_SQKM": 1.92053562113
      },
      "geometry": {
        "type": "MultiPolygon",
        "coordinates": [
          [
            [
              [
                123.81508069900008,
                13.020870054000056
              ],
              [
                123.8169496910001,
                13.020021100000065
              ],
              [
                123.81765968600007,
                13.019273146000046
              ],
              [
                123.81759768100005,
                13.018387206000057
              ],
              [
                123.81703367300008,
                13.016921307000075
              ],
              [
                123.81692666300012,
                13.015113429000053
              ],
              [
                123.81652965500007,
                13.013553535000028
              ],
              [
                123.81575964700005,
                13.011870652000027
              ],
              [
                123.81513363600004,
                13.009841791000042
              ],
              [
                123.81421863100002,
                13.008553883000047
              ],
              [
                123.81350162700005,
                13.00778193800005
              ],
              [
                123.81007561900003,
                13.005256126000063
              ],
              [
                123.80944261000002,
                13.003537244000029
              ],
              [
                123.80864861500004,
                13.004207204000068
              ],
              [
                123.80820662200006,
                13.005274135000036
              ],
              [
                123.80752763100008,
                13.006771038000068
              ],
              [
                123.80645164500004,
                13.008804908000059
              ],
              [
                123.8050476630001,
                13.011661725000067
              ],
              [
                123.80362067800002,
                13.013977577000048
              ],
              [
                123.80237768900008,
                13.015449486000023
              ],
              [
                123.80564823300006,
                13.01902807700003
              ],
              [
                123.81123862100003,
                13.021479247000059
              ],
              [
                123.81508069900008,
                13.020870054000056
              ]
            ]
          ]
        ]
      }
    }
  ]
}