{
  "type": "FeatureCollection",
  "name": "Bulacao",
  "crs": {
    "type": "name",
    "properties": {
      "name": "urn:ogc:def:crs:OGC:1.3:CRS84"
    }
  },
  "features": [
    {
      "type": "Feature",
      "properties": {
        "ADM4_EN": "Bulacao",
        "ADM4_PCODE": "PH0506208010",
        "ADM4_REF": null,
        "ADM3_EN": "Gubat",
        "ADM3_PCODE": "PH0506208",
        "ADM2_EN": "Sorsogon",
        "ADM2_PCODE": "PH05062",
        "ADM1_EN": "Region V (Bicol Region)",
        "ADM1_PCODE": "PH05",
        "ADM0_EN": "Philippines (the)",
        "ADM0_PCODE": "PH",
        "date": "2022-11-09",
        "validOn": "2023-11-06",
        "validTo": null,
        "Shape_Leng": 0.0522582713,
        "Shape_Area": 0.00015736926,
        "AREA_SQKM": 1.88955572671
      },
      "geometry": {
        "type": "MultiPolygon",
        "coordinates": [
          [
            [
              [
                124.0993760550001,
                12.887469435000071
              ],
              [
                124.09774842600007,
                12.87896403800005
              ],
              [
                124.09550542800002,
                12.878661071000067
              ],
              [
                124.09484408000003,
                12.87846223400004
              ],
              [
                124.09243584700005,
                12.878147966000029
              ],
              [
                124.085579445,
                12.878748118000033
              ],
              [
                124.08277945600003,
                12.879777064000052
              ],
              [
                124.0863917040001,
                12.884667752000041
              ],
              [
                124.08691449700007,
                12.888417461000074
              ],
              [
                124.0901414970001,
                12.889388379000025
              ],
              [
                124.0916674980001,
                12.889992330000041
              ],
              [
                124.09965076300011,
                12.89255167400006
              ],
              [
                124.0993760550001,
                12.887469435000071
              ]
            ]
          ]
        ]
      }
    }
  ]
}