{
  "type": "FeatureCollection",
  "name": "Cabigaan",
  "crs": {
    "type": "name",
    "properties": {
      "name": "urn:ogc:def:crs:OGC:1.3:CRS84"
    }
  },
  "features": [
    {
      "type": "Feature",
      "properties": {
        "ADM4_EN": "Cabigaan",
        "ADM4_PCODE": "PH0506208011",
        "ADM4_REF": null,
        "ADM3_EN": "Gubat",
        "ADM3_PCODE": "PH0506208",
        "ADM2_EN": "Sorsogon",
        "ADM2_PCODE": "PH05062",
        "ADM1_EN": "Region V (Bicol Region)",
        "ADM1_PCODE": "PH05",
        "ADM0_EN": "Philippines (the)",
        "ADM0_PCODE": "PH",
        "date": "2022-11-09",
        "validOn": "2023-11-06",
        "validTo": null,
        "Shape_Leng": 0.04546150081,
        "Shape_Area": 0.00011299666,
        "AREA_SQKM": 1.35671625196
      },
      "geometry": {
        "type": "MultiPolygon",
        "coordinates": [
          [
            [
              [
                124.0997935150001,
                12.89560590900004
              ],
              [
                124.09970151300001,
                12.895171938000033
              ],
              [
                124.09965076300011,
                12.89255167400006
              ],
              [
                124.0916674980001,
                12.889992330000041
              ],
              [
                124.0901414970001,
                12.889388379000025
              ],
              [
                124.08691449700007,
                12.888417461000074
              ],
              [
                124.08486250800001,
                12.889754383000025
              ],
              [
                124.08468652500005,
                12.892626191000033
              ],
              [
                124.0846565390001,
                12.89518201900006
              ],
              [
                124.08444255300003,
                12.897675853000067
              ],
              [
                124.08415256700005,
                12.900022696000065
              ],
              [
                124.0997935150001,
                12.89560590900004
              ]
            ]
          ]
        ]
      }
    }
  ]
}