{
  "type": "FeatureCollection",
  "name": "Cabiguhan",
  "crs": {
    "type": "name",
    "properties": {
      "name": "urn:ogc:def:crs:OGC:1.3:CRS84"
    }
  },
  "features": [
    {
      "type": "Feature",
      "properties": {
        "ADM4_EN": "Cabiguhan",
        "ADM4_PCODE": "PH0506208012",
        "ADM4_REF": null,
        "ADM3_EN": "Gubat",
        "ADM3_PCODE": "PH0506208",
        "ADM2_EN": "Sorsogon",
        "ADM2_PCODE": "PH05062",
        "ADM1_EN": "Region V (Bicol Region)",
        "ADM1_PCODE": "PH05",
        "ADM0_EN": "Philippines (the)",
        "ADM0_PCODE": "PH",
        "date": "2022-11-09",
        "validOn": "2023-11-06",
        "validTo": null,
        "Shape_Leng": 0.07954780768,
        "Shape_Area": 0.00033528129,
        "AREA_SQKM": 4.02473389739
      },
      "geometry": {
        "type": "MultiPolygon",
        "coordinates": [
          [
            [
              [
                124.07932875400002,
                12.956480347000024
              ],
              [
                124.08715183400011,
                12.948341436000021
              ],
              [
                124.07402811500003,
                12.935653569000067
              ],
              [
                124.07139619100008,
                12.933800947000066
              ],
              [
                124.07078331500009,
                12.937377781000066
              ],
              [
                124.07103609600006,
                12.938187238000069
              ],
              [
                124.06720688900009,
                12.956768963000059
              ],
              [
                124.06885968000006,
                12.962127365000072
              ],
              [
                124.06951581500005,
                12.96292610100005
              ],
              [
                124.07211335800002,
                12.964561591000063
              ],
              [
                124.07663500600006,
                12.965138823000075
              ],
              [
                124.07932875400002,
                12.956480347000024
              ]
            ]
          ]
        ]
      }
    }
  ]
}