{
  "type": "FeatureCollection",
  "name": "Carriedo",
  "crs": {
    "type": "name",
    "properties": {
      "name": "urn:ogc:def:crs:OGC:1.3:CRS84"
    }
  },
  "features": [
    {
      "type": "Feature",
      "properties": {
        "ADM4_EN": "Carriedo",
        "ADM4_PCODE": "PH0506208013",
        "ADM4_REF": null,
        "ADM3_EN": "Gubat",
        "ADM3_PCODE": "PH0506208",
        "ADM2_EN": "Sorsogon",
        "ADM2_PCODE": "PH05062",
        "ADM1_EN": "Region V (Bicol Region)",
        "ADM1_PCODE": "PH05",
        "ADM0_EN": "Philippines (the)",
        "ADM0_PCODE": "PH",
        "date": "2022-11-09",
        "validOn": "2023-11-06",
        "validTo": null,
        "Shape_Leng": 0.07434563194,
        "Shape_Area": 0.00029685004,
        "AREA_SQKM": 3.56359310136
      },
      "geometry": {
        "type": "MultiPolygon",
        "coordinates": [
          [
            [
              [
                124.10797180700001,
                12.949952215000053
              ],
              [
                124.10879963100001,
                12.933306421000054
              ],
              [
                124.1073766940001,
                12.929750574000025
              ],
              [
                124.1059116890001,
                12.928453669000021
              ],
              [
                124.10517168400008,
                12.927235755000027
              ],
              [
                124.10295966700005,
                12.923675006000053
              ],
              [
                124.10097567300011,
                12.923995995000041
              ],
              [
                124.09684068500007,
                12.924977952000063
              ],
              [
                124.09308776900002,
                12.924409663000063
              ],
              [
                124.09591774500007,
                12.93533326100004
              ],
              [
                124.09658390600009,
                12.939534386000048
              ],
              [
                124.09918282000001,
                12.949690280000027
              ],
              [
                124.10337181700004,
                12.950295217000075
              ],
              [
                124.1081398130001,
                12.951075138000022
              ],
              [
                124.10797180700001,
                12.949952215000053
              ]
            ]
          ]
        ]
      }
    }
  ]
}