{
  "type": "FeatureCollection",
  "name": "Casili",
  "crs": {
    "type": "name",
    "properties": {
      "name": "urn:ogc:def:crs:OGC:1.3:CRS84"
    }
  },
  "features": [
    {
      "type": "Feature",
      "properties": {
        "ADM4_EN": "Casili",
        "ADM4_PCODE": "PH0506208014",
        "ADM4_REF": null,
        "ADM3_EN": "Gubat",
        "ADM3_PCODE": "PH0506208",
        "ADM2_EN": "Sorsogon",
        "ADM2_PCODE": "PH05062",
        "ADM1_EN": "Region V (Bicol Region)",
        "ADM1_PCODE": "PH05",
        "ADM0_EN": "Philippines (the)",
        "ADM0_PCODE": "PH",
        "date": "2022-11-09",
        "validOn": "2023-11-06",
        "validTo": null,
        "Shape_Leng": 0.07134255741,
        "Shape_Area": 0.0002512426,
        "AREA_SQKM": 3.01619496264
      },
      "geometry": {
        "type": "MultiPolygon",
        "coordinates": [
          [
            [
              [
                124.09591774500007,
                12.93533326100004
              ],
              [
                124.09308776900002,
                12.924409663000063
              ],
              [
                124.0739233170001,
                12.919400773000064
              ],
              [
                124.0726355600001,
                12.926738759000045
              ],
              [
                124.07139619100008,
                12.933800947000066
              ],
              [
                124.077140385,
                12.932497924000074
              ],
              [
                124.07998492400009,
                12.931862685000056
              ],
              [
                124.08194672900004,
                12.931694530000073
              ],
              [
                124.08329196600005,
                12.932703458000049
              ],
              [
                124.09429975100011,
                12.935896232000061
              ],
              [
                124.09591774500007,
                12.93533326100004
              ]
            ]
          ]
        ]
      }
    }
  ]
}