{
  "type": "FeatureCollection",
  "name": "Manapao",
  "crs": {
    "type": "name",
    "properties": {
      "name": "urn:ogc:def:crs:OGC:1.3:CRS84"
    }
  },
  "features": [
    {
      "type": "Feature",
      "properties": {
        "ADM4_EN": "Manapao",
        "ADM4_PCODE": "PH0506208021",
        "ADM4_REF": null,
        "ADM3_EN": "Gubat",
        "ADM3_PCODE": "PH0506208",
        "ADM2_EN": "Sorsogon",
        "ADM2_PCODE": "PH05062",
        "ADM1_EN": "Region V (Bicol Region)",
        "ADM1_PCODE": "PH05",
        "ADM0_EN": "Philippines (the)",
        "ADM0_PCODE": "PH",
        "date": "2022-11-09",
        "validOn": "2023-11-06",
        "validTo": null,
        "Shape_Leng": 0.08253031398,
        "Shape_Area": 0.00032192688,
        "AREA_SQKM": 3.86495247994
      },
      "geometry": {
        "type": "MultiPolygon",
        "coordinates": [
          [
            [
              [
                124.10097567300011,
                12.923995995000041
              ],
              [
                124.10295966700005,
                12.923675006000053
              ],
              [
                124.09320163600012,
                12.915031639000063
              ],
              [
                124.0919116340001,
                12.914361691000067
              ],
              [
                124.0912096300001,
                12.913361762000022
              ],
              [
                124.09099662800008,
                12.912942792000024
              ],
              [
                124.0901496240001,
                12.911970861000043
              ],
              [
                124.08989062000012,
                12.911219913000025
              ],
              [
                124.08917261800002,
                12.910610958000063
              ],
              [
                124.0887916150001,
                12.909900008000022
              ],
              [
                124.08770861300002,
                12.909211060000075
              ],
              [
                124.08683851700005,
                12.908429597000065
              ],
              [
                124.08639572600009,
                12.908503821000068
              ],
              [
                124.08611324100002,
                12.908410121000031
              ],
              [
                124.08573396600002,
                12.908510473000035
              ],
              [
                124.085470041,
                12.908422587000075
              ],
              [
                124.08496143600007,
                12.908298799000022
              ],
              [
                124.08454312300012,
                12.907981074000077
              ],
              [
                124.08415238600003,
                12.907847681000021
              ],
              [
                124.08358230100009,
                12.907939873000032
              ],
              [
                124.08350958800008,
                12.907714677000058
              ],
              [
                124.08305789100007,
                12.907510263000063
              ],
              [
                124.08230252300007,
                12.907111318000034
              ],
              [
                124.08180877600012,
                12.906762780000065
              ],
              [
                124.08129136100001,
                12.906443933000048
              ],
              [
                124.08112310100012,
                12.906156268000075
              ],
              [
                124.08120561300007,
                12.905775506000055
              ],
              [
                124.08124711800008,
                12.905622072000028
              ],
              [
                124.08105834100002,
                12.905335727000022
              ],
              [
                124.08059921300003,
                12.905264052000064
              ],
              [
                124.0802554070001,
                12.905070546000047
              ],
              [
                124.07230762000006,
                12.905710378000038
              ],
              [
                124.07381428500003,
                12.914618862000054
              ],
              [
                124.0742838860001,
                12.917306756000073
              ],
              [
                124.0739233170001,
                12.919400773000064
              ],
              [
                124.09308776900002,
                12.924409663000063
              ],
              [
                124.09684068500007,
                12.924977952000063
              ],
              [
                124.10097567300011,
                12.923995995000041
              ]
            ]
          ]
        ]
      }
    }
  ]
}