{
  "type": "FeatureCollection",
  "name": "Naagtan",
  "crs": {
    "type": "name",
    "properties": {
      "name": "urn:ogc:def:crs:OGC:1.3:CRS84"
    }
  },
  "features": [
    {
      "type": "Feature",
      "properties": {
        "ADM4_EN": "Naagtan",
        "ADM4_PCODE": "PH0506208023",
        "ADM4_REF": null,
        "ADM3_EN": "Gubat",
        "ADM3_PCODE": "PH0506208",
        "ADM2_EN": "Sorsogon",
        "ADM2_PCODE": "PH05062",
        "ADM1_EN": "Region V (Bicol Region)",
        "ADM1_PCODE": "PH05",
        "ADM0_EN": "Philippines (the)",
        "ADM0_PCODE": "PH",
        "date": "2022-11-09",
        "validOn": "2023-11-06",
        "validTo": null,
        "Shape_Leng": 0.06425816808,
        "Shape_Area": 0.0002366602,
        "AREA_SQKM": 2.8417665865
      },
      "geometry": {
        "type": "MultiPolygon",
        "coordinates": [
          [
            [
              [
                124.085579445,
                12.878748118000033
              ],
              [
                124.09243584700005,
                12.878147966000029
              ],
              [
                124.09484408000003,
                12.87846223400004
              ],
              [
                124.09550542800002,
                12.878661071000067
              ],
              [
                124.09437641700003,
                12.876397229000077
              ],
              [
                124.0927284060001,
                12.87400339900006
              ],
              [
                124.09097339400012,
                12.87123159400005
              ],
              [
                124.08992038400004,
                12.869034748000047
              ],
              [
                124.08860037000011,
                12.866156948000025
              ],
              [
                124.08909435300006,
                12.863357134000069
              ],
              [
                124.08561957200004,
                12.862426382000024
              ],
              [
                124.08019268300006,
                12.861860098000022
              ],
              [
                124.07533601900002,
                12.862713029000076
              ],
              [
                124.074435461,
                12.867286987000057
              ],
              [
                124.07482941800004,
                12.87046173300007
              ],
              [
                124.07699642700004,
                12.872770566000042
              ],
              [
                124.07926943700011,
                12.875282385000048
              ],
              [
                124.08157445100005,
                12.878472158000022
              ],
              [
                124.08277945600003,
                12.879777064000052
              ],
              [
                124.085579445,
                12.878748118000033
              ]
            ]
          ]
        ]
      }
    }
  ]
}