{
  "type": "FeatureCollection",
  "name": "Nato",
  "crs": {
    "type": "name",
    "properties": {
      "name": "urn:ogc:def:crs:OGC:1.3:CRS84"
    }
  },
  "features": [
    {
      "type": "Feature",
      "properties": {
        "ADM4_EN": "Nato",
        "ADM4_PCODE": "PH0506208024",
        "ADM4_REF": null,
        "ADM3_EN": "Gubat",
        "ADM3_PCODE": "PH0506208",
        "ADM2_EN": "Sorsogon",
        "ADM2_PCODE": "PH05062",
        "ADM1_EN": "Region V (Bicol Region)",
        "ADM1_PCODE": "PH05",
        "ADM0_EN": "Philippines (the)",
        "ADM0_PCODE": "PH",
        "date": "2022-11-09",
        "validOn": "2023-11-06",
        "validTo": null,
        "Shape_Leng": 0.04784846296,
        "Shape_Area": 0.00010994911,
        "AREA_SQKM": 1.31971710403
      },
      "geometry": {
        "type": "MultiPolygon",
        "coordinates": [
          [
            [
              [
                124.110733965,
                12.978828262000036
              ],
              [
                124.1171270530001,
                12.977355956000054
              ],
              [
                124.11846992500011,
                12.974166533000073
              ],
              [
                124.11699791300009,
                12.971672708000028
              ],
              [
                124.11680691300012,
                12.971587715000055
              ],
              [
                124.11434991200008,
                12.970658790000073
              ],
              [
                124.11271790800004,
                12.969437881000033
              ],
              [
                124.11055890500006,
                12.968256972000063
              ],
              [
                124.1085519080001,
                12.96819898700005
              ],
              [
                124.10572191400001,
                12.96826199800006
              ],
              [
                124.10189991900006,
                12.967970038000033
              ],
              [
                124.100606921,
                12.967955046000043
              ],
              [
                124.10196792800002,
                12.969599929000026
              ],
              [
                124.10333392700011,
                12.969943898000054
              ],
              [
                124.10458492900011,
                12.970602847000066
              ],
              [
                124.10471493600005,
                12.971875761000035
              ],
              [
                124.10640094000007,
                12.97308367100004
              ],
              [
                124.10668294800007,
                12.974709560000065
              ],
              [
                124.10743095500004,
                12.976064465000036
              ],
              [
                124.1081399730001,
                12.979447234000077
              ],
              [
                124.110733965,
                12.978828262000036
              ]
            ]
          ]
        ]
      }
    }
  ]
}