{
  "type": "FeatureCollection",
  "name": "Nazareno",
  "crs": {
    "type": "name",
    "properties": {
      "name": "urn:ogc:def:crs:OGC:1.3:CRS84"
    }
  },
  "features": [
    {
      "type": "Feature",
      "properties": {
        "ADM4_EN": "Nazareno",
        "ADM4_PCODE": "PH0506208025",
        "ADM4_REF": null,
        "ADM3_EN": "Gubat",
        "ADM3_PCODE": "PH0506208",
        "ADM2_EN": "Sorsogon",
        "ADM2_PCODE": "PH05062",
        "ADM1_EN": "Region V (Bicol Region)",
        "ADM1_PCODE": "PH05",
        "ADM0_EN": "Philippines (the)",
        "ADM0_PCODE": "PH",
        "date": "2022-11-09",
        "validOn": "2023-11-06",
        "validTo": null,
        "Shape_Leng": 0.04316808581,
        "Shape_Area": 0.00012460646,
        "AREA_SQKM": 1.49620620539
      },
      "geometry": {
        "type": "MultiPolygon",
        "coordinates": [
          [
            [
              [
                124.13228265600003,
                12.881668347000073
              ],
              [
                124.13347945100008,
                12.881358610000063
              ],
              [
                124.13398395500008,
                12.879974576000052
              ],
              [
                124.13379835700005,
                12.876507626000034
              ],
              [
                124.13023490500007,
                12.873861225000041
              ],
              [
                124.12757251100004,
                12.872108918000038
              ],
              [
                124.12554334300012,
                12.87109608000003
              ],
              [
                124.12466430900008,
                12.871254941000075
              ],
              [
                124.12377582700003,
                12.871404943000073
              ],
              [
                124.12239574800003,
                12.873205453000025
              ],
              [
                124.1195461960001,
                12.877582743000062
              ],
              [
                124.1194570780001,
                12.878544017000024
              ],
              [
                124.1222153970001,
                12.88154273300006
              ],
              [
                124.1221774060001,
                12.883028633000038
              ],
              [
                124.12253928900009,
                12.884189982000066
              ],
              [
                124.13228265600003,
                12.881668347000073
              ]
            ]
          ]
        ]
      }
    }
  ]
}