{
  "type": "FeatureCollection",
  "name": "Paradijon (Pob",
  "crs": {
    "type": "name",
    "properties": {
      "name": "urn:ogc:def:crs:OGC:1.3:CRS84"
    }
  },
  "features": [
    {
      "type": "Feature",
      "properties": {
        "ADM4_EN": "Paradijon (Pob.)",
        "ADM4_PCODE": "PH0506208029",
        "ADM4_REF": null,
        "ADM3_EN": "Gubat",
        "ADM3_PCODE": "PH0506208",
        "ADM2_EN": "Sorsogon",
        "ADM2_PCODE": "PH05062",
        "ADM1_EN": "Region V (Bicol Region)",
        "ADM1_PCODE": "PH05",
        "ADM0_EN": "Philippines (the)",
        "ADM0_PCODE": "PH",
        "date": "2022-11-09",
        "validOn": "2023-11-06",
        "validTo": null,
        "Shape_Leng": 0.01481370879,
        "Shape_Area": 0.00001437983,
        "AREA_SQKM": 0.17263831404
      },
      "geometry": {
        "type": "MultiPolygon",
        "coordinates": [
          [
            [
              [
                124.12084456100001,
                12.919275967000033
              ],
              [
                124.12296116000005,
                12.919311967000056
              ],
              [
                124.12297448600009,
                12.91926071100005
              ],
              [
                124.1230808570001,
                12.918865690000075
              ],
              [
                124.12315178800009,
                12.918315971000027
              ],
              [
                124.1231222340001,
                12.917612568000038
              ],
              [
                124.12304982400008,
                12.91690916500005
              ],
              [
                124.12301583600004,
                12.91625896000005
              ],
              [
                124.12125104900008,
                12.915553682000052
              ],
              [
                124.11883301600005,
                12.916627035000033
              ],
              [
                124.11881630300002,
                12.916840616000059
              ],
              [
                124.11879468300003,
                12.91708966400006
              ],
              [
                124.11879439100005,
                12.91709305300003
              ],
              [
                124.11879354500002,
                12.917102790000058
              ],
              [
                124.11878121600012,
                12.917232790000071
              ],
              [
                124.11876438200011,
                12.917441533000044
              ],
              [
                124.11867830100005,
                12.918412040000021
              ],
              [
                124.11861063700007,
                12.919449641000028
              ],
              [
                124.12084456100001,
                12.919275967000033
              ]
            ]
          ]
        ]
      }
    }
  ]
}