{
  "type": "FeatureCollection",
  "name": "Payawin",
  "crs": {
    "type": "name",
    "properties": {
      "name": "urn:ogc:def:crs:OGC:1.3:CRS84"
    }
  },
  "features": [
    {
      "type": "Feature",
      "properties": {
        "ADM4_EN": "Payawin",
        "ADM4_PCODE": "PH0506208031",
        "ADM4_REF": null,
        "ADM3_EN": "Gubat",
        "ADM3_PCODE": "PH0506208",
        "ADM2_EN": "Sorsogon",
        "ADM2_PCODE": "PH05062",
        "ADM1_EN": "Region V (Bicol Region)",
        "ADM1_PCODE": "PH05",
        "ADM0_EN": "Philippines (the)",
        "ADM0_PCODE": "PH",
        "date": "2022-11-09",
        "validOn": "2023-11-06",
        "validTo": null,
        "Shape_Leng": 0.07405252799,
        "Shape_Area": 0.00026570967,
        "AREA_SQKM": 3.1897208591
      },
      "geometry": {
        "type": "MultiPolygon",
        "coordinates": [
          [
            [
              [
                124.09658390600009,
                12.939534386000048
              ],
              [
                124.09591774500007,
                12.93533326100004
              ],
              [
                124.09429975100011,
                12.935896232000061
              ],
              [
                124.08329196600005,
                12.932703458000049
              ],
              [
                124.08194672900004,
                12.931694530000073
              ],
              [
                124.07998492400009,
                12.931862685000056
              ],
              [
                124.077140385,
                12.932497924000074
              ],
              [
                124.07139619100008,
                12.933800947000066
              ],
              [
                124.07402811500003,
                12.935653569000067
              ],
              [
                124.08715183400011,
                12.948341436000021
              ],
              [
                124.0905238260001,
                12.948053437000056
              ],
              [
                124.09144682600004,
                12.94837941000003
              ],
              [
                124.09485682400009,
                12.94907934400004
              ],
              [
                124.09918282000001,
                12.949690280000027
              ],
              [
                124.09658390600009,
                12.939534386000048
              ]
            ]
          ]
        ]
      }
    }
  ]
}