{
  "type": "FeatureCollection",
  "name": "Villareal",
  "crs": {
    "type": "name",
    "properties": {
      "name": "urn:ogc:def:crs:OGC:1.3:CRS84"
    }
  },
  "features": [
    {
      "type": "Feature",
      "properties": {
        "ADM4_EN": "Villareal",
        "ADM4_PCODE": "PH0506208044",
        "ADM4_REF": null,
        "ADM3_EN": "Gubat",
        "ADM3_PCODE": "PH0506208",
        "ADM2_EN": "Sorsogon",
        "ADM2_PCODE": "PH05062",
        "ADM1_EN": "Region V (Bicol Region)",
        "ADM1_PCODE": "PH05",
        "ADM0_EN": "Philippines (the)",
        "ADM0_PCODE": "PH",
        "date": "2022-11-09",
        "validOn": "2023-11-06",
        "validTo": null,
        "Shape_Leng": 0.05645120442,
        "Shape_Area": 0.00012725619,
        "AREA_SQKM": 1.52796783597
      },
      "geometry": {
        "type": "MultiPolygon",
        "coordinates": [
          [
            [
              [
                124.11472347800009,
                12.893643960000077
              ],
              [
                124.11528847800002,
                12.893704953000054
              ],
              [
                124.11710447500002,
                12.893779938000023
              ],
              [
                124.12127746700003,
                12.893590928000037
              ],
              [
                124.12234184600004,
                12.893141069000023
              ],
              [
                124.1227618690001,
                12.890640638000036
              ],
              [
                124.1226134750001,
                12.890531234000036
              ],
              [
                124.12250232500003,
                12.890448599000024
              ],
              [
                124.12226109300002,
                12.89026874700005
              ],
              [
                124.11554351400002,
                12.883146743000054
              ],
              [
                124.11140725000007,
                12.882695108000064
              ],
              [
                124.10466441400001,
                12.876524778000032
              ],
              [
                124.1035314180001,
                12.879432976000032
              ],
              [
                124.10824957900002,
                12.88477341600003
              ],
              [
                124.11008196900002,
                12.887733431000072
              ],
              [
                124.11135054700003,
                12.889424868000049
              ],
              [
                124.1123158910001,
                12.892379730000073
              ],
              [
                124.11271748200011,
                12.893608973000028
              ],
              [
                124.11293848300011,
                12.893969948000063
              ],
              [
                124.11472347800009,
                12.893643960000077
              ]
            ]
          ]
        ]
      }
    }
  ]
}