{
  "type": "FeatureCollection",
  "name": "Baras",
  "crs": {
    "type": "name",
    "properties": {
      "name": "urn:ogc:def:crs:OGC:1.3:CRS84"
    }
  },
  "features": [
    {
      "type": "Feature",
      "properties": {
        "ADM4_EN": "Baras",
        "ADM4_PCODE": "PH0506207006",
        "ADM4_REF": null,
        "ADM3_EN": "Donsol",
        "ADM3_PCODE": "PH0506207",
        "ADM2_EN": "Sorsogon",
        "ADM2_PCODE": "PH05062",
        "ADM1_EN": "Region V (Bicol Region)",
        "ADM1_PCODE": "PH05",
        "ADM0_EN": "Philippines (the)",
        "ADM0_PCODE": "PH",
        "date": "2022-11-09",
        "validOn": "2023-11-06",
        "validTo": null,
        "Shape_Leng": 0.0464680967,
        "Shape_Area": 0.00011493223,
        "AREA_SQKM": 1.37935811796
      },
      "geometry": {
        "type": "MultiPolygon",
        "coordinates": [
          [
            [
              [
                123.61745011200003,
                13.001802061000035
              ],
              [
                123.61360537400003,
                13.002278599000022
              ],
              [
                123.61182324600009,
                12.999700201000053
              ],
              [
                123.60920693100002,
                13.000420636000058
              ],
              [
                123.606184,
                12.999737
              ],
              [
                123.60341401100004,
                12.999887037000065
              ],
              [
                123.60351927800002,
                13.002939788000049
              ],
              [
                123.60262450700009,
                13.005808321000075
              ],
              [
                123.60342,
                13.00588
              ],
              [
                123.60384601800001,
                13.005897676000075
              ],
              [
                123.6043629620001,
                13.005930814000067
              ],
              [
                123.60477104900008,
                13.006138036000038
              ],
              [
                123.60489316100006,
                13.00679901500007
              ],
              [
                123.60529655000005,
                13.00748098400004
              ],
              [
                123.60811382100007,
                13.008648764000043
              ],
              [
                123.61205508000012,
                13.009918726000024
              ],
              [
                123.616346,
                13.011213
              ],
              [
                123.61745011200003,
                13.001802061000035
              ]
            ]
          ]
        ]
      }
    }
  ]
}