{
  "type": "FeatureCollection",
  "name": "Bororan Barangay 1 (Pob",
  "crs": {
    "type": "name",
    "properties": {
      "name": "urn:ogc:def:crs:OGC:1.3:CRS84"
    }
  },
  "features": [
    {
      "type": "Feature",
      "properties": {
        "ADM4_EN": "Bororan Barangay 1 (Pob.)",
        "ADM4_PCODE": "PH0506207008",
        "ADM4_REF": null,
        "ADM3_EN": "Donsol",
        "ADM3_PCODE": "PH0506207",
        "ADM2_EN": "Sorsogon",
        "ADM2_PCODE": "PH05062",
        "ADM1_EN": "Region V (Bicol Region)",
        "ADM1_PCODE": "PH05",
        "ADM0_EN": "Philippines (the)",
        "ADM0_PCODE": "PH",
        "date": "2022-11-09",
        "validOn": "2023-11-06",
        "validTo": null,
        "Shape_Leng": 0.01343482468,
        "Shape_Area": 0.00000930365,
        "AREA_SQKM": 0.11169968436
      },
      "geometry": {
        "type": "MultiPolygon",
        "coordinates": [
          [
            [
              [
                123.593459,
                12.909753
              ],
              [
                123.59433400000012,
                12.909855
              ],
              [
                123.594676,
                12.910004
              ],
              [
                123.59491640600004,
                12.910006811000073
              ],
              [
                123.595467,
                12.91012
              ],
              [
                123.595905,
                12.910056
              ],
              [
                123.596394,
                12.910152
              ],
              [
                123.5968972500001,
                12.909113919000049
              ],
              [
                123.596289,
                12.908422
              ],
              [
                123.5950547440001,
                12.907727980000061
              ],
              [
                123.5952391400001,
                12.907419502000039
              ],
              [
                123.59506027400005,
                12.90720096800004
              ],
              [
                123.59443101900001,
                12.907609510000043
              ],
              [
                123.593741,
                12.907525
              ],
              [
                123.59217523900008,
                12.908312361000071
              ],
              [
                123.59241295800007,
                12.910247449000053
              ],
              [
                123.593459,
                12.909753
              ]
            ]
          ]
        ]
      }
    }
  ]
}