{
  "type": "FeatureCollection",
  "name": "Central Barangay 2 (Pob",
  "crs": {
    "type": "name",
    "properties": {
      "name": "urn:ogc:def:crs:OGC:1.3:CRS84"
    }
  },
  "features": [
    {
      "type": "Feature",
      "properties": {
        "ADM4_EN": "Central Barangay 2 (Pob.)",
        "ADM4_PCODE": "PH0506207010",
        "ADM4_REF": null,
        "ADM3_EN": "Donsol",
        "ADM3_PCODE": "PH0506207",
        "ADM2_EN": "Sorsogon",
        "ADM2_PCODE": "PH05062",
        "ADM1_EN": "Region V (Bicol Region)",
        "ADM1_PCODE": "PH05",
        "ADM0_EN": "Philippines (the)",
        "ADM0_PCODE": "PH",
        "date": "2022-11-09",
        "validOn": "2023-11-06",
        "validTo": null,
        "Shape_Leng": 0.00673629903,
        "Shape_Area": 0.00000267321,
        "AREA_SQKM": 0.03209498645
      },
      "geometry": {
        "type": "MultiPolygon",
        "coordinates": [
          [
            [
              [
                123.59440087000007,
                12.906262963000074
              ],
              [
                123.59473069800003,
                12.905926630000067
              ],
              [
                123.59508787800007,
                12.905579524000075
              ],
              [
                123.59513692900009,
                12.905505204000065
              ],
              [
                123.59541947900004,
                12.905217365000055
              ],
              [
                123.59549881100008,
                12.90509832500004
              ],
              [
                123.59557798000003,
                12.904998153000065
              ],
              [
                123.5956079450001,
                12.90489167100003
              ],
              [
                123.59567647000006,
                12.904745440000056
              ],
              [
                123.59575146800012,
                12.904668051000044
              ],
              [
                123.59581124300007,
                12.904627100000027
              ],
              [
                123.59578403700004,
                12.904596654000045
              ],
              [
                123.595557546,
                12.904297080000049
              ],
              [
                123.59518754500004,
                12.903846629000043
              ],
              [
                123.594278615,
                12.904511476000039
              ],
              [
                123.59354916000007,
                12.905046653000056
              ],
              [
                123.59380189300009,
                12.905391533000056
              ],
              [
                123.59406119400012,
                12.905795323000063
              ],
              [
                123.59430522100001,
                12.906176148000043
              ],
              [
                123.59433961600007,
                12.90623117000007
              ],
              [
                123.5943743360001,
                12.906283883000071
              ],
              [
                123.59440087000007,
                12.906262963000074
              ]
            ]
          ]
        ]
      }
    }
  ]
}