{
  "type": "FeatureCollection",
  "name": "Cristo",
  "crs": {
    "type": "name",
    "properties": {
      "name": "urn:ogc:def:crs:OGC:1.3:CRS84"
    }
  },
  "features": [
    {
      "type": "Feature",
      "properties": {
        "ADM4_EN": "Cristo",
        "ADM4_PCODE": "PH0506207011",
        "ADM4_REF": null,
        "ADM3_EN": "Donsol",
        "ADM3_PCODE": "PH0506207",
        "ADM2_EN": "Sorsogon",
        "ADM2_PCODE": "PH05062",
        "ADM1_EN": "Region V (Bicol Region)",
        "ADM1_PCODE": "PH05",
        "ADM0_EN": "Philippines (the)",
        "ADM0_PCODE": "PH",
        "date": "2022-11-09",
        "validOn": "2023-11-06",
        "validTo": null,
        "Shape_Leng": 0.08531571525,
        "Shape_Area": 0.00035878849,
        "AREA_SQKM": 4.30726596667
      },
      "geometry": {
        "type": "MultiPolygon",
        "coordinates": [
          [
            [
              [
                123.60717538600011,
                12.938545299000054
              ],
              [
                123.60885926900005,
                12.937342526000066
              ],
              [
                123.611377,
                12.93323
              ],
              [
                123.61622898900009,
                12.933646731000067
              ],
              [
                123.620359,
                12.938967
              ],
              [
                123.6208808240001,
                12.938647508000031
              ],
              [
                123.62133925000012,
                12.938312075000056
              ],
              [
                123.62209956600009,
                12.937876011000071
              ],
              [
                123.62258035400009,
                12.937395223000067
              ],
              [
                123.62326240200002,
                12.93678026200007
              ],
              [
                123.62420161600005,
                12.935762780000061
              ],
              [
                123.624833512,
                12.934738852000066
              ],
              [
                123.62468885400006,
                12.930557475000057
              ],
              [
                123.62463671100011,
                12.929749252000022
              ],
              [
                123.62364598700003,
                12.926594579000039
              ],
              [
                123.62051814500012,
                12.920953464000036
              ],
              [
                123.61848642600012,
                12.917738025000062
              ],
              [
                123.60884293300012,
                12.92260170700007
              ],
              [
                123.60763395800006,
                12.923131151000064
              ],
              [
                123.60560452300001,
                12.923184860000049
              ],
              [
                123.60526036800002,
                12.923643734000052
              ],
              [
                123.60249738000005,
                12.926686428000039
              ],
              [
                123.596161,
                12.934163
              ],
              [
                123.604725572,
                12.94015870100003
              ],
              [
                123.60717538600011,
                12.938545299000054
              ]
            ]
          ]
        ]
      }
    }
  ]
}