{
  "type": "FeatureCollection",
  "name": "Market Site Barangay 3 (Pob",
  "crs": {
    "type": "name",
    "properties": {
      "name": "urn:ogc:def:crs:OGC:1.3:CRS84"
    }
  },
  "features": [
    {
      "type": "Feature",
      "properties": {
        "ADM4_EN": "Market Site Barangay 3 (Pob.)",
        "ADM4_PCODE": "PH0506207023",
        "ADM4_REF": null,
        "ADM3_EN": "Donsol",
        "ADM3_PCODE": "PH0506207",
        "ADM2_EN": "Sorsogon",
        "ADM2_PCODE": "PH05062",
        "ADM1_EN": "Region V (Bicol Region)",
        "ADM1_PCODE": "PH05",
        "ADM0_EN": "Philippines (the)",
        "ADM0_PCODE": "PH",
        "date": "2022-11-09",
        "validOn": "2023-11-06",
        "validTo": null,
        "Shape_Leng": 0.0102991084,
        "Shape_Area": 0.00000297148,
        "AREA_SQKM": 0.03567582799
      },
      "geometry": {
        "type": "MultiPolygon",
        "coordinates": [
          [
            [
              [
                123.593741,
                12.907525
              ],
              [
                123.59443101900001,
                12.907609510000043
              ],
              [
                123.59506027400005,
                12.90720096800004
              ],
              [
                123.59489159200007,
                12.907007437000061
              ],
              [
                123.5947517300001,
                12.90676776600003
              ],
              [
                123.59517734700012,
                12.90643551900007
              ],
              [
                123.59563648500011,
                12.90603197300004
              ],
              [
                123.5952856890001,
                12.905680529000051
              ],
              [
                123.59516931200005,
                12.905543271000056
              ],
              [
                123.59513692900009,
                12.905505204000065
              ],
              [
                123.59508787800007,
                12.905579524000075
              ],
              [
                123.59473069800003,
                12.905926630000067
              ],
              [
                123.59440087000007,
                12.906262963000074
              ],
              [
                123.5943743360001,
                12.906283883000071
              ],
              [
                123.5939516730001,
                12.906672358000037
              ],
              [
                123.59338724000008,
                12.907119434000037
              ],
              [
                123.59243021900011,
                12.90746312300007
              ],
              [
                123.592225546,
                12.907502846000057
              ],
              [
                123.59195528300006,
                12.90753774500007
              ],
              [
                123.59217523900008,
                12.908312361000071
              ],
              [
                123.593741,
                12.907525
              ]
            ]
          ]
        ]
      }
    }
  ]
}