{
  "type": "FeatureCollection",
  "name": "New Maguisa",
  "crs": {
    "type": "name",
    "properties": {
      "name": "urn:ogc:def:crs:OGC:1.3:CRS84"
    }
  },
  "features": [
    {
      "type": "Feature",
      "properties": {
        "ADM4_EN": "New Maguisa",
        "ADM4_PCODE": "PH0506207024",
        "ADM4_REF": null,
        "ADM3_EN": "Donsol",
        "ADM3_PCODE": "PH0506207",
        "ADM2_EN": "Sorsogon",
        "ADM2_PCODE": "PH05062",
        "ADM1_EN": "Region V (Bicol Region)",
        "ADM1_PCODE": "PH05",
        "ADM0_EN": "Philippines (the)",
        "ADM0_PCODE": "PH",
        "date": "2022-11-09",
        "validOn": "2023-11-06",
        "validTo": null,
        "Shape_Leng": 0.0787037355,
        "Shape_Area": 0.00028792236,
        "AREA_SQKM": 3.45562134104
      },
      "geometry": {
        "type": "MultiPolygon",
        "coordinates": [
          [
            [
              [
                123.56759800700002,
                13.00692233500007
              ],
              [
                123.56633313600003,
                13.003275003000056
              ],
              [
                123.56601700200008,
                13.002371763000042
              ],
              [
                123.56570086800002,
                13.001062065000042
              ],
              [
                123.56646862200012,
                12.999481394000043
              ],
              [
                123.567629,
                12.99833
              ],
              [
                123.56791380600009,
                12.997629751000034
              ],
              [
                123.574115,
                12.993228
              ],
              [
                123.56169289800005,
                12.986182753000037
              ],
              [
                123.55545443100004,
                12.981302663000065
              ],
              [
                123.55450854500009,
                12.994760963000033
              ],
              [
                123.55450068800008,
                12.997945886000025
              ],
              [
                123.55504108500008,
                13.001072549000071
              ],
              [
                123.55846141900008,
                13.006632631000059
              ],
              [
                123.5613329680001,
                13.00798394900005
              ],
              [
                123.56521800500002,
                13.007871339000076
              ],
              [
                123.56752650500005,
                13.00933526600005
              ],
              [
                123.56759800700002,
                13.00692233500007
              ]
            ]
          ]
        ]
      }
    }
  ]
}