{
  "type": "FeatureCollection",
  "name": "Old Maguisa",
  "crs": {
    "type": "name",
    "properties": {
      "name": "urn:ogc:def:crs:OGC:1.3:CRS84"
    }
  },
  "features": [
    {
      "type": "Feature",
      "properties": {
        "ADM4_EN": "Old Maguisa",
        "ADM4_PCODE": "PH0506207026",
        "ADM4_REF": null,
        "ADM3_EN": "Donsol",
        "ADM3_PCODE": "PH0506207",
        "ADM2_EN": "Sorsogon",
        "ADM2_PCODE": "PH05062",
        "ADM1_EN": "Region V (Bicol Region)",
        "ADM1_PCODE": "PH05",
        "ADM0_EN": "Philippines (the)",
        "ADM0_PCODE": "PH",
        "date": "2022-11-09",
        "validOn": "2023-11-06",
        "validTo": null,
        "Shape_Leng": 0.05187017627,
        "Shape_Area": 0.00018061185,
        "AREA_SQKM": 2.16763646282
      },
      "geometry": {
        "type": "MultiPolygon",
        "coordinates": [
          [
            [
              [
                123.57846889900009,
                13.008570901000041
              ],
              [
                123.57830299200009,
                13.007196258000022
              ],
              [
                123.57843197900002,
                13.00500140400004
              ],
              [
                123.578636,
                13.004446
              ],
              [
                123.5793709510001,
                13.000231718000066
              ],
              [
                123.57981,
                12.99745
              ],
              [
                123.5794301200001,
                12.994061952000038
              ],
              [
                123.574115,
                12.993228
              ],
              [
                123.56791380600009,
                12.997629751000034
              ],
              [
                123.567629,
                12.99833
              ],
              [
                123.56646862200012,
                12.999481394000043
              ],
              [
                123.56570086800002,
                13.001062065000042
              ],
              [
                123.56601700200008,
                13.002371763000042
              ],
              [
                123.56633313600003,
                13.003275003000056
              ],
              [
                123.56759800700002,
                13.00692233500007
              ],
              [
                123.56752650500005,
                13.00933526600005
              ],
              [
                123.5718619810001,
                13.009842010000057
              ],
              [
                123.57563440900003,
                13.010292449000076
              ],
              [
                123.57846889900009,
                13.008570901000041
              ]
            ]
          ]
        ]
      }
    }
  ]
}