{
  "type": "FeatureCollection",
  "name": "Poso Pob",
  "crs": {
    "type": "name",
    "properties": {
      "name": "urn:ogc:def:crs:OGC:1.3:CRS84"
    }
  },
  "features": [
    {
      "type": "Feature",
      "properties": {
        "ADM4_EN": "Poso Pob. (Barangay 5)",
        "ADM4_PCODE": "PH0506207032",
        "ADM4_REF": null,
        "ADM3_EN": "Donsol",
        "ADM3_PCODE": "PH0506207",
        "ADM2_EN": "Sorsogon",
        "ADM2_PCODE": "PH05062",
        "ADM1_EN": "Region V (Bicol Region)",
        "ADM1_PCODE": "PH05",
        "ADM0_EN": "Philippines (the)",
        "ADM0_PCODE": "PH",
        "date": "2022-11-09",
        "validOn": "2023-11-06",
        "validTo": null,
        "Shape_Leng": 0.00797927912,
        "Shape_Area": 0.0000034828,
        "AREA_SQKM": 0.0418147298
      },
      "geometry": {
        "type": "MultiPolygon",
        "coordinates": [
          [
            [
              [
                123.59660110400011,
                12.907930406000048
              ],
              [
                123.59677859800001,
                12.90764314300003
              ],
              [
                123.59698655700004,
                12.907728614000064
              ],
              [
                123.597494,
                12.907043
              ],
              [
                123.59716368400007,
                12.906874553000023
              ],
              [
                123.59695184200007,
                12.906739592000065
              ],
              [
                123.59663106800008,
                12.906569864000062
              ],
              [
                123.59598209300009,
                12.906219901000043
              ],
              [
                123.59592317700003,
                12.906315860000063
              ],
              [
                123.59563648500011,
                12.90603197300004
              ],
              [
                123.59517734700012,
                12.90643551900007
              ],
              [
                123.5947517300001,
                12.90676776600003
              ],
              [
                123.59489159200007,
                12.907007437000061
              ],
              [
                123.59506027400005,
                12.90720096800004
              ],
              [
                123.5952391400001,
                12.907419502000039
              ],
              [
                123.5950547440001,
                12.907727980000061
              ],
              [
                123.596289,
                12.908422
              ],
              [
                123.59660110400011,
                12.907930406000048
              ]
            ]
          ]
        ]
      }
    }
  ]
}