{
  "type": "FeatureCollection",
  "name": "San Ramon",
  "crs": {
    "type": "name",
    "properties": {
      "name": "urn:ogc:def:crs:OGC:1.3:CRS84"
    }
  },
  "features": [
    {
      "type": "Feature",
      "properties": {
        "ADM4_EN": "San Ramon",
        "ADM4_PCODE": "PH0506207039",
        "ADM4_REF": null,
        "ADM3_EN": "Donsol",
        "ADM3_PCODE": "PH0506207",
        "ADM2_EN": "Sorsogon",
        "ADM2_PCODE": "PH05062",
        "ADM1_EN": "Region V (Bicol Region)",
        "ADM1_PCODE": "PH05",
        "ADM0_EN": "Philippines (the)",
        "ADM0_PCODE": "PH",
        "date": "2022-11-09",
        "validOn": "2023-11-06",
        "validTo": null,
        "Shape_Leng": 0.08054135771,
        "Shape_Area": 0.00028647062,
        "AREA_SQKM": 3.43891464478
      },
      "geometry": {
        "type": "MultiPolygon",
        "coordinates": [
          [
            [
              [
                123.60784361500009,
                12.948353033000046
              ],
              [
                123.604725572,
                12.94015870100003
              ],
              [
                123.596161,
                12.934163
              ],
              [
                123.5948003520001,
                12.932771761000026
              ],
              [
                123.59314486300002,
                12.932395513000074
              ],
              [
                123.59126362600011,
                12.932169765000026
              ],
              [
                123.58994676000009,
                12.931417270000054
              ],
              [
                123.58931654600008,
                12.929874656000038
              ],
              [
                123.58976804300005,
                12.927899357000058
              ],
              [
                123.58874328700006,
                12.92656991900003
              ],
              [
                123.58805687300003,
                12.928734794000036
              ],
              [
                123.5877379960001,
                12.930775227000026
              ],
              [
                123.58774047200006,
                12.932003985000051
              ],
              [
                123.58827878300008,
                12.933970504000058
              ],
              [
                123.58842448400003,
                12.93448389200006
              ],
              [
                123.58873024200011,
                12.93557350900005
              ],
              [
                123.58880070000009,
                12.935812149000071
              ],
              [
                123.58928648000006,
                12.937359084000036
              ],
              [
                123.58948658600002,
                12.938156111000069
              ],
              [
                123.5890976820001,
                12.939281867000034
              ],
              [
                123.58830760400008,
                12.940381559000059
              ],
              [
                123.58771709000007,
                12.941188258000068
              ],
              [
                123.58745746800003,
                12.942058506000023
              ],
              [
                123.5873977760001,
                12.943348937000053
              ],
              [
                123.587633546,
                12.944567806000066
              ],
              [
                123.58787011200002,
                12.94582110500005
              ],
              [
                123.58780841200007,
                12.946974776000047
              ],
              [
                123.5879474300001,
                12.948518507000074
              ],
              [
                123.58841514400001,
                12.94999124900005
              ],
              [
                123.59836763800001,
                12.949935979000031
              ],
              [
                123.60516563600004,
                12.951512836000063
              ],
              [
                123.60846163600002,
                12.95238476000003
              ],
              [
                123.60784361500009,
                12.948353033000046
              ]
            ]
          ]
        ]
      }
    }
  ]
}