{
  "type": "FeatureCollection",
  "name": "San Antonio",
  "crs": {
    "type": "name",
    "properties": {
      "name": "urn:ogc:def:crs:OGC:1.3:CRS84"
    }
  },
  "features": [
    {
      "type": "Feature",
      "properties": {
        "ADM4_EN": "San Antonio",
        "ADM4_PCODE": "PH0506207035",
        "ADM4_REF": null,
        "ADM3_EN": "Donsol",
        "ADM3_PCODE": "PH0506207",
        "ADM2_EN": "Sorsogon",
        "ADM2_PCODE": "PH05062",
        "ADM1_EN": "Region V (Bicol Region)",
        "ADM1_PCODE": "PH05",
        "ADM0_EN": "Philippines (the)",
        "ADM0_PCODE": "PH",
        "date": "2022-11-09",
        "validOn": "2023-11-06",
        "validTo": null,
        "Shape_Leng": 0.07389314477,
        "Shape_Area": 0.00027592459,
        "AREA_SQKM": 3.3122994473
      },
      "geometry": {
        "type": "MultiPolygon",
        "coordinates": [
          [
            [
              [
                123.62791878000007,
                12.953082148000021
              ],
              [
                123.62621459900004,
                12.950516789000062
              ],
              [
                123.62617959700003,
                12.950194811000074
              ],
              [
                123.6261385900001,
                12.949047888000052
              ],
              [
                123.62597880300007,
                12.946524596000074
              ],
              [
                123.62529099300002,
                12.944117259000052
              ],
              [
                123.62446200000011,
                12.943106
              ],
              [
                123.62423635000005,
                12.941962119000038
              ],
              [
                123.62302121800008,
                12.940311374000032
              ],
              [
                123.620359,
                12.938967
              ],
              [
                123.61622898900009,
                12.933646731000067
              ],
              [
                123.611377,
                12.93323
              ],
              [
                123.60885926900005,
                12.937342526000066
              ],
              [
                123.60717538600011,
                12.938545299000054
              ],
              [
                123.604725572,
                12.94015870100003
              ],
              [
                123.60784361500009,
                12.948353033000046
              ],
              [
                123.60846163600002,
                12.95238476000003
              ],
              [
                123.61123681100003,
                12.951739689000021
              ],
              [
                123.61289124900009,
                12.949822045000076
              ],
              [
                123.615582,
                12.948837
              ],
              [
                123.61886978700011,
                12.950348457000075
              ],
              [
                123.62214106200008,
                12.951890093000031
              ],
              [
                123.62384962300007,
                12.954155558000025
              ],
              [
                123.62791878000007,
                12.953082148000021
              ]
            ]
          ]
        ]
      }
    }
  ]
}