{
  "type": "FeatureCollection",
  "name": "Tagbac",
  "crs": {
    "type": "name",
    "properties": {
      "name": "urn:ogc:def:crs:OGC:1.3:CRS84"
    }
  },
  "features": [
    {
      "type": "Feature",
      "properties": {
        "ADM4_EN": "Tagbac",
        "ADM4_PCODE": "PH0506207045",
        "ADM4_REF": null,
        "ADM3_EN": "Donsol",
        "ADM3_PCODE": "PH0506207",
        "ADM2_EN": "Sorsogon",
        "ADM2_PCODE": "PH05062",
        "ADM1_EN": "Region V (Bicol Region)",
        "ADM1_PCODE": "PH05",
        "ADM0_EN": "Philippines (the)",
        "ADM0_PCODE": "PH",
        "date": "2022-11-09",
        "validOn": "2023-11-06",
        "validTo": null,
        "Shape_Leng": 0.03795753142,
        "Shape_Area": 0.00009070814,
        "AREA_SQKM": 1.0885977005
      },
      "geometry": {
        "type": "MultiPolygon",
        "coordinates": [
          [
            [
              [
                123.58674171200005,
                13.017126354000027
              ],
              [
                123.5879595130001,
                13.016422736000038
              ],
              [
                123.59179726600007,
                13.013922500000035
              ],
              [
                123.59165816900008,
                13.013435167000068
              ],
              [
                123.59157137900002,
                13.012856025000076
              ],
              [
                123.59158467100008,
                13.012412881000046
              ],
              [
                123.59172358300009,
                13.012081709000029
              ],
              [
                123.59188458000006,
                13.011871188000043
              ],
              [
                123.59212992800008,
                13.011708312000053
              ],
              [
                123.5926184540001,
                13.01151214600003
              ],
              [
                123.592302,
                13.011294
              ],
              [
                123.59118631500007,
                13.010180447000039
              ],
              [
                123.58893157900002,
                13.009209015000067
              ],
              [
                123.5873539370001,
                13.009087658000055
              ],
              [
                123.583895,
                13.009834
              ],
              [
                123.58140744200011,
                13.009603425000023
              ],
              [
                123.57864656900006,
                13.009967496000058
              ],
              [
                123.57820302900006,
                13.013771819000056
              ],
              [
                123.58054445800008,
                13.016449798000053
              ],
              [
                123.58149163700011,
                13.017451101000063
              ],
              [
                123.583548,
                13.01793
              ],
              [
                123.58674171200005,
                13.017126354000027
              ]
            ]
          ]
        ]
      }
    }
  ]
}