{
  "type": "FeatureCollection",
  "name": "Bolo",
  "crs": {
    "type": "name",
    "properties": {
      "name": "urn:ogc:def:crs:OGC:1.3:CRS84"
    }
  },
  "features": [
    {
      "type": "Feature",
      "properties": {
        "ADM4_EN": "Bolo",
        "ADM4_PCODE": "PH0506212005",
        "ADM4_REF": null,
        "ADM3_EN": "Matnog",
        "ADM3_PCODE": "PH0506212",
        "ADM2_EN": "Sorsogon",
        "ADM2_PCODE": "PH05062",
        "ADM1_EN": "Region V (Bicol Region)",
        "ADM1_PCODE": "PH05",
        "ADM0_EN": "Philippines (the)",
        "ADM0_PCODE": "PH",
        "date": "2022-11-09",
        "validOn": "2023-11-06",
        "validTo": null,
        "Shape_Leng": 0.07291567858,
        "Shape_Area": 0.00032749231,
        "AREA_SQKM": 3.93626577354
      },
      "geometry": {
        "type": "MultiPolygon",
        "coordinates": [
          [
            [
              [
                124.05127111900003,
                12.628744142000073
              ],
              [
                124.0544081060001,
                12.627297224000074
              ],
              [
                124.056957097,
                12.62650126400007
              ],
              [
                124.0544960740001,
                12.621580609000034
              ],
              [
                124.05176244900008,
                12.614885425000068
              ],
              [
                124.04514880600004,
                12.60574890600003
              ],
              [
                124.0439546130001,
                12.606188872000075
              ],
              [
                124.04177249600002,
                12.606827618000068
              ],
              [
                124.03845685400006,
                12.609522734000052
              ],
              [
                124.03699660200004,
                12.611128887000064
              ],
              [
                124.03442894300008,
                12.613101958000072
              ],
              [
                124.03990481400001,
                12.625007796000034
              ],
              [
                124.04067604200009,
                12.626550252000072
              ],
              [
                124.04718314800004,
                12.632756893000021
              ],
              [
                124.05127111900003,
                12.628744142000073
              ]
            ]
          ]
        ]
      }
    }
  ]
}