{
  "type": "FeatureCollection",
  "name": "Naburacan",
  "crs": {
    "type": "name",
    "properties": {
      "name": "urn:ogc:def:crs:OGC:1.3:CRS84"
    }
  },
  "features": [
    {
      "type": "Feature",
      "properties": {
        "ADM4_EN": "Naburacan",
        "ADM4_PCODE": "PH0506212030",
        "ADM4_REF": null,
        "ADM3_EN": "Matnog",
        "ADM3_PCODE": "PH0506212",
        "ADM2_EN": "Sorsogon",
        "ADM2_PCODE": "PH05062",
        "ADM1_EN": "Region V (Bicol Region)",
        "ADM1_PCODE": "PH05",
        "ADM0_EN": "Philippines (the)",
        "ADM0_PCODE": "PH",
        "date": "2022-11-09",
        "validOn": "2023-11-06",
        "validTo": null,
        "Shape_Leng": 0.05763778558,
        "Shape_Area": 0.00014525055,
        "AREA_SQKM": 1.74589065511
      },
      "geometry": {
        "type": "MultiPolygon",
        "coordinates": [
          [
            [
              [
                124.08071546400004,
                12.61612628100005
              ],
              [
                124.08176777100005,
                12.61557722200007
              ],
              [
                124.083589501,
                12.614626703000056
              ],
              [
                124.08627597400005,
                12.613223006000055
              ],
              [
                124.08842496600005,
                12.612445047000051
              ],
              [
                124.09635444000003,
                12.610890034000022
              ],
              [
                124.09759697400011,
                12.609219039000038
              ],
              [
                124.09586691200002,
                12.605004510000072
              ],
              [
                124.09377891200006,
                12.604431560000023
              ],
              [
                124.0923689120001,
                12.603962599000056
              ],
              [
                124.09059191300003,
                12.603546637000022
              ],
              [
                124.088752913,
                12.603025681000076
              ],
              [
                124.0877391460001,
                12.602741474000027
              ],
              [
                124.08773868000003,
                12.60274204600006
              ],
              [
                124.08740046600008,
                12.603151980000064
              ],
              [
                124.08730153200008,
                12.60326419100005
              ],
              [
                124.08682795700008,
                12.603983010000036
              ],
              [
                124.08610913700011,
                12.604084491000037
              ],
              [
                124.08529729400004,
                12.60363628600004
              ],
              [
                124.08489137200002,
                12.604152144000068
              ],
              [
                124.08522118300004,
                12.605099295000059
              ],
              [
                124.0856101920001,
                12.606173296000065
              ],
              [
                124.0850605060001,
                12.606376257000022
              ],
              [
                124.08284262500001,
                12.606490595000025
              ],
              [
                124.08177337500001,
                12.607442345000038
              ],
              [
                124.08176777100005,
                12.607449742000028
              ],
              [
                124.08030462400006,
                12.60938109600005
              ],
              [
                124.08025762400007,
                12.61001559600004
              ],
              [
                124.080833374,
                12.61079109700006
              ],
              [
                124.080833374,
                12.611037847000034
              ],
              [
                124.08050437400004,
                12.611390347000054
              ],
              [
                124.07951737400003,
                12.611989597000047
              ],
              [
                124.07844812300004,
                12.612647598000024
              ],
              [
                124.07825976200002,
                12.612898875000042
              ],
              [
                124.0777811270001,
                12.613742784000067
              ],
              [
                124.077066897,
                12.616186794000043
              ],
              [
                124.07734015800008,
                12.616949649000048
              ],
              [
                124.07780173100002,
                12.61724289700004
              ],
              [
                124.07784748800009,
                12.617294623000078
              ],
              [
                124.07811752700002,
                12.617477570000062
              ],
              [
                124.08071546400004,
                12.61612628100005
              ]
            ]
          ]
        ]
      }
    }
  ]
}