{
  "type": "FeatureCollection",
  "name": "Cogon",
  "crs": {
    "type": "name",
    "properties": {
      "name": "urn:ogc:def:crs:OGC:1.3:CRS84"
    }
  },
  "features": [
    {
      "type": "Feature",
      "properties": {
        "ADM4_EN": "Cogon",
        "ADM4_PCODE": "PH0506205010",
        "ADM4_REF": null,
        "ADM3_EN": "Casiguran",
        "ADM3_PCODE": "PH0506205",
        "ADM2_EN": "Sorsogon",
        "ADM2_PCODE": "PH05062",
        "ADM1_EN": "Region V (Bicol Region)",
        "ADM1_PCODE": "PH05",
        "ADM0_EN": "Philippines (the)",
        "ADM0_PCODE": "PH",
        "date": "2022-11-09",
        "validOn": "2023-11-06",
        "validTo": null,
        "Shape_Leng": 0.07718530643,
        "Shape_Area": 0.00033204477,
        "AREA_SQKM": 3.98740953937
      },
      "geometry": {
        "type": "MultiPolygon",
        "coordinates": [
          [
            [
              [
                124.05120680300001,
                12.854529280000065
              ],
              [
                124.05078516700007,
                12.846027015000061
              ],
              [
                124.0465318680001,
                12.84615761200007
              ],
              [
                124.04173393300005,
                12.845551861000047
              ],
              [
                124.03466727500006,
                12.842435125000065
              ],
              [
                124.0324145840001,
                12.842188255000053
              ],
              [
                124.03094810100004,
                12.84593510700006
              ],
              [
                124.02598479900007,
                12.854529280000065
              ],
              [
                124.0244664920001,
                12.857158295000033
              ],
              [
                124.02573761300005,
                12.857635216000062
              ],
              [
                124.02584703200012,
                12.857687849000058
              ],
              [
                124.02591379400008,
                12.857750639000074
              ],
              [
                124.02598653000007,
                12.857777531000067
              ],
              [
                124.02698054500001,
                12.858528945000046
              ],
              [
                124.02965828300012,
                12.85901033600004
              ],
              [
                124.0302600220001,
                12.859220945000061
              ],
              [
                124.03350446700006,
                12.858725465000077
              ],
              [
                124.04431735000003,
                12.858911849000037
              ],
              [
                124.0514585950001,
                12.859606649000057
              ],
              [
                124.05120680300001,
                12.854529280000065
              ]
            ]
          ]
        ]
      }
    }
  ]
}