{
  "type": "FeatureCollection",
  "name": "Looban (Pob",
  "crs": {
    "type": "name",
    "properties": {
      "name": "urn:ogc:def:crs:OGC:1.3:CRS84"
    }
  },
  "features": [
    {
      "type": "Feature",
      "properties": {
        "ADM4_EN": "Looban (Pob.)",
        "ADM4_PCODE": "PH0506204007",
        "ADM4_REF": null,
        "ADM3_EN": "Bulusan",
        "ADM3_PCODE": "PH0506204",
        "ADM2_EN": "Sorsogon",
        "ADM2_PCODE": "PH05062",
        "ADM1_EN": "Region V (Bicol Region)",
        "ADM1_PCODE": "PH05",
        "ADM0_EN": "Philippines (the)",
        "ADM0_PCODE": "PH",
        "date": "2022-11-09",
        "validOn": "2023-11-06",
        "validTo": null,
        "Shape_Leng": 0.00687199142,
        "Shape_Area": 0.00000264194,
        "AREA_SQKM": 0.03173831101
      },
      "geometry": {
        "type": "MultiPolygon",
        "coordinates": [
          [
            [
              [
                124.13676273500005,
                12.752541868000037
              ],
              [
                124.1367801670001,
                12.752426610000043
              ],
              [
                124.136751881,
                12.752082777000055
              ],
              [
                124.13674803100002,
                12.751975432000052
              ],
              [
                124.13674045200003,
                12.75189808700003
              ],
              [
                124.13669982400006,
                12.751750607000076
              ],
              [
                124.13668758000006,
                12.75162539400003
              ],
              [
                124.13633549400004,
                12.751671269000042
              ],
              [
                124.13540808200003,
                12.75180393200003
              ],
              [
                124.13542147200008,
                12.752080462000038
              ],
              [
                124.13539932200001,
                12.752087385000038
              ],
              [
                124.13464144700004,
                12.752327595000054
              ],
              [
                124.13463932000002,
                12.752406773000075
              ],
              [
                124.13464055000009,
                12.75242767800006
              ],
              [
                124.13463440100008,
                12.752709279000044
              ],
              [
                124.13462344300001,
                12.753116070000033
              ],
              [
                124.13677853100012,
                12.753156943000022
              ],
              [
                124.13676273500005,
                12.752541868000037
              ]
            ]
          ]
        ]
      }
    }
  ]
}