{
  "type": "FeatureCollection",
  "name": "Poctol (Pob",
  "crs": {
    "type": "name",
    "properties": {
      "name": "urn:ogc:def:crs:OGC:1.3:CRS84"
    }
  },
  "features": [
    {
      "type": "Feature",
      "properties": {
        "ADM4_EN": "Poctol (Pob.)",
        "ADM4_PCODE": "PH0506204010",
        "ADM4_REF": null,
        "ADM3_EN": "Bulusan",
        "ADM3_PCODE": "PH0506204",
        "ADM2_EN": "Sorsogon",
        "ADM2_PCODE": "PH05062",
        "ADM1_EN": "Region V (Bicol Region)",
        "ADM1_PCODE": "PH05",
        "ADM0_EN": "Philippines (the)",
        "ADM0_PCODE": "PH",
        "date": "2022-11-09",
        "validOn": "2023-11-06",
        "validTo": null,
        "Shape_Leng": 0.00668099467,
        "Shape_Area": 0.00000269589,
        "AREA_SQKM": 0.03238642164
      },
      "geometry": {
        "type": "MultiPolygon",
        "coordinates": [
          [
            [
              [
                124.13410155300005,
                12.754204937000054
              ],
              [
                124.13458299000001,
                12.754084805000048
              ],
              [
                124.13458481000009,
                12.754005931000052
              ],
              [
                124.13458723700012,
                12.753923416000077
              ],
              [
                124.13462344300001,
                12.753116070000033
              ],
              [
                124.13463440100008,
                12.752709279000044
              ],
              [
                124.13464055000009,
                12.75242767800006
              ],
              [
                124.13463932000002,
                12.752406773000075
              ],
              [
                124.13464144700004,
                12.752327595000054
              ],
              [
                124.1341526430001,
                12.752600896000047
              ],
              [
                124.13303554400011,
                12.752727911000022
              ],
              [
                124.13294792700003,
                12.752759001000072
              ],
              [
                124.13279247700007,
                12.752874882000071
              ],
              [
                124.13273877600011,
                12.75297663200007
              ],
              [
                124.13268224800004,
                12.753064249000033
              ],
              [
                124.13266529000009,
                12.753117950000046
              ],
              [
                124.1326681160001,
                12.753180130000032
              ],
              [
                124.13267659500002,
                12.753225352000072
              ],
              [
                124.1330178830001,
                12.753659020000043
              ],
              [
                124.13346515300009,
                12.75438981700006
              ],
              [
                124.13410155300005,
                12.754204937000054
              ]
            ]
          ]
        ]
      }
    }
  ]
}