{
  "type": "FeatureCollection",
  "name": "Antipolo",
  "crs": {
    "type": "name",
    "properties": {
      "name": "urn:ogc:def:crs:OGC:1.3:CRS84"
    }
  },
  "features": [
    {
      "type": "Feature",
      "properties": {
        "ADM4_EN": "Antipolo",
        "ADM4_PCODE": "PH0506203004",
        "ADM4_REF": null,
        "ADM3_EN": "Bulan",
        "ADM3_PCODE": "PH0506203",
        "ADM2_EN": "Sorsogon",
        "ADM2_PCODE": "PH05062",
        "ADM1_EN": "Region V (Bicol Region)",
        "ADM1_PCODE": "PH05",
        "ADM0_EN": "Philippines (the)",
        "ADM0_PCODE": "PH",
        "date": "2022-11-09",
        "validOn": "2023-11-06",
        "validTo": null,
        "Shape_Leng": 0.06734005582,
        "Shape_Area": 0.00020208866,
        "AREA_SQKM": 2.42807143079
      },
      "geometry": {
        "type": "MultiPolygon",
        "coordinates": [
          [
            [
              [
                123.88240984000004,
                12.719526941000026
              ],
              [
                123.880146996,
                12.718693262000045
              ],
              [
                123.87564548700004,
                12.71383976900006
              ],
              [
                123.86543851200008,
                12.704818457000044
              ],
              [
                123.86404699800005,
                12.707213678000073
              ],
              [
                123.86462407300007,
                12.709942105000039
              ],
              [
                123.86618834400008,
                12.716671503000043
              ],
              [
                123.86663748700005,
                12.719411191000063
              ],
              [
                123.87014899700011,
                12.721369327000048
              ],
              [
                123.8814249300001,
                12.730435787000033
              ],
              [
                123.88240984000004,
                12.719526941000026
              ]
            ]
          ]
        ]
      }
    }
  ]
}