{
  "type": "FeatureCollection",
  "name": "Benigno S",
  "crs": {
    "type": "name",
    "properties": {
      "name": "urn:ogc:def:crs:OGC:1.3:CRS84"
    }
  },
  "features": [
    {
      "type": "Feature",
      "properties": {
        "ADM4_EN": "Benigno S. Aquino (Imelda)",
        "ADM4_PCODE": "PH0506203025",
        "ADM4_REF": null,
        "ADM3_EN": "Bulan",
        "ADM3_PCODE": "PH0506203",
        "ADM2_EN": "Sorsogon",
        "ADM2_PCODE": "PH05062",
        "ADM1_EN": "Region V (Bicol Region)",
        "ADM1_PCODE": "PH05",
        "ADM0_EN": "Philippines (the)",
        "ADM0_PCODE": "PH",
        "date": "2022-11-09",
        "validOn": "2023-11-06",
        "validTo": null,
        "Shape_Leng": 0.05071322056,
        "Shape_Area": 0.00013682044,
        "AREA_SQKM": 1.64410207025
      },
      "geometry": {
        "type": "MultiPolygon",
        "coordinates": [
          [
            [
              [
                123.88215790800007,
                12.685996937000027
              ],
              [
                123.88414535100003,
                12.685886408000044
              ],
              [
                123.88102292000008,
                12.678204781000034
              ],
              [
                123.87856675900002,
                12.675828712000055
              ],
              [
                123.87592551600005,
                12.67331768200006
              ],
              [
                123.87590446200011,
                12.673318036000069
              ],
              [
                123.87586223400001,
                12.67331189600003
              ],
              [
                123.875660003,
                12.673275084000068
              ],
              [
                123.8749798340001,
                12.673151462000021
              ],
              [
                123.87456156400003,
                12.673079995000023
              ],
              [
                123.87449123600004,
                12.673634108000044
              ],
              [
                123.87448495500007,
                12.673690400000055
              ],
              [
                123.87434626200002,
                12.673678476000077
              ],
              [
                123.8742653920001,
                12.673739308000052
              ],
              [
                123.8741984180001,
                12.67378184200004
              ],
              [
                123.87416571000006,
                12.673803108000072
              ],
              [
                123.87408628500009,
                12.673798538000028
              ],
              [
                123.87407537400009,
                12.673856274000059
              ],
              [
                123.87405057400008,
                12.673915484000077
              ],
              [
                123.87400733900006,
                12.673991255000033
              ],
              [
                123.87391728800003,
                12.673948685000028
              ],
              [
                123.87354381900002,
                12.67392568400004
              ],
              [
                123.87353571500012,
                12.674021473000039
              ],
              [
                123.87353293500007,
                12.674145211000052
              ],
              [
                123.87348172400004,
                12.674211638000031
              ],
              [
                123.87337672400008,
                12.674333152000031
              ],
              [
                123.87328622500002,
                12.674416033000057
              ],
              [
                123.87313139700007,
                12.674543400000061
              ],
              [
                123.87296350600002,
                12.674675884000067
              ],
              [
                123.87293345100011,
                12.674692838000055
              ],
              [
                123.8726801360001,
                12.675205263000066
              ],
              [
                123.87228641100012,
                12.675658504000069
              ],
              [
                123.87241689000007,
                12.67590801600005
              ],
              [
                123.87244556100006,
                12.676228165000055
              ],
              [
                123.87211128400008,
                12.67767396000005
              ],
              [
                123.87299764200009,
                12.679763189000028
              ],
              [
                123.87475539900004,
                12.689632867000057
              ],
              [
                123.87611219100006,
                12.690394359000038
              ],
              [
                123.88046508900004,
                12.692880409000054
              ],
              [
                123.88215790800007,
                12.685996937000027
              ]
            ]
          ]
        ]
      }
    }
  ]
}