{
  "type": "FeatureCollection",
  "name": "Cadandanan",
  "crs": {
    "type": "name",
    "properties": {
      "name": "urn:ogc:def:crs:OGC:1.3:CRS84"
    }
  },
  "features": [
    {
      "type": "Feature",
      "properties": {
        "ADM4_EN": "Cadandanan",
        "ADM4_PCODE": "PH0506203015",
        "ADM4_REF": null,
        "ADM3_EN": "Bulan",
        "ADM3_PCODE": "PH0506203",
        "ADM2_EN": "Sorsogon",
        "ADM2_PCODE": "PH05062",
        "ADM1_EN": "Region V (Bicol Region)",
        "ADM1_PCODE": "PH05",
        "ADM0_EN": "Philippines (the)",
        "ADM0_PCODE": "PH",
        "date": "2022-11-09",
        "validOn": "2023-11-06",
        "validTo": null,
        "Shape_Leng": 0.07101835921,
        "Shape_Area": 0.00029855314,
        "AREA_SQKM": 3.58653608045
      },
      "geometry": {
        "type": "MultiPolygon",
        "coordinates": [
          [
            [
              [
                123.93106765200002,
                12.756066772000054
              ],
              [
                123.9221380140001,
                12.751512553000055
              ],
              [
                123.91650515300012,
                12.747445662000075
              ],
              [
                123.91392111300001,
                12.749027727000055
              ],
              [
                123.91152164800008,
                12.751295354000035
              ],
              [
                123.90868010400004,
                12.752904262000072
              ],
              [
                123.90535159300009,
                12.754090336000047
              ],
              [
                123.90367794500003,
                12.756186306000075
              ],
              [
                123.90337829900011,
                12.76099632200004
              ],
              [
                123.90497715800007,
                12.761501205000059
              ],
              [
                123.90569597500007,
                12.762459627000055
              ],
              [
                123.92664525200007,
                12.764468909000072
              ],
              [
                123.93106765200002,
                12.756066772000054
              ]
            ]
          ]
        ]
      }
    }
  ]
}