{
  "type": "FeatureCollection",
  "name": "Calomagon",
  "crs": {
    "type": "name",
    "properties": {
      "name": "urn:ogc:def:crs:OGC:1.3:CRS84"
    }
  },
  "features": [
    {
      "type": "Feature",
      "properties": {
        "ADM4_EN": "Calomagon",
        "ADM4_PCODE": "PH0506203016",
        "ADM4_REF": null,
        "ADM3_EN": "Bulan",
        "ADM3_PCODE": "PH0506203",
        "ADM2_EN": "Sorsogon",
        "ADM2_PCODE": "PH05062",
        "ADM1_EN": "Region V (Bicol Region)",
        "ADM1_PCODE": "PH05",
        "ADM0_EN": "Philippines (the)",
        "ADM0_PCODE": "PH",
        "date": "2022-11-09",
        "validOn": "2023-11-06",
        "validTo": null,
        "Shape_Leng": 0.10776244531,
        "Shape_Area": 0.00053154331,
        "AREA_SQKM": 6.38658067749
      },
      "geometry": {
        "type": "MultiPolygon",
        "coordinates": [
          [
            [
              [
                123.89359428500006,
                12.725307087000033
              ],
              [
                123.89423425100006,
                12.724982613000066
              ],
              [
                123.89753516400003,
                12.724588565000033
              ],
              [
                123.89129400500008,
                12.705689759000052
              ],
              [
                123.88643569700002,
                12.698686757000075
              ],
              [
                123.88046508900004,
                12.692880409000054
              ],
              [
                123.87569035400008,
                12.700572089000048
              ],
              [
                123.86942826300003,
                12.703270195000073
              ],
              [
                123.86742308500004,
                12.704122609000024
              ],
              [
                123.86543851200008,
                12.704818457000044
              ],
              [
                123.87564548700004,
                12.71383976900006
              ],
              [
                123.880146996,
                12.718693262000045
              ],
              [
                123.88240984000004,
                12.719526941000026
              ],
              [
                123.8814249300001,
                12.730435787000033
              ],
              [
                123.89359428500006,
                12.725307087000033
              ]
            ]
          ]
        ]
      }
    }
  ]
}