{
  "type": "FeatureCollection",
  "name": "Calpi",
  "crs": {
    "type": "name",
    "properties": {
      "name": "urn:ogc:def:crs:OGC:1.3:CRS84"
    }
  },
  "features": [
    {
      "type": "Feature",
      "properties": {
        "ADM4_EN": "Calpi",
        "ADM4_PCODE": "PH0506203017",
        "ADM4_REF": null,
        "ADM3_EN": "Bulan",
        "ADM3_PCODE": "PH0506203",
        "ADM2_EN": "Sorsogon",
        "ADM2_PCODE": "PH05062",
        "ADM1_EN": "Region V (Bicol Region)",
        "ADM1_PCODE": "PH05",
        "ADM0_EN": "Philippines (the)",
        "ADM0_PCODE": "PH",
        "date": "2022-11-09",
        "validOn": "2023-11-06",
        "validTo": null,
        "Shape_Leng": 0.09929405776,
        "Shape_Area": 0.0005068463,
        "AREA_SQKM": 6.08905626994
      },
      "geometry": {
        "type": "MultiPolygon",
        "coordinates": [
          [
            [
              [
                123.93684052100002,
                12.75332929600006
              ],
              [
                123.93754877900005,
                12.75221631900007
              ],
              [
                123.93830863100004,
                12.751878304000059
              ],
              [
                123.93974100800006,
                12.751620482000021
              ],
              [
                123.94194447900009,
                12.751935264000053
              ],
              [
                123.9535779680001,
                12.752782300000035
              ],
              [
                123.95321795200005,
                12.749708508000026
              ],
              [
                123.95316547900006,
                12.749335925000025
              ],
              [
                123.95271393300004,
                12.746143751000034
              ],
              [
                123.95218417600006,
                12.743044521000058
              ],
              [
                123.95192189700003,
                12.739446206000025
              ],
              [
                123.95181288100002,
                12.736545402000047
              ],
              [
                123.95085886100003,
                12.732540677000031
              ],
              [
                123.928026455,
                12.739999252000075
              ],
              [
                123.92752720800001,
                12.73980361200006
              ],
              [
                123.92253539800004,
                12.743115458000034
              ],
              [
                123.91650515300012,
                12.747445662000075
              ],
              [
                123.9221380140001,
                12.751512553000055
              ],
              [
                123.93106765200002,
                12.756066772000054
              ],
              [
                123.93684052100002,
                12.75332929600006
              ]
            ]
          ]
        ]
      }
    }
  ]
}