{
  "type": "FeatureCollection",
  "name": "Cocok-Cabitan",
  "crs": {
    "type": "name",
    "properties": {
      "name": "urn:ogc:def:crs:OGC:1.3:CRS84"
    }
  },
  "features": [
    {
      "type": "Feature",
      "properties": {
        "ADM4_EN": "Cocok-Cabitan",
        "ADM4_PCODE": "PH0506203018",
        "ADM4_REF": null,
        "ADM3_EN": "Bulan",
        "ADM3_PCODE": "PH0506203",
        "ADM2_EN": "Sorsogon",
        "ADM2_PCODE": "PH05062",
        "ADM1_EN": "Region V (Bicol Region)",
        "ADM1_PCODE": "PH05",
        "ADM0_EN": "Philippines (the)",
        "ADM0_PCODE": "PH",
        "date": "2022-11-09",
        "validOn": "2023-11-06",
        "validTo": null,
        "Shape_Leng": 0.0724202264,
        "Shape_Area": 0.00023415095,
        "AREA_SQKM": 2.8128936222
      },
      "geometry": {
        "type": "MultiPolygon",
        "coordinates": [
          [
            [
              [
                123.90367794500003,
                12.756186306000075
              ],
              [
                123.90535159300009,
                12.754090336000047
              ],
              [
                123.90293382700008,
                12.749644272000069
              ],
              [
                123.89567868000006,
                12.750512409000066
              ],
              [
                123.8756495130001,
                12.751442556000029
              ],
              [
                123.87738012000011,
                12.757461392000039
              ],
              [
                123.90337829900011,
                12.76099632200004
              ],
              [
                123.90367794500003,
                12.756186306000075
              ]
            ]
          ]
        ]
      }
    }
  ]
}