{
  "type": "FeatureCollection",
  "name": "Daganas",
  "crs": {
    "type": "name",
    "properties": {
      "name": "urn:ogc:def:crs:OGC:1.3:CRS84"
    }
  },
  "features": [
    {
      "type": "Feature",
      "properties": {
        "ADM4_EN": "Daganas",
        "ADM4_PCODE": "PH0506203019",
        "ADM4_REF": null,
        "ADM3_EN": "Bulan",
        "ADM3_PCODE": "PH0506203",
        "ADM2_EN": "Sorsogon",
        "ADM2_PCODE": "PH05062",
        "ADM1_EN": "Region V (Bicol Region)",
        "ADM1_PCODE": "PH05",
        "ADM0_EN": "Philippines (the)",
        "ADM0_PCODE": "PH",
        "date": "2022-11-09",
        "validOn": "2023-11-06",
        "validTo": null,
        "Shape_Leng": 0.10983525885,
        "Shape_Area": 0.00077685799,
        "AREA_SQKM": 9.33430199539
      },
      "geometry": {
        "type": "MultiPolygon",
        "coordinates": [
          [
            [
              [
                123.95298997000009,
                12.72048052200006
              ],
              [
                123.96507576400006,
                12.719420485000057
              ],
              [
                123.96554275300002,
                12.717428616000063
              ],
              [
                123.9666082760001,
                12.715008775000058
              ],
              [
                123.96698473200001,
                12.714153829000054
              ],
              [
                123.96838571600006,
                12.711733985000023
              ],
              [
                123.969548701,
                12.709319142000027
              ],
              [
                123.97037769000008,
                12.707586254000034
              ],
              [
                123.9708227860001,
                12.70693166500007
              ],
              [
                123.9715726720001,
                12.704647446000024
              ],
              [
                123.97231266100005,
                12.702823565000074
              ],
              [
                123.97338264400003,
                12.700234733000059
              ],
              [
                123.97503562200006,
                12.696718961000045
              ],
              [
                123.9763986050001,
                12.693932142000051
              ],
              [
                123.95225293700003,
                12.689121066000041
              ],
              [
                123.94283375300006,
                12.70191576700006
              ],
              [
                123.94226670100011,
                12.706987733000062
              ],
              [
                123.94229820400005,
                12.716722129000061
              ],
              [
                123.94248722200007,
                12.720596985000043
              ],
              [
                123.95298997000009,
                12.72048052200006
              ]
            ]
          ]
        ]
      }
    }
  ]
}