{
  "type": "FeatureCollection",
  "name": "Dolos",
  "crs": {
    "type": "name",
    "properties": {
      "name": "urn:ogc:def:crs:OGC:1.3:CRS84"
    }
  },
  "features": [
    {
      "type": "Feature",
      "properties": {
        "ADM4_EN": "Dolos",
        "ADM4_PCODE": "PH0506203021",
        "ADM4_REF": null,
        "ADM3_EN": "Bulan",
        "ADM3_PCODE": "PH0506203",
        "ADM2_EN": "Sorsogon",
        "ADM2_PCODE": "PH05062",
        "ADM1_EN": "Region V (Bicol Region)",
        "ADM1_PCODE": "PH05",
        "ADM0_EN": "Philippines (the)",
        "ADM0_PCODE": "PH",
        "date": "2022-11-09",
        "validOn": "2023-11-06",
        "validTo": null,
        "Shape_Leng": 0.0834451744,
        "Shape_Area": 0.00037109734,
        "AREA_SQKM": 4.45795319413
      },
      "geometry": {
        "type": "MultiPolygon",
        "coordinates": [
          [
            [
              [
                123.9543260580001,
                12.769132195000054
              ],
              [
                123.95401804100004,
                12.765945411000075
              ],
              [
                123.95411603000002,
                12.76416153100007
              ],
              [
                123.95383400700007,
                12.759863821000067
              ],
              [
                123.95411798600003,
                12.756196067000076
              ],
              [
                123.9535779680001,
                12.752782300000035
              ],
              [
                123.94194447900009,
                12.751935264000053
              ],
              [
                123.93974100800006,
                12.751620482000021
              ],
              [
                123.93830863100004,
                12.751878304000059
              ],
              [
                123.93754877900005,
                12.75221631900007
              ],
              [
                123.93684052100002,
                12.75332929600006
              ],
              [
                123.93106765200002,
                12.756066772000054
              ],
              [
                123.92664525200007,
                12.764468909000072
              ],
              [
                123.94073108100008,
                12.766002365000077
              ],
              [
                123.94072308000011,
                12.768975278000028
              ],
              [
                123.94596207500001,
                12.769656205000047
              ],
              [
                123.95058685800007,
                12.770750036000038
              ],
              [
                123.9511150730001,
                12.77089709300003
              ],
              [
                123.95445907100009,
                12.771617027000048
              ],
              [
                123.9543260580001,
                12.769132195000054
              ]
            ]
          ]
        ]
      }
    }
  ]
}