{
  "type": "FeatureCollection",
  "name": "E",
  "crs": {
    "type": "name",
    "properties": {
      "name": "urn:ogc:def:crs:OGC:1.3:CRS84"
    }
  },
  "features": [
    {
      "type": "Feature",
      "properties": {
        "ADM4_EN": "E. Quirino",
        "ADM4_PCODE": "PH0506203022",
        "ADM4_REF": null,
        "ADM3_EN": "Bulan",
        "ADM3_PCODE": "PH0506203",
        "ADM2_EN": "Sorsogon",
        "ADM2_PCODE": "PH05062",
        "ADM1_EN": "Region V (Bicol Region)",
        "ADM1_PCODE": "PH05",
        "ADM0_EN": "Philippines (the)",
        "ADM0_PCODE": "PH",
        "date": "2022-11-09",
        "validOn": "2023-11-06",
        "validTo": null,
        "Shape_Leng": 0.05725136726,
        "Shape_Area": 0.00021647598,
        "AREA_SQKM": 2.60078556415
      },
      "geometry": {
        "type": "MultiPolygon",
        "coordinates": [
          [
            [
              [
                123.90444718900005,
                12.739133836000065
              ],
              [
                123.90980011200008,
                12.739207270000065
              ],
              [
                123.9087763440001,
                12.732409783000037
              ],
              [
                123.9088449840001,
                12.728907693000053
              ],
              [
                123.907262048,
                12.728855199000066
              ],
              [
                123.89979136700003,
                12.724362393000035
              ],
              [
                123.89753516400003,
                12.724588565000033
              ],
              [
                123.89423425100006,
                12.724982613000066
              ],
              [
                123.89359428500006,
                12.725307087000033
              ],
              [
                123.8914770240001,
                12.730267654000045
              ],
              [
                123.89363348800009,
                12.738001179000037
              ],
              [
                123.89487650400008,
                12.739454159000047
              ],
              [
                123.90444718900005,
                12.739133836000065
              ]
            ]
          ]
        ]
      }
    }
  ]
}