{
  "type": "FeatureCollection",
  "name": "Fabrica",
  "crs": {
    "type": "name",
    "properties": {
      "name": "urn:ogc:def:crs:OGC:1.3:CRS84"
    }
  },
  "features": [
    {
      "type": "Feature",
      "properties": {
        "ADM4_EN": "Fabrica",
        "ADM4_PCODE": "PH0506203023",
        "ADM4_REF": null,
        "ADM3_EN": "Bulan",
        "ADM3_PCODE": "PH0506203",
        "ADM2_EN": "Sorsogon",
        "ADM2_PCODE": "PH05062",
        "ADM1_EN": "Region V (Bicol Region)",
        "ADM1_PCODE": "PH05",
        "ADM0_EN": "Philippines (the)",
        "ADM0_PCODE": "PH",
        "date": "2022-11-09",
        "validOn": "2023-11-06",
        "validTo": null,
        "Shape_Leng": 0.06625031707,
        "Shape_Area": 0.00024722652,
        "AREA_SQKM": 2.97101129442
      },
      "geometry": {
        "type": "MultiPolygon",
        "coordinates": [
          [
            [
              [
                123.90475033500002,
                12.672798693000061
              ],
              [
                123.90800829200009,
                12.66966870300007
              ],
              [
                123.90919103500005,
                12.665311390000056
              ],
              [
                123.90944526600003,
                12.658745143000033
              ],
              [
                123.90232311000011,
                12.656763658000045
              ],
              [
                123.90162249800005,
                12.656866372000025
              ],
              [
                123.9010257330001,
                12.657040429000062
              ],
              [
                123.9005473740001,
                12.657187317000023
              ],
              [
                123.89981883700011,
                12.65739753300005
              ],
              [
                123.89645053200002,
                12.658383151000066
              ],
              [
                123.89503321400002,
                12.658408016000067
              ],
              [
                123.88808939100011,
                12.656404591000069
              ],
              [
                123.88688144100001,
                12.659865969000066
              ],
              [
                123.88811318100011,
                12.662155607000045
              ],
              [
                123.8900528590001,
                12.664976429000035
              ],
              [
                123.89130516600005,
                12.665021853000042
              ],
              [
                123.89227595200009,
                12.665036426000029
              ],
              [
                123.89297557800012,
                12.665250397000023
              ],
              [
                123.89832132700008,
                12.67086888800003
              ],
              [
                123.90331604700009,
                12.674280396000029
              ],
              [
                123.90475033500002,
                12.672798693000061
              ]
            ]
          ]
        ]
      }
    }
  ]
}