{
  "type": "FeatureCollection",
  "name": "Gate",
  "crs": {
    "type": "name",
    "properties": {
      "name": "urn:ogc:def:crs:OGC:1.3:CRS84"
    }
  },
  "features": [
    {
      "type": "Feature",
      "properties": {
        "ADM4_EN": "Gate",
        "ADM4_PCODE": "PH0506203024",
        "ADM4_REF": null,
        "ADM3_EN": "Bulan",
        "ADM3_PCODE": "PH0506203",
        "ADM2_EN": "Sorsogon",
        "ADM2_PCODE": "PH05062",
        "ADM1_EN": "Region V (Bicol Region)",
        "ADM1_PCODE": "PH05",
        "ADM0_EN": "Philippines (the)",
        "ADM0_PCODE": "PH",
        "date": "2022-11-09",
        "validOn": "2023-11-06",
        "validTo": null,
        "Shape_Leng": 0.05969298185,
        "Shape_Area": 0.0002274411,
        "AREA_SQKM": 2.73321988825
      },
      "geometry": {
        "type": "MultiPolygon",
        "coordinates": [
          [
            [
              [
                123.98366519500007,
                12.667267991000074
              ],
              [
                123.98534804400003,
                12.657089464000023
              ],
              [
                123.98439535500006,
                12.65711966300006
              ],
              [
                123.9798176160001,
                12.656347850000031
              ],
              [
                123.97632152900007,
                12.657569783000042
              ],
              [
                123.97364006500004,
                12.659640281000065
              ],
              [
                123.96905331500011,
                12.66544484600007
              ],
              [
                123.96833602900006,
                12.667201485000021
              ],
              [
                123.9672928010001,
                12.672877889000063
              ],
              [
                123.97335349900004,
                12.673883510000053
              ],
              [
                123.97951049700009,
                12.675405374000036
              ],
              [
                123.98366519500007,
                12.667267991000074
              ]
            ]
          ]
        ]
      }
    }
  ]
}