{
  "type": "FeatureCollection",
  "name": "M",
  "crs": {
    "type": "name",
    "properties": {
      "name": "urn:ogc:def:crs:OGC:1.3:CRS84"
    }
  },
  "features": [
    {
      "type": "Feature",
      "properties": {
        "ADM4_EN": "M. Roxas",
        "ADM4_PCODE": "PH0506203049",
        "ADM4_REF": null,
        "ADM3_EN": "Bulan",
        "ADM3_PCODE": "PH0506203",
        "ADM2_EN": "Sorsogon",
        "ADM2_PCODE": "PH05062",
        "ADM1_EN": "Region V (Bicol Region)",
        "ADM1_PCODE": "PH05",
        "ADM0_EN": "Philippines (the)",
        "ADM0_PCODE": "PH",
        "date": "2022-11-09",
        "validOn": "2023-11-06",
        "validTo": null,
        "Shape_Leng": 0.07466176344,
        "Shape_Area": 0.00034141017,
        "AREA_SQKM": 4.10174425487
      },
      "geometry": {
        "type": "MultiPolygon",
        "coordinates": [
          [
            [
              [
                123.92253539800004,
                12.743115458000034
              ],
              [
                123.92752720800001,
                12.73980361200006
              ],
              [
                123.92849631700005,
                12.733886547000054
              ],
              [
                123.92880615400009,
                12.728185551000024
              ],
              [
                123.9285290680001,
                12.72362660500005
              ],
              [
                123.92867584300006,
                12.721112057000028
              ],
              [
                123.92232127400007,
                12.724000400000023
              ],
              [
                123.91024648900009,
                12.728979443000071
              ],
              [
                123.9088449840001,
                12.728907693000053
              ],
              [
                123.9087763440001,
                12.732409783000037
              ],
              [
                123.90980011200008,
                12.739207270000065
              ],
              [
                123.91397384900006,
                12.74393875100003
              ],
              [
                123.91650515300012,
                12.747445662000075
              ],
              [
                123.92253539800004,
                12.743115458000034
              ]
            ]
          ]
        ]
      }
    }
  ]
}