{
  "type": "FeatureCollection",
  "name": "Montecalvario",
  "crs": {
    "type": "name",
    "properties": {
      "name": "urn:ogc:def:crs:OGC:1.3:CRS84"
    }
  },
  "features": [
    {
      "type": "Feature",
      "properties": {
        "ADM4_EN": "Montecalvario",
        "ADM4_PCODE": "PH0506203035",
        "ADM4_REF": null,
        "ADM3_EN": "Bulan",
        "ADM3_PCODE": "PH0506203",
        "ADM2_EN": "Sorsogon",
        "ADM2_PCODE": "PH05062",
        "ADM1_EN": "Region V (Bicol Region)",
        "ADM1_PCODE": "PH05",
        "ADM0_EN": "Philippines (the)",
        "ADM0_PCODE": "PH",
        "date": "2022-11-09",
        "validOn": "2023-11-06",
        "validTo": null,
        "Shape_Leng": 0.0665626945,
        "Shape_Area": 0.00027039615,
        "AREA_SQKM": 3.24885919807
      },
      "geometry": {
        "type": "MultiPolygon",
        "coordinates": [
          [
            [
              [
                123.94248722200007,
                12.720596985000043
              ],
              [
                123.94229820400005,
                12.716722129000061
              ],
              [
                123.94226670100011,
                12.706987733000062
              ],
              [
                123.94283375300006,
                12.70191576700006
              ],
              [
                123.94187760600005,
                12.70178820600006
              ],
              [
                123.92850692800005,
                12.701457651000055
              ],
              [
                123.92805569400002,
                12.711787291000064
              ],
              [
                123.92867584300006,
                12.721112057000028
              ],
              [
                123.94248722200007,
                12.720596985000043
              ]
            ]
          ]
        ]
      }
    }
  ]
}