{
  "type": "FeatureCollection",
  "name": "Padre Diaz",
  "crs": {
    "type": "name",
    "properties": {
      "name": "urn:ogc:def:crs:OGC:1.3:CRS84"
    }
  },
  "features": [
    {
      "type": "Feature",
      "properties": {
        "ADM4_EN": "Padre Diaz",
        "ADM4_PCODE": "PH0506203041",
        "ADM4_REF": null,
        "ADM3_EN": "Bulan",
        "ADM3_PCODE": "PH0506203",
        "ADM2_EN": "Sorsogon",
        "ADM2_PCODE": "PH05062",
        "ADM1_EN": "Region V (Bicol Region)",
        "ADM1_PCODE": "PH05",
        "ADM0_EN": "Philippines (the)",
        "ADM0_PCODE": "PH",
        "date": "2022-11-09",
        "validOn": "2023-11-06",
        "validTo": null,
        "Shape_Leng": 0.11746002246,
        "Shape_Area": 0.00076072878,
        "AREA_SQKM": 9.14135985975
      },
      "geometry": {
        "type": "MultiPolygon",
        "coordinates": [
          [
            [
              [
                123.9773488290001,
                12.691898566000077
              ],
              [
                123.97821658300006,
                12.690500364000059
              ],
              [
                123.97957856500011,
                12.687796539000033
              ],
              [
                123.98186642400003,
                12.683632462000048
              ],
              [
                123.98333052300006,
                12.681162966000045
              ],
              [
                123.9815333460001,
                12.680926905000035
              ],
              [
                123.97880050300012,
                12.676222323000047
              ],
              [
                123.97951049700009,
                12.675405374000036
              ],
              [
                123.97335349900004,
                12.673883510000053
              ],
              [
                123.9672928010001,
                12.672877889000063
              ],
              [
                123.96546450500011,
                12.672551641000041
              ],
              [
                123.9628925070001,
                12.672113685000056
              ],
              [
                123.95703960500009,
                12.670333437000068
              ],
              [
                123.95044851400007,
                12.669142395000051
              ],
              [
                123.94218235100004,
                12.666788835000034
              ],
              [
                123.940036125,
                12.676768160000051
              ],
              [
                123.94119132600008,
                12.686792186000048
              ],
              [
                123.95225293700003,
                12.689121066000041
              ],
              [
                123.9763986050001,
                12.693932142000051
              ],
              [
                123.9773488290001,
                12.691898566000077
              ]
            ]
          ]
        ]
      }
    }
  ]
}