{
  "type": "FeatureCollection",
  "name": "Palale",
  "crs": {
    "type": "name",
    "properties": {
      "name": "urn:ogc:def:crs:OGC:1.3:CRS84"
    }
  },
  "features": [
    {
      "type": "Feature",
      "properties": {
        "ADM4_EN": "Palale",
        "ADM4_PCODE": "PH0506203042",
        "ADM4_REF": null,
        "ADM3_EN": "Bulan",
        "ADM3_PCODE": "PH0506203",
        "ADM2_EN": "Sorsogon",
        "ADM2_PCODE": "PH05062",
        "ADM1_EN": "Region V (Bicol Region)",
        "ADM1_PCODE": "PH05",
        "ADM0_EN": "Philippines (the)",
        "ADM0_PCODE": "PH",
        "date": "2022-11-09",
        "validOn": "2023-11-06",
        "validTo": null,
        "Shape_Leng": 0.05677974443,
        "Shape_Area": 0.00017830068,
        "AREA_SQKM": 2.14203460433
      },
      "geometry": {
        "type": "MultiPolygon",
        "coordinates": [
          [
            [
              [
                123.90868010400004,
                12.752904262000072
              ],
              [
                123.91152164800008,
                12.751295354000035
              ],
              [
                123.91392111300001,
                12.749027727000055
              ],
              [
                123.91650515300012,
                12.747445662000075
              ],
              [
                123.91397384900006,
                12.74393875100003
              ],
              [
                123.90980011200008,
                12.739207270000065
              ],
              [
                123.90444718900005,
                12.739133836000065
              ],
              [
                123.89487650400008,
                12.739454159000047
              ],
              [
                123.90191892700011,
                12.747803892000036
              ],
              [
                123.90293382700008,
                12.749644272000069
              ],
              [
                123.90535159300009,
                12.754090336000047
              ],
              [
                123.90868010400004,
                12.752904262000072
              ]
            ]
          ]
        ]
      }
    }
  ]
}