{
  "type": "FeatureCollection",
  "name": "Recto",
  "crs": {
    "type": "name",
    "properties": {
      "name": "urn:ogc:def:crs:OGC:1.3:CRS84"
    }
  },
  "features": [
    {
      "type": "Feature",
      "properties": {
        "ADM4_EN": "Recto",
        "ADM4_PCODE": "PH0506203048",
        "ADM4_REF": null,
        "ADM3_EN": "Bulan",
        "ADM3_PCODE": "PH0506203",
        "ADM2_EN": "Sorsogon",
        "ADM2_PCODE": "PH05062",
        "ADM1_EN": "Region V (Bicol Region)",
        "ADM1_PCODE": "PH05",
        "ADM0_EN": "Philippines (the)",
        "ADM0_PCODE": "PH",
        "date": "2022-11-09",
        "validOn": "2023-11-06",
        "validTo": null,
        "Shape_Leng": 0.10675616064,
        "Shape_Area": 0.00057367582,
        "AREA_SQKM": 6.89204901796
      },
      "geometry": {
        "type": "MultiPolygon",
        "coordinates": [
          [
            [
              [
                123.89567868000006,
                12.750512409000066
              ],
              [
                123.90293382700008,
                12.749644272000069
              ],
              [
                123.90191892700011,
                12.747803892000036
              ],
              [
                123.89487650400008,
                12.739454159000047
              ],
              [
                123.89363348800009,
                12.738001179000037
              ],
              [
                123.8914770240001,
                12.730267654000045
              ],
              [
                123.89359428500006,
                12.725307087000033
              ],
              [
                123.8814249300001,
                12.730435787000033
              ],
              [
                123.86788867100006,
                12.730510560000027
              ],
              [
                123.86660101700011,
                12.73861755400003
              ],
              [
                123.86741626600008,
                12.740977487000066
              ],
              [
                123.86966624900003,
                12.743197740000028
              ],
              [
                123.8747876320001,
                12.748530034000055
              ],
              [
                123.8756495130001,
                12.751442556000029
              ],
              [
                123.89567868000006,
                12.750512409000066
              ]
            ]
          ]
        ]
      }
    }
  ]
}