{
  "type": "FeatureCollection",
  "name": "San Juan Daan",
  "crs": {
    "type": "name",
    "properties": {
      "name": "urn:ogc:def:crs:OGC:1.3:CRS84"
    }
  },
  "features": [
    {
      "type": "Feature",
      "properties": {
        "ADM4_EN": "San Juan Daan",
        "ADM4_PCODE": "PH0506203054",
        "ADM4_REF": null,
        "ADM3_EN": "Bulan",
        "ADM3_PCODE": "PH0506203",
        "ADM2_EN": "Sorsogon",
        "ADM2_PCODE": "PH05062",
        "ADM1_EN": "Region V (Bicol Region)",
        "ADM1_PCODE": "PH05",
        "ADM0_EN": "Philippines (the)",
        "ADM0_PCODE": "PH",
        "date": "2022-11-09",
        "validOn": "2023-11-06",
        "validTo": null,
        "Shape_Leng": 0.0933223845,
        "Shape_Area": 0.00045734137,
        "AREA_SQKM": 5.49539942407
      },
      "geometry": {
        "type": "MultiPolygon",
        "coordinates": [
          [
            [
              [
                123.95225293700003,
                12.689121066000041
              ],
              [
                123.94119132600008,
                12.686792186000048
              ],
              [
                123.93403796200005,
                12.68701519900003
              ],
              [
                123.92919856200001,
                12.687153539000064
              ],
              [
                123.92505389400003,
                12.687002218000032
              ],
              [
                123.92293919600002,
                12.686088367000025
              ],
              [
                123.91804492400001,
                12.688039940000067
              ],
              [
                123.91732504800007,
                12.68794573100007
              ],
              [
                123.91509583200002,
                12.701699575000077
              ],
              [
                123.92850692800005,
                12.701457651000055
              ],
              [
                123.94187760600005,
                12.70178820600006
              ],
              [
                123.94283375300006,
                12.70191576700006
              ],
              [
                123.95225293700003,
                12.689121066000041
              ]
            ]
          ]
        ]
      }
    }
  ]
}