{
  "type": "FeatureCollection",
  "name": "San Isidro",
  "crs": {
    "type": "name",
    "properties": {
      "name": "urn:ogc:def:crs:OGC:1.3:CRS84"
    }
  },
  "features": [
    {
      "type": "Feature",
      "properties": {
        "ADM4_EN": "San Isidro",
        "ADM4_PCODE": "PH0506203052",
        "ADM4_REF": null,
        "ADM3_EN": "Bulan",
        "ADM3_PCODE": "PH0506203",
        "ADM2_EN": "Sorsogon",
        "ADM2_PCODE": "PH05062",
        "ADM1_EN": "Region V (Bicol Region)",
        "ADM1_PCODE": "PH05",
        "ADM0_EN": "Philippines (the)",
        "ADM0_PCODE": "PH",
        "date": "2022-11-09",
        "validOn": "2023-11-06",
        "validTo": null,
        "Shape_Leng": 0.09840657533,
        "Shape_Area": 0.00054574107,
        "AREA_SQKM": 6.5586354038
      },
      "geometry": {
        "type": "MultiPolygon",
        "coordinates": [
          [
            [
              [
                123.9642071830001,
                12.666408746000059
              ],
              [
                123.96475223800007,
                12.664005222000071
              ],
              [
                123.96381893800003,
                12.632765259000053
              ],
              [
                123.9591268160001,
                12.63391865400007
              ],
              [
                123.94992756300007,
                12.639945751000027
              ],
              [
                123.9464122500001,
                12.656257596000046
              ],
              [
                123.95044851400007,
                12.669142395000051
              ],
              [
                123.95703960500009,
                12.670333437000068
              ],
              [
                123.9628925070001,
                12.672113685000056
              ],
              [
                123.9642071830001,
                12.666408746000059
              ]
            ]
          ]
        ]
      }
    }
  ]
}