{
  "type": "FeatureCollection",
  "name": "San Juan Bag-o",
  "crs": {
    "type": "name",
    "properties": {
      "name": "urn:ogc:def:crs:OGC:1.3:CRS84"
    }
  },
  "features": [
    {
      "type": "Feature",
      "properties": {
        "ADM4_EN": "San Juan Bag-o",
        "ADM4_PCODE": "PH0506203053",
        "ADM4_REF": null,
        "ADM3_EN": "Bulan",
        "ADM3_PCODE": "PH0506203",
        "ADM2_EN": "Sorsogon",
        "ADM2_PCODE": "PH05062",
        "ADM1_EN": "Region V (Bicol Region)",
        "ADM1_PCODE": "PH05",
        "ADM0_EN": "Philippines (the)",
        "ADM0_PCODE": "PH",
        "date": "2022-11-09",
        "validOn": "2023-11-06",
        "validTo": null,
        "Shape_Leng": 0.04285770107,
        "Shape_Area": 0.00010692934,
        "AREA_SQKM": 1.28495038961
      },
      "geometry": {
        "type": "MultiPolygon",
        "coordinates": [
          [
            [
              [
                123.91182398500007,
                12.68004422000007
              ],
              [
                123.91910507300008,
                12.679697502000067
              ],
              [
                123.91955847400004,
                12.678737358000035
              ],
              [
                123.91940734100001,
                12.677368265000041
              ],
              [
                123.91902725000011,
                12.676826795000068
              ],
              [
                123.91781609700001,
                12.673966692000022
              ],
              [
                123.91721425500009,
                12.673426578000033
              ],
              [
                123.91510009300009,
                12.672176598000021
              ],
              [
                123.91425134100007,
                12.672022280000022
              ],
              [
                123.91363406700009,
                12.672084007000024
              ],
              [
                123.91244581500007,
                12.67196055200003
              ],
              [
                123.91090263000001,
                12.671466733000045
              ],
              [
                123.90931315000012,
                12.671235255000056
              ],
              [
                123.90800829200009,
                12.66966870300007
              ],
              [
                123.90475033500002,
                12.672798693000061
              ],
              [
                123.90331604700009,
                12.674280396000029
              ],
              [
                123.90385799600006,
                12.674660006000067
              ],
              [
                123.90759360700008,
                12.678307491000055
              ],
              [
                123.90752362600006,
                12.678704048000043
              ],
              [
                123.90873018900004,
                12.680497621000029
              ],
              [
                123.91182398500007,
                12.68004422000007
              ]
            ]
          ]
        ]
      }
    }
  ]
}