{
  "type": "FeatureCollection",
  "name": "San Ramon",
  "crs": {
    "type": "name",
    "properties": {
      "name": "urn:ogc:def:crs:OGC:1.3:CRS84"
    }
  },
  "features": [
    {
      "type": "Feature",
      "properties": {
        "ADM4_EN": "San Ramon",
        "ADM4_PCODE": "PH0506203056",
        "ADM4_REF": null,
        "ADM3_EN": "Bulan",
        "ADM3_PCODE": "PH0506203",
        "ADM2_EN": "Sorsogon",
        "ADM2_PCODE": "PH05062",
        "ADM1_EN": "Region V (Bicol Region)",
        "ADM1_PCODE": "PH05",
        "ADM0_EN": "Philippines (the)",
        "ADM0_PCODE": "PH",
        "date": "2022-11-09",
        "validOn": "2023-11-06",
        "validTo": null,
        "Shape_Leng": 0.07526778181,
        "Shape_Area": 0.00024102624,
        "AREA_SQKM": 2.89660243681
      },
      "geometry": {
        "type": "MultiPolygon",
        "coordinates": [
          [
            [
              [
                123.9464122500001,
                12.656257596000046
              ],
              [
                123.94992756300007,
                12.639945751000027
              ],
              [
                123.93915550100007,
                12.64458250000007
              ],
              [
                123.937528143,
                12.645241436000049
              ],
              [
                123.93795589600006,
                12.654114481000022
              ],
              [
                123.93809754000006,
                12.658442069000046
              ],
              [
                123.9378865650001,
                12.660441085000059
              ],
              [
                123.9378890700001,
                12.660474403000023
              ],
              [
                123.93799652300004,
                12.661346001000027
              ],
              [
                123.94218235100004,
                12.666788835000034
              ],
              [
                123.95044851400007,
                12.669142395000051
              ],
              [
                123.9464122500001,
                12.656257596000046
              ]
            ]
          ]
        ]
      }
    }
  ]
}