{
  "type": "FeatureCollection",
  "name": "Santa Teresita",
  "crs": {
    "type": "name",
    "properties": {
      "name": "urn:ogc:def:crs:OGC:1.3:CRS84"
    }
  },
  "features": [
    {
      "type": "Feature",
      "properties": {
        "ADM4_EN": "Santa Teresita",
        "ADM4_PCODE": "PH0506203059",
        "ADM4_REF": null,
        "ADM3_EN": "Bulan",
        "ADM3_PCODE": "PH0506203",
        "ADM2_EN": "Sorsogon",
        "ADM2_PCODE": "PH05062",
        "ADM1_EN": "Region V (Bicol Region)",
        "ADM1_PCODE": "PH05",
        "ADM0_EN": "Philippines (the)",
        "ADM0_PCODE": "PH",
        "date": "2022-11-09",
        "validOn": "2023-11-06",
        "validTo": null,
        "Shape_Leng": 0.0627934849,
        "Shape_Area": 0.0001540508,
        "AREA_SQKM": 1.85125159429
      },
      "geometry": {
        "type": "MultiPolygon",
        "coordinates": [
          [
            [
              [
                123.98407751700006,
                12.680407013000035
              ],
              [
                123.9870834830001,
                12.675118354000062
              ],
              [
                123.98672596200004,
                12.672366477000025
              ],
              [
                123.98840207700005,
                12.669049909000023
              ],
              [
                123.98857315300006,
                12.668916771000056
              ],
              [
                123.99430548100008,
                12.664817979000077
              ],
              [
                123.99329690400009,
                12.663871907000043
              ],
              [
                123.99061081000002,
                12.660145829000044
              ],
              [
                123.98988337800006,
                12.659004734000064
              ],
              [
                123.98972795000009,
                12.656638670000063
              ],
              [
                123.98534804400003,
                12.657089464000023
              ],
              [
                123.98366519500007,
                12.667267991000074
              ],
              [
                123.97951049700009,
                12.675405374000036
              ],
              [
                123.97880050300012,
                12.676222323000047
              ],
              [
                123.9815333460001,
                12.680926905000035
              ],
              [
                123.98333052300006,
                12.681162966000045
              ],
              [
                123.98407751700006,
                12.680407013000035
              ]
            ]
          ]
        ]
      }
    }
  ]
}