{
  "type": "FeatureCollection",
  "name": "Sigad",
  "crs": {
    "type": "name",
    "properties": {
      "name": "urn:ogc:def:crs:OGC:1.3:CRS84"
    }
  },
  "features": [
    {
      "type": "Feature",
      "properties": {
        "ADM4_EN": "Sigad",
        "ADM4_PCODE": "PH0506203060",
        "ADM4_REF": null,
        "ADM3_EN": "Bulan",
        "ADM3_PCODE": "PH0506203",
        "ADM2_EN": "Sorsogon",
        "ADM2_PCODE": "PH05062",
        "ADM1_EN": "Region V (Bicol Region)",
        "ADM1_PCODE": "PH05",
        "ADM0_EN": "Philippines (the)",
        "ADM0_PCODE": "PH",
        "date": "2022-11-09",
        "validOn": "2023-11-06",
        "validTo": null,
        "Shape_Leng": 0.07641258822,
        "Shape_Area": 0.00028221359,
        "AREA_SQKM": 3.39160376004
      },
      "geometry": {
        "type": "MultiPolygon",
        "coordinates": [
          [
            [
              [
                123.92847758200003,
                12.653668767000056
              ],
              [
                123.92796342300005,
                12.648732837000068
              ],
              [
                123.91087187300002,
                12.647456858000055
              ],
              [
                123.90271483400011,
                12.64684789000006
              ],
              [
                123.90138327700004,
                12.645843736000074
              ],
              [
                123.90138340400006,
                12.651010283000062
              ],
              [
                123.90135763600006,
                12.655120241000077
              ],
              [
                123.9010257330001,
                12.657040429000062
              ],
              [
                123.90162249800005,
                12.656866372000025
              ],
              [
                123.90232311000011,
                12.656763658000045
              ],
              [
                123.90944526600003,
                12.658745143000033
              ],
              [
                123.91474374200004,
                12.65791478400007
              ],
              [
                123.92858304700007,
                12.658942847000048
              ],
              [
                123.92847758200003,
                12.653668767000056
              ]
            ]
          ]
        ]
      }
    }
  ]
}