{
  "type": "FeatureCollection",
  "name": "Taromata",
  "crs": {
    "type": "name",
    "properties": {
      "name": "urn:ogc:def:crs:OGC:1.3:CRS84"
    }
  },
  "features": [
    {
      "type": "Feature",
      "properties": {
        "ADM4_EN": "Taromata",
        "ADM4_PCODE": "PH0506203063",
        "ADM4_REF": null,
        "ADM3_EN": "Bulan",
        "ADM3_PCODE": "PH0506203",
        "ADM2_EN": "Sorsogon",
        "ADM2_PCODE": "PH05062",
        "ADM1_EN": "Region V (Bicol Region)",
        "ADM1_PCODE": "PH05",
        "ADM0_EN": "Philippines (the)",
        "ADM0_PCODE": "PH",
        "date": "2022-11-09",
        "validOn": "2023-11-06",
        "validTo": null,
        "Shape_Leng": 0.11894917808,
        "Shape_Area": 0.00061197187,
        "AREA_SQKM": 7.35469941948
      },
      "geometry": {
        "type": "MultiPolygon",
        "coordinates": [
          [
            [
              [
                123.96833602900006,
                12.667201485000021
              ],
              [
                123.96905331500011,
                12.66544484600007
              ],
              [
                123.97364006500004,
                12.659640281000065
              ],
              [
                123.97632152900007,
                12.657569783000042
              ],
              [
                123.9798176160001,
                12.656347850000031
              ],
              [
                123.98439535500006,
                12.65711966300006
              ],
              [
                123.98534804400003,
                12.657089464000023
              ],
              [
                123.98972795000009,
                12.656638670000063
              ],
              [
                123.98936794200006,
                12.653027460000033
              ],
              [
                123.9888539320001,
                12.648210181000024
              ],
              [
                123.9888249170001,
                12.64436095700006
              ],
              [
                123.98845651400006,
                12.639481163000028
              ],
              [
                123.96381893800003,
                12.632765259000053
              ],
              [
                123.96475223800007,
                12.664005222000071
              ],
              [
                123.9642071830001,
                12.666408746000059
              ],
              [
                123.9628925070001,
                12.672113685000056
              ],
              [
                123.96546450500011,
                12.672551641000041
              ],
              [
                123.9672928010001,
                12.672877889000063
              ],
              [
                123.96833602900006,
                12.667201485000021
              ]
            ]
          ]
        ]
      }
    }
  ]
}