{
  "type": "FeatureCollection",
  "name": "Zone I Pob",
  "crs": {
    "type": "name",
    "properties": {
      "name": "urn:ogc:def:crs:OGC:1.3:CRS84"
    }
  },
  "features": [
    {
      "type": "Feature",
      "properties": {
        "ADM4_EN": "Zone I Pob. (Bgy. 1- South Ilawod)",
        "ADM4_PCODE": "PH0506203005",
        "ADM4_REF": null,
        "ADM3_EN": "Bulan",
        "ADM3_PCODE": "PH0506203",
        "ADM2_EN": "Sorsogon",
        "ADM2_PCODE": "PH05062",
        "ADM1_EN": "Region V (Bicol Region)",
        "ADM1_PCODE": "PH05",
        "ADM0_EN": "Philippines (the)",
        "ADM0_PCODE": "PH",
        "date": "2022-11-09",
        "validOn": "2023-11-06",
        "validTo": null,
        "Shape_Leng": 0.01640856411,
        "Shape_Area": 0.00000583133,
        "AREA_SQKM": 0.07007786523
      },
      "geometry": {
        "type": "MultiPolygon",
        "coordinates": [
          [
            [
              [
                123.87590809800008,
                12.663704818000042
              ],
              [
                123.87585985900012,
                12.662607391000051
              ],
              [
                123.87586264400011,
                12.661881185000027
              ],
              [
                123.87575481400006,
                12.661750767000058
              ],
              [
                123.875719451,
                12.661628875000076
              ],
              [
                123.87570311900004,
                12.661492672000065
              ],
              [
                123.87572486300007,
                12.66133241600005
              ],
              [
                123.87579852400006,
                12.661091418000069
              ],
              [
                123.87587789200006,
                12.660911436000049
              ],
              [
                123.87602912200009,
                12.660699666000028
              ],
              [
                123.87629077500003,
                12.660427134000031
              ],
              [
                123.87666137000008,
                12.65999651900006
              ],
              [
                123.87663413300004,
                12.659693237000056
              ],
              [
                123.87653892000003,
                12.65929979200007
              ],
              [
                123.87625098,
                12.658629457000075
              ],
              [
                123.87613581100004,
                12.658389271000033
              ],
              [
                123.87558838300004,
                12.65738011600007
              ],
              [
                123.87526583200008,
                12.660057728000027
              ],
              [
                123.87525098600008,
                12.660420890000069
              ],
              [
                123.87522677200002,
                12.66091564800007
              ],
              [
                123.87522465100005,
                12.660960129000046
              ],
              [
                123.87514096000007,
                12.66259031800007
              ],
              [
                123.87511424400009,
                12.66371526100005
              ],
              [
                123.87511224900004,
                12.664847480000049
              ],
              [
                123.87570851500004,
                12.664856917000066
              ],
              [
                123.87593824700002,
                12.664868574000025
              ],
              [
                123.87590809800008,
                12.663704818000042
              ]
            ]
          ]
        ]
      }
    }
  ]
}