{
  "type": "FeatureCollection",
  "name": "Olandia",
  "crs": {
    "type": "name",
    "properties": {
      "name": "urn:ogc:def:crs:OGC:1.3:CRS84"
    }
  },
  "features": [
    {
      "type": "Feature",
      "properties": {
        "ADM4_EN": "Olandia",
        "ADM4_PCODE": "PH0506202016",
        "ADM4_REF": null,
        "ADM3_EN": "Barcelona",
        "ADM3_PCODE": "PH0506202",
        "ADM2_EN": "Sorsogon",
        "ADM2_PCODE": "PH05062",
        "ADM1_EN": "Region V (Bicol Region)",
        "ADM1_PCODE": "PH05",
        "ADM0_EN": "Philippines (the)",
        "ADM0_PCODE": "PH",
        "date": "2022-11-09",
        "validOn": "2023-11-06",
        "validTo": null,
        "Shape_Leng": 0.07824038435,
        "Shape_Area": 0.00032654508,
        "AREA_SQKM": 3.9216124644
      },
      "geometry": {
        "type": "MultiPolygon",
        "coordinates": [
          [
            [
              [
                124.13574523500006,
                12.84275202200007
              ],
              [
                124.13963666600011,
                12.838067892000026
              ],
              [
                124.13616911800011,
                12.83597072300006
              ],
              [
                124.13517011300007,
                12.834812806000059
              ],
              [
                124.13214910900001,
                12.832982945000026
              ],
              [
                124.13110410900003,
                12.832734968000068
              ],
              [
                124.12876110500008,
                12.83126807900004
              ],
              [
                124.12729710500003,
                12.830793119000077
              ],
              [
                124.12365010100007,
                12.828920264000033
              ],
              [
                124.1231771030001,
                12.829104255000061
              ],
              [
                124.11565764800002,
                12.824726549000047
              ],
              [
                124.10990974600008,
                12.833175360000041
              ],
              [
                124.10924344800003,
                12.833237825000026
              ],
              [
                124.10874372500007,
                12.833321112000021
              ],
              [
                124.10931059900008,
                12.834142752000048
              ],
              [
                124.1129440310001,
                12.838407072000052
              ],
              [
                124.11298178800007,
                12.838407681000035
              ],
              [
                124.11302871400005,
                12.838408799000035
              ],
              [
                124.12094136500002,
                12.841350481000063
              ],
              [
                124.12156717700009,
                12.841883403000054
              ],
              [
                124.12284117500008,
                12.842017388000045
              ],
              [
                124.12496218000001,
                12.84354327400007
              ],
              [
                124.12677018200009,
                12.844396206000056
              ],
              [
                124.12855517800006,
                12.844323202000055
              ],
              [
                124.12928017600007,
                12.844194207000044
              ],
              [
                124.13031017700007,
                12.844660170000054
              ],
              [
                124.13239428100007,
                12.846247104000042
              ],
              [
                124.13574523500006,
                12.84275202200007
              ]
            ]
          ]
        ]
      }
    }
  ]
}