{
  "type": "FeatureCollection",
  "name": "Irosin",
  "crs": {
    "type": "name",
    "properties": {
      "name": "urn:ogc:def:crs:OGC:1.3:CRS84"
    }
  },
  "features": [
    {
      "type": "Feature",
      "properties": {
        "ADM3_EN": "Irosin",
        "ADM3_PCODE": "PH0506209",
        "ADM2_EN": "Sorsogon",
        "ADM2_PCODE": "PH05062",
        "ADM1_EN": "Region V (Bicol Region)",
        "ADM1_PCODE": "PH05",
        "ADM0_EN": "Philippines (the)",
        "ADM0_PCODE": "PH",
        "date": "2022-11-09",
        "validOn": "2023-11-06",
        "validTo": null,
        "ADM3_REF": null,
        "ADM3ALT1EN": null,
        "Shape_Leng": 0.44173834105,
        "Shape_Area": 0.01118379883,
        "AREA_SQKM": 134.374787269
      },
      "geometry": {
        "type": "MultiPolygon",
        "coordinates": [
          [
            [
              [
                124.10528537800008,
                12.692905526000061
              ],
              [
                124.09890737500007,
                12.690275737000036
              ],
              [
                124.09658015500008,
                12.689284919000045
              ],
              [
                124.09288113700006,
                12.687718915000062
              ],
              [
                124.09126737000008,
                12.687033997000071
              ],
              [
                124.08793836600012,
                12.685243135000064
              ],
              [
                124.08678477600006,
                12.684681857000044
              ],
              [
                124.08414136300007,
                12.683394280000073
              ],
              [
                124.08176777100005,
                12.682210756000075
              ],
              [
                124.08115336000003,
                12.68190439700004
              ],
              [
                124.07972835800001,
                12.681220450000069
              ],
              [
                124.07329235000009,
                12.677691722000077
              ],
              [
                124.07135234700002,
                12.676521812000033
              ],
              [
                124.06829234400004,
                12.67498893100003
              ],
              [
                124.06224533600005,
                12.671656188000043
              ],
              [
                124.05488632600009,
                12.667540505000034
              ],
              [
                124.05370898100011,
                12.666758943000048
              ],
              [
                124.05112431900011,
                12.665044693000027
              ],
              [
                124.04605031200003,
                12.662191913000072
              ],
              [
                124.04010730900006,
                12.659897099000034
              ],
              [
                124.03998528500006,
                12.65554439300007
              ],
              [
                124.04092125600005,
                12.65055972500005
              ],
              [
                124.04179123000006,
                12.646071023000047
              ],
              [
                124.03019621100009,
                12.639014561000067
              ],
              [
                124.0277013430001,
                12.641566075000071
              ],
              [
                124.02386761700006,
                12.64553632600007
              ],
              [
                124.01757464800005,
                12.652062710000052
              ],
              [
                124.0071947890001,
                12.661321057000066
              ],
              [
                123.99726442300005,
                12.667376822000051
              ],
              [
                123.99430548100008,
                12.664817979000077
              ],
              [
                123.98857315300006,
                12.668916771000056
              ],
              [
                123.98840207700005,
                12.669049909000023
              ],
              [
                123.98672596200004,
                12.672366477000025
              ],
              [
                123.9870834830001,
                12.675118354000062
              ],
              [
                123.98407751700006,
                12.680407013000035
              ],
              [
                123.98333052300006,
                12.681162966000045
              ],
              [
                123.98186642400003,
                12.683632462000048
              ],
              [
                123.97957856500011,
                12.687796539000033
              ],
              [
                123.97821658300006,
                12.690500364000059
              ],
              [
                123.9773488290001,
                12.691898566000077
              ],
              [
                123.9763986050001,
                12.693932142000051
              ],
              [
                123.97503562200006,
                12.696718961000045
              ],
              [
                123.97338264400003,
                12.700234733000059
              ],
              [
                123.97231266100005,
                12.702823565000074
              ],
              [
                123.9715726720001,
                12.704647446000024
              ],
              [
                123.9708227860001,
                12.70693166500007
              ],
              [
                123.97037769000008,
                12.707586254000034
              ],
              [
                123.969548701,
                12.709319142000027
              ],
              [
                123.96838571600006,
                12.711733985000023
              ],
              [
                123.96698473200001,
                12.714153829000054
              ],
              [
                123.9666082760001,
                12.715008775000058
              ],
              [
                123.96554275300002,
                12.717428616000063
              ],
              [
                123.96507576400006,
                12.719420485000057
              ],
              [
                123.96407577500008,
                12.72105638000005
              ],
              [
                123.96231279800008,
                12.724703144000046
              ],
              [
                123.96155507700007,
                12.726129017000062
              ],
              [
                123.96013582400008,
                12.728760882000074
              ],
              [
                123.9587978400001,
                12.731132729000024
              ],
              [
                123.96502379900005,
                12.733337817000063
              ],
              [
                123.9675818180001,
                12.734142314000053
              ],
              [
                123.96913085900007,
                12.734474251000051
              ],
              [
                123.97090119100005,
                12.735027480000042
              ],
              [
                123.97187953000002,
                12.735374238000077
              ],
              [
                123.97471960700011,
                12.736565238000026
              ],
              [
                123.97700999200003,
                12.73729816100007
              ],
              [
                123.98327156800008,
                12.73918307200006
              ],
              [
                123.98320895300003,
                12.739350045000037
              ],
              [
                123.98302110800012,
                12.739454403000025
              ],
              [
                123.98277760600001,
                12.739530933000026
              ],
              [
                123.98222102800003,
                12.739899666000042
              ],
              [
                123.98161575000006,
                12.740463201000068
              ],
              [
                123.98125397400008,
                12.740644088000067
              ],
              [
                123.98107308600004,
                12.740887591000046
              ],
              [
                123.98091307000004,
                12.741242409000051
              ],
              [
                123.9807739260001,
                12.74149286900007
              ],
              [
                123.98034257800009,
                12.742244249000066
              ],
              [
                123.98005037400003,
                12.742786913000032
              ],
              [
                123.9799042730001,
                12.743016501000056
              ],
              [
                123.9799042730001,
                12.743371320000051
              ],
              [
                123.97984861500004,
                12.743719181000074
              ],
              [
                123.97979295700009,
                12.744442732000039
              ],
              [
                123.9797860000001,
                12.744818422000037
              ],
              [
                123.97973034200004,
                12.74515236800005
              ],
              [
                123.97968859900004,
                12.745340213000077
              ],
              [
                123.97952858300005,
                12.745507187000044
              ],
              [
                123.97940335300007,
                12.74574373200005
              ],
              [
                123.97934769500011,
                12.746022021000044
              ],
              [
                123.97937552400003,
                12.746321182000031
              ],
              [
                123.97938943800011,
                12.746536856000034
              ],
              [
                123.97934073800002,
                12.746822102000067
              ],
              [
                123.97925029400005,
                12.746996032000027
              ],
              [
                123.97912506400007,
                12.747246492000045
              ],
              [
                123.9791528930001,
                12.747455209000066
              ],
              [
                123.9791528930001,
                12.74760131100004
              ],
              [
                123.97931986600008,
                12.747789156000067
              ],
              [
                123.97933401800003,
                12.748071741000047
              ],
              [
                123.97936160900008,
                12.748150931000055
              ],
              [
                123.97936856700005,
                12.748297033000028
              ],
              [
                123.97929899400003,
                12.748624023000048
              ],
              [
                123.97929203700005,
                12.748832739000022
              ],
              [
                123.97937552400003,
                12.748916226000063
              ],
              [
                123.97952162600006,
                12.749090156000022
              ],
              [
                123.97963989800007,
                12.74940323100003
              ],
              [
                123.97973729900002,
                12.749688478000053
              ],
              [
                123.97971642800007,
                12.749994595000032
              ],
              [
                123.97966077000001,
                12.750224184000047
              ],
              [
                123.97954249700001,
                12.750425943000039
              ],
              [
                123.97950771100011,
                12.750599874000045
              ],
              [
                123.97951466800009,
                12.750739018000047
              ],
              [
                123.97955989000002,
                12.750862509000058
              ],
              [
                123.97960391400011,
                12.750897394000049
              ],
              [
                123.97982600400007,
                12.751019046000067
              ],
              [
                123.98010777200011,
                12.751128623000056
              ],
              [
                123.98013907900008,
                12.751269506000028
              ],
              [
                123.98013907900008,
                12.751504313000055
              ],
              [
                123.98023300200009,
                12.751739119000035
              ],
              [
                123.98032692400011,
                12.751848695000035
              ],
              [
                123.98074957500012,
                12.751880003000053
              ],
              [
                123.98114091900004,
                12.752083501000072
              ],
              [
                123.98145399400005,
                12.75261572900007
              ],
              [
                123.98164183900008,
                12.75308534100003
              ],
              [
                123.98172159,
                12.75345410400007
              ],
              [
                123.98344021100002,
                12.754484117000061
              ],
              [
                123.98597745100005,
                12.75599623000005
              ],
              [
                123.98916594000002,
                12.758424730000058
              ],
              [
                123.99204994200011,
                12.75980362100006
              ],
              [
                123.99415394400012,
                12.760680551000064
              ],
              [
                123.9979419450001,
                12.76204743900007
              ],
              [
                124.00244594600008,
                12.76368330500003
              ],
              [
                124.00808594700004,
                12.765558148000025
              ],
              [
                124.01743494900006,
                12.768674888000021
              ],
              [
                124.02482894700006,
                12.770668715000056
              ],
              [
                124.0281469460001,
                12.77141864600003
              ],
              [
                124.04071094300002,
                12.774888346000068
              ],
              [
                124.04634094300002,
                12.776566203000073
              ],
              [
                124.0490979430001,
                12.777380133000065
              ],
              [
                124.05250790700006,
                12.77204047400005
              ],
              [
                124.0545158870001,
                12.769045665000021
              ],
              [
                124.05581787300002,
                12.766926801000068
              ],
              [
                124.05640827200011,
                12.76604350100007
              ],
              [
                124.05685492700002,
                12.765403296000045
              ],
              [
                124.05749513300009,
                12.764375990000076
              ],
              [
                124.0579038520001,
                12.763755003000028
              ],
              [
                124.0581233040001,
                12.763454852000052
              ],
              [
                124.05858724600012,
                12.762820096000041
              ],
              [
                124.05957952200004,
                12.761487621000072
              ],
              [
                124.06055382800002,
                12.760137233000023
              ],
              [
                124.06055851100007,
                12.760131214000069
              ],
              [
                124.06056372900002,
                12.760124519000044
              ],
              [
                124.0605698820001,
                12.760116495000034
              ],
              [
                124.060577168,
                12.760107241000071
              ],
              [
                124.06058199200004,
                12.760101039000062
              ],
              [
                124.06058711100002,
                12.760094442000025
              ],
              [
                124.06059031100006,
                12.760090258000048
              ],
              [
                124.06062559100008,
                12.760044203000064
              ],
              [
                124.0606506360001,
                12.760012803000052
              ],
              [
                124.060665588,
                12.759993739000038
              ],
              [
                124.06070846900002,
                12.759938863000059
              ],
              [
                124.06160159800004,
                12.75878244100005
              ],
              [
                124.06210837700007,
                12.75813564300006
              ],
              [
                124.06245081100008,
                12.757693387000074
              ],
              [
                124.06301371100005,
                12.756957272000022
              ],
              [
                124.06355978500005,
                12.756267494000042
              ],
              [
                124.06439326800012,
                12.755175345000055
              ],
              [
                124.0649450190001,
                12.754445350000026
              ],
              [
                124.0650147880001,
                12.754371597000045
              ],
              [
                124.07692076700005,
                12.734905430000026
              ],
              [
                124.08176777100005,
                12.728440668000076
              ],
              [
                124.0840041780001,
                12.72545782800006
              ],
              [
                124.08706356500011,
                12.721059725000032
              ],
              [
                124.08923945300012,
                12.71636200200004
              ],
              [
                124.09359149500006,
                12.71037541000004
              ],
              [
                124.09620247100008,
                12.706732642000077
              ],
              [
                124.09822645100007,
                12.703900822000037
              ],
              [
                124.0984651230001,
                12.703612147000058
              ],
              [
                124.10149503200012,
                12.699889183000039
              ],
              [
                124.1044774820001,
                12.694819936000044
              ],
              [
                124.10528537800008,
                12.692905526000061
              ]
            ]
          ]
        ]
      }
    }
  ]
}