{
  "type": "FeatureCollection",
  "name": "Casini",
  "crs": {
    "type": "name",
    "properties": {
      "name": "urn:ogc:def:crs:OGC:1.3:CRS84"
    }
  },
  "features": [
    {
      "type": "Feature",
      "properties": {
        "ADM4_EN": "Casini",
        "ADM4_PCODE": "PH0506209008",
        "ADM4_REF": null,
        "ADM3_EN": "Irosin",
        "ADM3_PCODE": "PH0506209",
        "ADM2_EN": "Sorsogon",
        "ADM2_PCODE": "PH05062",
        "ADM1_EN": "Region V (Bicol Region)",
        "ADM1_PCODE": "PH05",
        "ADM0_EN": "Philippines (the)",
        "ADM0_PCODE": "PH",
        "date": "2022-11-09",
        "validOn": "2023-11-06",
        "validTo": null,
        "Shape_Leng": 0.1258642693,
        "Shape_Area": 0.0007105323,
        "AREA_SQKM": 8.53863182696
      },
      "geometry": {
        "type": "MultiPolygon",
        "coordinates": [
          [
            [
              [
                124.00002411900005,
                12.683125613000072
              ],
              [
                124.00067982400003,
                12.682997044000047
              ],
              [
                124.00083410800005,
                12.682765619000065
              ],
              [
                124.00087267800006,
                12.682379910000066
              ],
              [
                124.00086907200011,
                12.68201330100004
              ],
              [
                124.00078268000004,
                12.681801347000032
              ],
              [
                124.00078268000004,
                12.681698491000077
              ],
              [
                124.00105267600009,
                12.68164706300007
              ],
              [
                124.0289763610001,
                12.665875755000059
              ],
              [
                124.03033531900007,
                12.65869523200007
              ],
              [
                124.02386761700006,
                12.64553632600007
              ],
              [
                124.01757464800005,
                12.652062710000052
              ],
              [
                124.0071947890001,
                12.661321057000066
              ],
              [
                123.99726442300005,
                12.667376822000051
              ],
              [
                123.99430548100008,
                12.664817979000077
              ],
              [
                123.98857315300006,
                12.668916771000056
              ],
              [
                123.98840207700005,
                12.669049909000023
              ],
              [
                123.98672596200004,
                12.672366477000025
              ],
              [
                123.9870834830001,
                12.675118354000062
              ],
              [
                123.99266749500009,
                12.679085056000076
              ],
              [
                123.9941784990001,
                12.680242970000052
              ],
              [
                123.99838951700008,
                12.684762643000056
              ],
              [
                124.00002411900005,
                12.683125613000072
              ]
            ]
          ]
        ]
      }
    }
  ]
}