{
  "type": "FeatureCollection",
  "name": "Liang",
  "crs": {
    "type": "name",
    "properties": {
      "name": "urn:ogc:def:crs:OGC:1.3:CRS84"
    }
  },
  "features": [
    {
      "type": "Feature",
      "properties": {
        "ADM4_EN": "Liang",
        "ADM4_PCODE": "PH0506209015",
        "ADM4_REF": null,
        "ADM3_EN": "Irosin",
        "ADM3_PCODE": "PH0506209",
        "ADM2_EN": "Sorsogon",
        "ADM2_PCODE": "PH05062",
        "ADM1_EN": "Region V (Bicol Region)",
        "ADM1_PCODE": "PH05",
        "ADM0_EN": "Philippines (the)",
        "ADM0_PCODE": "PH",
        "date": "2022-11-09",
        "validOn": "2023-11-06",
        "validTo": null,
        "Shape_Leng": 0.11562809403,
        "Shape_Area": 0.00058745416,
        "AREA_SQKM": 7.05972871223
      },
      "geometry": {
        "type": "MultiPolygon",
        "coordinates": [
          [
            [
              [
                124.04525741100008,
                12.679981717000032
              ],
              [
                124.04771339500007,
                12.677932842000075
              ],
              [
                124.04939937800009,
                12.675293011000065
              ],
              [
                124.05032335800001,
                12.671924233000027
              ],
              [
                124.05488632600009,
                12.667540505000034
              ],
              [
                124.05370898100011,
                12.666758943000048
              ],
              [
                124.05112431900011,
                12.665044693000027
              ],
              [
                124.04605031200003,
                12.662191913000072
              ],
              [
                124.04010730900006,
                12.659897099000034
              ],
              [
                124.03998528500006,
                12.65554439300007
              ],
              [
                124.04092125600005,
                12.65055972500005
              ],
              [
                124.04179123000006,
                12.646071023000047
              ],
              [
                124.03019621100009,
                12.639014561000067
              ],
              [
                124.0277013430001,
                12.641566075000071
              ],
              [
                124.02386761700006,
                12.64553632600007
              ],
              [
                124.03033531900007,
                12.65869523200007
              ],
              [
                124.0289763610001,
                12.665875755000059
              ],
              [
                124.029304378,
                12.669139533000077
              ],
              [
                124.0304403990001,
                12.673271248000049
              ],
              [
                124.03085239800009,
                12.673266246000026
              ],
              [
                124.0325464010001,
                12.67427716900005
              ],
              [
                124.03553740100006,
                12.675241088000064
              ],
              [
                124.03813140400007,
                12.67655598600004
              ],
              [
                124.04137340600005,
                12.677893878000077
              ],
              [
                124.04434941300008,
                12.680116713000075
              ],
              [
                124.04525741100008,
                12.679981717000032
              ]
            ]
          ]
        ]
      }
    }
  ]
}