{
  "type": "FeatureCollection",
  "name": "San Juan (Pob",
  "crs": {
    "type": "name",
    "properties": {
      "name": "urn:ogc:def:crs:OGC:1.3:CRS84"
    }
  },
  "features": [
    {
      "type": "Feature",
      "properties": {
        "ADM4_EN": "San Juan (Pob.)",
        "ADM4_PCODE": "PH0506209023",
        "ADM4_REF": null,
        "ADM3_EN": "Irosin",
        "ADM3_PCODE": "PH0506209",
        "ADM2_EN": "Sorsogon",
        "ADM2_PCODE": "PH05062",
        "ADM1_EN": "Region V (Bicol Region)",
        "ADM1_PCODE": "PH05",
        "ADM0_EN": "Philippines (the)",
        "ADM0_PCODE": "PH",
        "date": "2022-11-09",
        "validOn": "2023-11-06",
        "validTo": null,
        "Shape_Leng": 0.02856546185,
        "Shape_Area": 0.00003486829,
        "AREA_SQKM": 0.41895533461
      },
      "geometry": {
        "type": "MultiPolygon",
        "coordinates": [
          [
            [
              [
                124.03860201200007,
                12.703091444000052
              ],
              [
                124.03855262900004,
                12.70260018700003
              ],
              [
                124.0384938630001,
                12.702034401000049
              ],
              [
                124.03845350200004,
                12.701599896000062
              ],
              [
                124.03742756600002,
                12.701693065000029
              ],
              [
                124.03710879100004,
                12.701729005000061
              ],
              [
                124.03582697700006,
                12.701879592000068
              ],
              [
                124.03509197400001,
                12.70195482500003
              ],
              [
                124.03513201600003,
                12.70241217000006
              ],
              [
                124.03516710400004,
                12.70286655800004
              ],
              [
                124.03526106600009,
                12.703853865000042
              ],
              [
                124.0353380580001,
                12.70466444300007
              ],
              [
                124.03541210900005,
                12.705126600000028
              ],
              [
                124.03508416900002,
                12.711097313000039
              ],
              [
                124.03554058600002,
                12.711896043000024
              ],
              [
                124.03597860700006,
                12.712735558000077
              ],
              [
                124.03733760800003,
                12.713212518000034
              ],
              [
                124.03810860800002,
                12.713475496000058
              ],
              [
                124.03860201200007,
                12.703091444000052
              ]
            ]
          ]
        ]
      }
    }
  ]
}