{
  "type": "FeatureCollection",
  "name": "Santo Domingo (Lamboon)",
  "crs": {
    "type": "name",
    "properties": {
      "name": "urn:ogc:def:crs:OGC:1.3:CRS84"
    }
  },
  "features": [
    {
      "type": "Feature",
      "properties": {
        "ADM4_EN": "Santo Domingo (Lamboon)",
        "ADM4_PCODE": "PH0506209014",
        "ADM4_REF": null,
        "ADM3_EN": "Irosin",
        "ADM3_PCODE": "PH0506209",
        "ADM2_EN": "Sorsogon",
        "ADM2_PCODE": "PH05062",
        "ADM1_EN": "Region V (Bicol Region)",
        "ADM1_PCODE": "PH05",
        "ADM0_EN": "Philippines (the)",
        "ADM0_PCODE": "PH",
        "date": "2022-11-09",
        "validOn": "2023-11-06",
        "validTo": null,
        "Shape_Leng": 0.0585097384,
        "Shape_Area": 0.00015309785,
        "AREA_SQKM": 1.83951137351
      },
      "geometry": {
        "type": "MultiPolygon",
        "coordinates": [
          [
            [
              [
                124.05095718000007,
                12.714154250000036
              ],
              [
                124.05311217500002,
                12.71063388500005
              ],
              [
                124.05915751700002,
                12.703589051000051
              ],
              [
                124.05706751200012,
                12.702098163000073
              ],
              [
                124.05331350900008,
                12.70032430200007
              ],
              [
                124.05159246200003,
                12.699117586000057
              ],
              [
                124.04783777900002,
                12.704098370000054
              ],
              [
                124.04217462800011,
                12.718316149000032
              ],
              [
                124.04370063400006,
                12.71986703600004
              ],
              [
                124.04451764400005,
                12.722073883000064
              ],
              [
                124.05095718000007,
                12.714154250000036
              ]
            ]
          ]
        ]
      }
    }
  ]
}