{
  "type": "FeatureCollection",
  "name": "Tabon-Tabon",
  "crs": {
    "type": "name",
    "properties": {
      "name": "urn:ogc:def:crs:OGC:1.3:CRS84"
    }
  },
  "features": [
    {
      "type": "Feature",
      "properties": {
        "ADM4_EN": "Tabon-Tabon",
        "ADM4_PCODE": "PH0506209026",
        "ADM4_REF": null,
        "ADM3_EN": "Irosin",
        "ADM3_PCODE": "PH0506209",
        "ADM2_EN": "Sorsogon",
        "ADM2_PCODE": "PH05062",
        "ADM1_EN": "Region V (Bicol Region)",
        "ADM1_PCODE": "PH05",
        "ADM0_EN": "Philippines (the)",
        "ADM0_PCODE": "PH",
        "date": "2022-11-09",
        "validOn": "2023-11-06",
        "validTo": null,
        "Shape_Leng": 0.05023416283,
        "Shape_Area": 0.00009403007,
        "AREA_SQKM": 1.12981148177
      },
      "geometry": {
        "type": "MultiPolygon",
        "coordinates": [
          [
            [
              [
                124.04783777900002,
                12.704098370000054
              ],
              [
                124.05159246200003,
                12.699117586000057
              ],
              [
                124.04933850100008,
                12.697541511000054
              ],
              [
                124.04889650300004,
                12.697926487000075
              ],
              [
                124.04495854900006,
                12.698837665000042
              ],
              [
                124.04267807600002,
                12.700569379000058
              ],
              [
                124.04210636500011,
                12.701882043000069
              ],
              [
                124.04055761500001,
                12.71557934200007
              ],
              [
                124.04154962000007,
                12.716674263000073
              ],
              [
                124.04217462800011,
                12.718316149000032
              ],
              [
                124.04783777900002,
                12.704098370000054
              ]
            ]
          ]
        ]
      }
    }
  ]
}