{
  "type": "FeatureCollection",
  "name": "Balete",
  "crs": {
    "type": "name",
    "properties": {
      "name": "urn:ogc:def:crs:OGC:1.3:CRS84"
    }
  },
  "features": [
    {
      "type": "Feature",
      "properties": {
        "ADM4_EN": "Balete",
        "ADM4_PCODE": "PH0506216038",
        "ADM4_REF": null,
        "ADM3_EN": "City of Sorsogon (Capital)",
        "ADM3_PCODE": "PH0506216",
        "ADM2_EN": "Sorsogon",
        "ADM2_PCODE": "PH05062",
        "ADM1_EN": "Region V (Bicol Region)",
        "ADM1_PCODE": "PH05",
        "ADM0_EN": "Philippines (the)",
        "ADM0_PCODE": "PH",
        "date": "2022-11-09",
        "validOn": "2023-11-06",
        "validTo": null,
        "Shape_Leng": 0.0704416825,
        "Shape_Area": 0.00024767757,
        "AREA_SQKM": 2.97226201851
      },
      "geometry": {
        "type": "MultiPolygon",
        "coordinates": [
          [
            [
              [
                124.03111079400003,
                13.031191830000068
              ],
              [
                124.03349080700002,
                13.030865085000073
              ],
              [
                124.03630369200005,
                13.028820129000053
              ],
              [
                124.03787542200007,
                13.025869688000057
              ],
              [
                124.04063362000011,
                13.024267214000076
              ],
              [
                124.04214632300011,
                13.021184795000067
              ],
              [
                124.041352318,
                13.020034876000068
              ],
              [
                124.04023131500003,
                13.019135943000038
              ],
              [
                124.04001931000005,
                13.018287001000033
              ],
              [
                124.03963630800001,
                13.017807035000033
              ],
              [
                124.03949830300007,
                13.016952093000043
              ],
              [
                124.03876,
                13.01474
              ],
              [
                124.0353657170001,
                13.017550045000064
              ],
              [
                124.03105116900008,
                13.019213485000023
              ],
              [
                124.0287041900001,
                13.019741063000026
              ],
              [
                124.02843530900009,
                13.020046279000042
              ],
              [
                124.02811555900007,
                13.020162552000045
              ],
              [
                124.02762139900005,
                13.020322427000053
              ],
              [
                124.02741065500004,
                13.020373297000049
              ],
              [
                124.02728818700007,
                13.020438761000037
              ],
              [
                124.027260092,
                13.02044976700006
              ],
              [
                124.02718429600009,
                13.020483117000026
              ],
              [
                124.02704937800002,
                13.020569525000042
              ],
              [
                124.02272936000008,
                13.02183685700004
              ],
              [
                124.01972368400004,
                13.023041516000035
              ],
              [
                124.019869846,
                13.023257823000051
              ],
              [
                124.01997231200005,
                13.023330372000032
              ],
              [
                124.02012716600007,
                13.023386602000073
              ],
              [
                124.02019821500005,
                13.023424302000024
              ],
              [
                124.01706843800002,
                13.034018072000038
              ],
              [
                124.03111079400003,
                13.031191830000068
              ]
            ]
          ]
        ]
      }
    }
  ]
}