{
  "type": "FeatureCollection",
  "name": "Jamislagan",
  "crs": {
    "type": "name",
    "properties": {
      "name": "urn:ogc:def:crs:OGC:1.3:CRS84"
    }
  },
  "features": [
    {
      "type": "Feature",
      "properties": {
        "ADM4_EN": "Jamislagan",
        "ADM4_PCODE": "PH0506216048",
        "ADM4_REF": null,
        "ADM3_EN": "City of Sorsogon (Capital)",
        "ADM3_PCODE": "PH0506216",
        "ADM2_EN": "Sorsogon",
        "ADM2_PCODE": "PH05062",
        "ADM1_EN": "Region V (Bicol Region)",
        "ADM1_PCODE": "PH05",
        "ADM0_EN": "Philippines (the)",
        "ADM0_PCODE": "PH",
        "date": "2022-11-09",
        "validOn": "2023-11-06",
        "validTo": null,
        "Shape_Leng": 0.08043856052,
        "Shape_Area": 0.00028039605,
        "AREA_SQKM": 3.36560324393
      },
      "geometry": {
        "type": "MultiPolygon",
        "coordinates": [
          [
            [
              [
                124.06805380000003,
                12.978874547000032
              ],
              [
                124.073606,
                12.975716
              ],
              [
                124.0935848260001,
                12.974582380000072
              ],
              [
                124.08451274600009,
                12.966750295000054
              ],
              [
                124.080194602,
                12.966966723000041
              ],
              [
                124.07663500600006,
                12.965138823000075
              ],
              [
                124.07211335800002,
                12.964561591000063
              ],
              [
                124.067230977,
                12.96763824900006
              ],
              [
                124.06294799900002,
                12.970208100000036
              ],
              [
                124.05988197700003,
                12.975238025000067
              ],
              [
                124.059751,
                12.975469
              ],
              [
                124.06160804600006,
                12.978249567000034
              ],
              [
                124.06351993200008,
                12.981422824000049
              ],
              [
                124.06805380000003,
                12.978874547000032
              ]
            ]
          ]
        ]
      }
    }
  ]
}