{
  "type": "FeatureCollection",
  "name": "Marinas",
  "crs": {
    "type": "name",
    "properties": {
      "name": "urn:ogc:def:crs:OGC:1.3:CRS84"
    }
  },
  "features": [
    {
      "type": "Feature",
      "properties": {
        "ADM4_EN": "Marinas",
        "ADM4_PCODE": "PH0506216020",
        "ADM4_REF": null,
        "ADM3_EN": "City of Sorsogon (Capital)",
        "ADM3_PCODE": "PH0506216",
        "ADM2_EN": "Sorsogon",
        "ADM2_PCODE": "PH05062",
        "ADM1_EN": "Region V (Bicol Region)",
        "ADM1_PCODE": "PH05",
        "ADM0_EN": "Philippines (the)",
        "ADM0_PCODE": "PH",
        "date": "2022-11-09",
        "validOn": "2023-11-06",
        "validTo": null,
        "Shape_Leng": 0.07233344329,
        "Shape_Area": 0.00019731181,
        "AREA_SQKM": 2.36865125191
      },
      "geometry": {
        "type": "MultiPolygon",
        "coordinates": [
          [
            [
              [
                124.07103609600006,
                12.938187238000069
              ],
              [
                124.07078331500009,
                12.937377781000066
              ],
              [
                124.07139619100008,
                12.933800947000066
              ],
              [
                124.0726355600001,
                12.926738759000045
              ],
              [
                124.06805774500003,
                12.926807985000039
              ],
              [
                124.0637497680001,
                12.929487828000049
              ],
              [
                124.06099278500005,
                12.931611700000076
              ],
              [
                124.0590687990001,
                12.933570579000047
              ],
              [
                124.0620421220001,
                12.93736818800005
              ],
              [
                124.063914,
                12.939759
              ],
              [
                124.06378989000007,
                12.95121037000007
              ],
              [
                124.06720688900009,
                12.956768963000059
              ],
              [
                124.07103609600006,
                12.938187238000069
              ]
            ]
          ]
        ]
      }
    }
  ]
}