{
  "type": "FeatureCollection",
  "name": "San Pascual",
  "crs": {
    "type": "name",
    "properties": {
      "name": "urn:ogc:def:crs:OGC:1.3:CRS84"
    }
  },
  "features": [
    {
      "type": "Feature",
      "properties": {
        "ADM4_EN": "San Pascual",
        "ADM4_PCODE": "PH0506216056",
        "ADM4_REF": null,
        "ADM3_EN": "City of Sorsogon (Capital)",
        "ADM3_PCODE": "PH0506216",
        "ADM2_EN": "Sorsogon",
        "ADM2_PCODE": "PH05062",
        "ADM1_EN": "Region V (Bicol Region)",
        "ADM1_PCODE": "PH05",
        "ADM0_EN": "Philippines (the)",
        "ADM0_PCODE": "PH",
        "date": "2022-11-09",
        "validOn": "2023-11-06",
        "validTo": null,
        "Shape_Leng": 0.05200563535,
        "Shape_Area": 0.00016260827,
        "AREA_SQKM": 1.95145137567
      },
      "geometry": {
        "type": "MultiPolygon",
        "coordinates": [
          [
            [
              [
                124.04480122700011,
                13.023740381000039
              ],
              [
                124.04742532800003,
                13.023681599000042
              ],
              [
                124.04839231800008,
                13.022287687000073
              ],
              [
                124.05182030500009,
                13.020894762000069
              ],
              [
                124.0537352880001,
                13.018600905000028
              ],
              [
                124.0555432750001,
                13.016792016000068
              ],
              [
                124.05606125800011,
                13.01401020000003
              ],
              [
                124.05127034200007,
                13.009269250000045
              ],
              [
                124.04879924700003,
                13.009814521000067
              ],
              [
                124.03876,
                13.01474
              ],
              [
                124.03949830300007,
                13.016952093000043
              ],
              [
                124.03963630800001,
                13.017807035000033
              ],
              [
                124.04001931000005,
                13.018287001000033
              ],
              [
                124.04023131500003,
                13.019135943000038
              ],
              [
                124.041352318,
                13.020034876000068
              ],
              [
                124.04214632300011,
                13.021184795000067
              ],
              [
                124.04063362000011,
                13.024267214000076
              ],
              [
                124.04480122700011,
                13.023740381000039
              ]
            ]
          ]
        ]
      }
    }
  ]
}