{
  "type": "FeatureCollection",
  "name": "Santa Cruz",
  "crs": {
    "type": "name",
    "properties": {
      "name": "urn:ogc:def:crs:OGC:1.3:CRS84"
    }
  },
  "features": [
    {
      "type": "Feature",
      "properties": {
        "ADM4_EN": "Santa Cruz",
        "ADM4_PCODE": "PH0506216060",
        "ADM4_REF": null,
        "ADM3_EN": "City of Sorsogon (Capital)",
        "ADM3_PCODE": "PH0506216",
        "ADM2_EN": "Sorsogon",
        "ADM2_PCODE": "PH05062",
        "ADM1_EN": "Region V (Bicol Region)",
        "ADM1_PCODE": "PH05",
        "ADM0_EN": "Philippines (the)",
        "ADM0_PCODE": "PH",
        "date": "2022-11-09",
        "validOn": "2023-11-06",
        "validTo": null,
        "Shape_Leng": 0.04526261599,
        "Shape_Area": 0.00011831845,
        "AREA_SQKM": 1.41979646924
      },
      "geometry": {
        "type": "MultiPolygon",
        "coordinates": [
          [
            [
              [
                124.01353513000004,
                13.046721232000039
              ],
              [
                124.016418,
                13.04357
              ],
              [
                124.01895147700009,
                13.042774648000034
              ],
              [
                124.02025793200005,
                13.042257509000024
              ],
              [
                124.01891447300011,
                13.040730612000061
              ],
              [
                124.01812946600012,
                13.039247716000034
              ],
              [
                124.01813645300001,
                13.03695686900005
              ],
              [
                124.01706843800002,
                13.034018072000038
              ],
              [
                124.01202562700007,
                13.035074294000026
              ],
              [
                124.00768548600001,
                13.039542753000035
              ],
              [
                124.00548849800009,
                13.041102661000025
              ],
              [
                124.00439150200009,
                13.04148364100007
              ],
              [
                124.00470850500005,
                13.041991605000021
              ],
              [
                124.00598751300004,
                13.043810477000022
              ],
              [
                124.00695951800003,
                13.044944395000073
              ],
              [
                124.00861552200001,
                13.046245299000077
              ],
              [
                124.01041552100003,
                13.046591266000064
              ],
              [
                124.01260552600002,
                13.048091154000076
              ],
              [
                124.01353513000004,
                13.046721232000039
              ]
            ]
          ]
        ]
      }
    }
  ]
}