{
  "type": "FeatureCollection",
  "name": "Ticol",
  "crs": {
    "type": "name",
    "properties": {
      "name": "urn:ogc:def:crs:OGC:1.3:CRS84"
    }
  },
  "features": [
    {
      "type": "Feature",
      "properties": {
        "ADM4_EN": "Ticol",
        "ADM4_PCODE": "PH0506216036",
        "ADM4_REF": null,
        "ADM3_EN": "City of Sorsogon (Capital)",
        "ADM3_PCODE": "PH0506216",
        "ADM2_EN": "Sorsogon",
        "ADM2_PCODE": "PH05062",
        "ADM1_EN": "Region V (Bicol Region)",
        "ADM1_PCODE": "PH05",
        "ADM0_EN": "Philippines (the)",
        "ADM0_PCODE": "PH",
        "date": "2022-11-09",
        "validOn": "2023-11-06",
        "validTo": null,
        "Shape_Leng": 0.12440486559,
        "Shape_Area": 0.00034832996,
        "AREA_SQKM": 4.18054256658
      },
      "geometry": {
        "type": "MultiPolygon",
        "coordinates": [
          [
            [
              [
                123.95609737600012,
                13.031945506000056
              ],
              [
                123.95121159700011,
                13.014604676000033
              ],
              [
                123.95195125300006,
                12.98808544700006
              ],
              [
                123.95224183900007,
                12.98621597400006
              ],
              [
                123.952254,
                12.986135
              ],
              [
                123.95206623800004,
                12.979261095000027
              ],
              [
                123.94789224200008,
                12.978680156000053
              ],
              [
                123.94511524000006,
                12.977572246000022
              ],
              [
                123.94353624200005,
                12.977469261000067
              ],
              [
                123.94336574300007,
                12.981605401000024
              ],
              [
                123.94233033100011,
                12.992858236000075
              ],
              [
                123.94412335200002,
                12.997050946000059
              ],
              [
                123.94497038200007,
                13.002677564000066
              ],
              [
                123.94647342500002,
                13.010699019000072
              ],
              [
                123.94803046400011,
                13.017938525000034
              ],
              [
                123.94956349300003,
                13.02361313700004
              ],
              [
                123.95158254700004,
                13.033668453000075
              ],
              [
                123.95609737600012,
                13.031945506000056
              ]
            ]
          ]
        ]
      }
    }
  ]
}