{
  "type": "FeatureCollection",
  "name": "Abas",
  "crs": {
    "type": "name",
    "properties": {
      "name": "urn:ogc:def:crs:OGC:1.3:CRS84"
    }
  },
  "features": [
    {
      "type": "Feature",
      "properties": {
        "ADM4_EN": "Abas",
        "ADM4_PCODE": "PH0506213001",
        "ADM4_REF": null,
        "ADM3_EN": "Pilar",
        "ADM3_PCODE": "PH0506213",
        "ADM2_EN": "Sorsogon",
        "ADM2_PCODE": "PH05062",
        "ADM1_EN": "Region V (Bicol Region)",
        "ADM1_PCODE": "PH05",
        "ADM0_EN": "Philippines (the)",
        "ADM0_PCODE": "PH",
        "date": "2022-11-09",
        "validOn": "2023-11-06",
        "validTo": null,
        "Shape_Leng": 0.07543033899,
        "Shape_Area": 0.00025173991,
        "AREA_SQKM": 3.02173333901
      },
      "geometry": {
        "type": "MultiPolygon",
        "coordinates": [
          [
            [
              [
                123.68403224500003,
                12.97055591800006
              ],
              [
                123.68374243100004,
                12.969193793000045
              ],
              [
                123.68388733800009,
                12.967889630000059
              ],
              [
                123.68409020800004,
                12.967136114000027
              ],
              [
                123.68461222400003,
                12.965853994000042
              ],
              [
                123.68552910200003,
                12.965962475000026
              ],
              [
                123.68713325400006,
                12.96649852400003
              ],
              [
                123.68785778800009,
                12.966063803000054
              ],
              [
                123.68849537900007,
                12.965136398000027
              ],
              [
                123.68884315600008,
                12.963977143000022
              ],
              [
                123.68898806300001,
                12.963078720000055
              ],
              [
                123.69006037400004,
                12.961194930000033
              ],
              [
                123.68272820700008,
                12.95944057500003
              ],
              [
                123.6772856770001,
                12.958824957000047
              ],
              [
                123.67245900000012,
                12.958279
              ],
              [
                123.67020687600007,
                12.958441532000052
              ],
              [
                123.66361319600003,
                12.958341628000028
              ],
              [
                123.6658776920001,
                12.962604209000062
              ],
              [
                123.66534487000001,
                12.971462384000063
              ],
              [
                123.67080630100008,
                12.970463342000073
              ],
              [
                123.6772856770001,
                12.970099159000029
              ],
              [
                123.678783,
                12.970015
              ],
              [
                123.68232859000011,
                12.971329179000065
              ],
              [
                123.68452492900008,
                12.972091931000023
              ],
              [
                123.68403224500003,
                12.97055591800006
              ]
            ]
          ]
        ]
      }
    }
  ]
}