{
  "type": "FeatureCollection",
  "name": "Bayasong",
  "crs": {
    "type": "name",
    "properties": {
      "name": "urn:ogc:def:crs:OGC:1.3:CRS84"
    }
  },
  "features": [
    {
      "type": "Feature",
      "properties": {
        "ADM4_EN": "Bayasong",
        "ADM4_PCODE": "PH0506213005",
        "ADM4_REF": null,
        "ADM3_EN": "Pilar",
        "ADM3_PCODE": "PH0506213",
        "ADM2_EN": "Sorsogon",
        "ADM2_PCODE": "PH05062",
        "ADM1_EN": "Region V (Bicol Region)",
        "ADM1_PCODE": "PH05",
        "ADM0_EN": "Philippines (the)",
        "ADM0_PCODE": "PH",
        "date": "2022-11-09",
        "validOn": "2023-11-06",
        "validTo": null,
        "Shape_Leng": 0.0777872085,
        "Shape_Area": 0.0002519415,
        "AREA_SQKM": 3.0238784978
      },
      "geometry": {
        "type": "MultiPolygon",
        "coordinates": [
          [
            [
              [
                123.68788221700004,
                12.99581803700005
              ],
              [
                123.69223929200007,
                12.987597408000056
              ],
              [
                123.696160071,
                12.984527823000064
              ],
              [
                123.70014589700008,
                12.982177454000066
              ],
              [
                123.69933441800003,
                12.98200356600006
              ],
              [
                123.69779840400008,
                12.981684770000072
              ],
              [
                123.69663914900002,
                12.982119491000049
              ],
              [
                123.69597257700002,
                12.982699119000074
              ],
              [
                123.69539294900005,
                12.983365691000074
              ],
              [
                123.69463943300002,
                12.983307728000057
              ],
              [
                123.69376999100007,
                12.982641156000057
              ],
              [
                123.6928715680001,
                12.981510882000066
              ],
              [
                123.682292,
                12.982776
              ],
              [
                123.6772856770001,
                12.98288090400007
              ],
              [
                123.6703453880001,
                12.983026332000065
              ],
              [
                123.668795,
                12.986291
              ],
              [
                123.66852783500008,
                12.986853780000047
              ],
              [
                123.66837569300003,
                12.987533348000056
              ],
              [
                123.6691262600001,
                12.988527342000054
              ],
              [
                123.67010657500009,
                12.990307576000077
              ],
              [
                123.67505221600004,
                12.990869127000053
              ],
              [
                123.6772856770001,
                12.992029137000031
              ],
              [
                123.686069,
                12.996591
              ],
              [
                123.68788221700004,
                12.99581803700005
              ]
            ]
          ]
        ]
      }
    }
  ]
}