{
  "type": "FeatureCollection",
  "name": "Comapo-capo",
  "crs": {
    "type": "name",
    "properties": {
      "name": "urn:ogc:def:crs:OGC:1.3:CRS84"
    }
  },
  "features": [
    {
      "type": "Feature",
      "properties": {
        "ADM4_EN": "Comapo-capo",
        "ADM4_PCODE": "PH0506213014",
        "ADM4_REF": null,
        "ADM3_EN": "Pilar",
        "ADM3_PCODE": "PH0506213",
        "ADM2_EN": "Sorsogon",
        "ADM2_PCODE": "PH05062",
        "ADM1_EN": "Region V (Bicol Region)",
        "ADM1_PCODE": "PH05",
        "ADM0_EN": "Philippines (the)",
        "ADM0_PCODE": "PH",
        "date": "2022-11-09",
        "validOn": "2023-11-06",
        "validTo": null,
        "Shape_Leng": 0.09618156029,
        "Shape_Area": 0.00040766054,
        "AREA_SQKM": 4.89266707586
      },
      "geometry": {
        "type": "MultiPolygon",
        "coordinates": [
          [
            [
              [
                123.68552543900012,
                13.008539684000027
              ],
              [
                123.687112,
                13.004689
              ],
              [
                123.68990413800009,
                13.000728087000027
              ],
              [
                123.69191804200011,
                12.998873544000048
              ],
              [
                123.686069,
                12.996591
              ],
              [
                123.6772856770001,
                12.992029137000031
              ],
              [
                123.67505221600004,
                12.990869127000053
              ],
              [
                123.67010657500009,
                12.990307576000077
              ],
              [
                123.6691262600001,
                12.988527342000054
              ],
              [
                123.66837569300003,
                12.987533348000056
              ],
              [
                123.66852783500008,
                12.986853780000047
              ],
              [
                123.668795,
                12.986291
              ],
              [
                123.66698254800008,
                12.987742921000063
              ],
              [
                123.66216654100003,
                12.98884263900004
              ],
              [
                123.65852609500007,
                12.98918393100007
              ],
              [
                123.65492717400002,
                12.988697202000026
              ],
              [
                123.659997814,
                12.99784143900007
              ],
              [
                123.66275181800006,
                12.999238331000072
              ],
              [
                123.6660938230001,
                13.001151184000037
              ],
              [
                123.66634541100007,
                13.002959211000075
              ],
              [
                123.67586683600007,
                13.00608980100003
              ],
              [
                123.6772856770001,
                13.006831736000038
              ],
              [
                123.679952,
                13.008226
              ],
              [
                123.68525884600001,
                13.010507454000049
              ],
              [
                123.68552543900012,
                13.008539684000027
              ]
            ]
          ]
        ]
      }
    }
  ]
}