{
  "type": "FeatureCollection",
  "name": "Leona",
  "crs": {
    "type": "name",
    "properties": {
      "name": "urn:ogc:def:crs:OGC:1.3:CRS84"
    }
  },
  "features": [
    {
      "type": "Feature",
      "properties": {
        "ADM4_EN": "Leona",
        "ADM4_PCODE": "PH0506213026",
        "ADM4_REF": null,
        "ADM3_EN": "Pilar",
        "ADM3_PCODE": "PH0506213",
        "ADM2_EN": "Sorsogon",
        "ADM2_PCODE": "PH05062",
        "ADM1_EN": "Region V (Bicol Region)",
        "ADM1_PCODE": "PH05",
        "ADM0_EN": "Philippines (the)",
        "ADM0_PCODE": "PH",
        "date": "2022-11-09",
        "validOn": "2023-11-06",
        "validTo": null,
        "Shape_Leng": 0.05040457532,
        "Shape_Area": 0.00011908979,
        "AREA_SQKM": 1.42926101068
      },
      "geometry": {
        "type": "MultiPolygon",
        "coordinates": [
          [
            [
              [
                123.65597456800003,
                13.008552698000074
              ],
              [
                123.65792272200008,
                13.008769160000043
              ],
              [
                123.661125,
                13.008094
              ],
              [
                123.66388743800007,
                13.005642494000028
              ],
              [
                123.66535456600002,
                13.003550033000067
              ],
              [
                123.66634541100007,
                13.002959211000075
              ],
              [
                123.6660938230001,
                13.001151184000037
              ],
              [
                123.66275181800006,
                12.999238331000072
              ],
              [
                123.659997814,
                12.99784143900007
              ],
              [
                123.65929364400006,
                12.998427111000069
              ],
              [
                123.65888477300007,
                12.999677777000045
              ],
              [
                123.656913,
                13.001373
              ],
              [
                123.65506062000009,
                13.001794290000078
              ],
              [
                123.6527516970001,
                13.001120854000021
              ],
              [
                123.64559347900001,
                13.00225282200006
              ],
              [
                123.65507688500008,
                13.00897972100006
              ],
              [
                123.65597456800003,
                13.008552698000074
              ]
            ]
          ]
        ]
      }
    }
  ]
}