{
  "type": "FeatureCollection",
  "name": "Malbog",
  "crs": {
    "type": "name",
    "properties": {
      "name": "urn:ogc:def:crs:OGC:1.3:CRS84"
    }
  },
  "features": [
    {
      "type": "Feature",
      "properties": {
        "ADM4_EN": "Malbog",
        "ADM4_PCODE": "PH0506213032",
        "ADM4_REF": null,
        "ADM3_EN": "Pilar",
        "ADM3_PCODE": "PH0506213",
        "ADM2_EN": "Sorsogon",
        "ADM2_PCODE": "PH05062",
        "ADM1_EN": "Region V (Bicol Region)",
        "ADM1_PCODE": "PH05",
        "ADM0_EN": "Philippines (the)",
        "ADM0_PCODE": "PH",
        "date": "2022-11-09",
        "validOn": "2023-11-06",
        "validTo": null,
        "Shape_Leng": 0.09730795671,
        "Shape_Area": 0.00042363368,
        "AREA_SQKM": 5.08545233119
      },
      "geometry": {
        "type": "MultiPolygon",
        "coordinates": [
          [
            [
              [
                123.75405745800003,
                12.954873461000034
              ],
              [
                123.7549898420001,
                12.95475570900004
              ],
              [
                123.75861625300001,
                12.954039278000039
              ],
              [
                123.76264176900008,
                12.950752388000069
              ],
              [
                123.76437754300002,
                12.948204126000064
              ],
              [
                123.765352,
                12.94489
              ],
              [
                123.7633065340001,
                12.939968436000072
              ],
              [
                123.7596503310001,
                12.93564746900006
              ],
              [
                123.75737630300011,
                12.934473152000066
              ],
              [
                123.75560293100011,
                12.935091940000063
              ],
              [
                123.746339,
                12.935189
              ],
              [
                123.739785331,
                12.934375254000031
              ],
              [
                123.736955,
                12.932848361000026
              ],
              [
                123.73470092600007,
                12.933034041000042
              ],
              [
                123.73660376200007,
                12.93688753500004
              ],
              [
                123.74000951200003,
                12.93960226400003
              ],
              [
                123.74163835000002,
                12.939947775000064
              ],
              [
                123.743705,
                12.943482
              ],
              [
                123.7423293710001,
                12.944784928000047
              ],
              [
                123.73887426200008,
                12.946018895000066
              ],
              [
                123.7363219130001,
                12.94780552900005
              ],
              [
                123.73703920200012,
                12.94930531600005
              ],
              [
                123.73814091500003,
                12.949502264000046
              ],
              [
                123.73905159800006,
                12.949268157000063
              ],
              [
                123.74036481700011,
                12.948588026000039
              ],
              [
                123.74127662,
                12.948158785000032
              ],
              [
                123.74190287700003,
                12.948379440000053
              ],
              [
                123.74304048200008,
                12.94926829600007
              ],
              [
                123.74540985400006,
                12.951349846000028
              ],
              [
                123.748320207,
                12.953283011000053
              ],
              [
                123.7506677,
                12.954326341000069
              ],
              [
                123.75242831900005,
                12.955043630000034
              ],
              [
                123.75405745800003,
                12.954873461000034
              ]
            ]
          ]
        ]
      }
    }
  ]
}