{
  "type": "FeatureCollection",
  "name": "Migabod",
  "crs": {
    "type": "name",
    "properties": {
      "name": "urn:ogc:def:crs:OGC:1.3:CRS84"
    }
  },
  "features": [
    {
      "type": "Feature",
      "properties": {
        "ADM4_EN": "Migabod",
        "ADM4_PCODE": "PH0506213035",
        "ADM4_REF": null,
        "ADM3_EN": "Pilar",
        "ADM3_PCODE": "PH0506213",
        "ADM2_EN": "Sorsogon",
        "ADM2_PCODE": "PH05062",
        "ADM1_EN": "Region V (Bicol Region)",
        "ADM1_PCODE": "PH05",
        "ADM0_EN": "Philippines (the)",
        "ADM0_PCODE": "PH",
        "date": "2022-11-09",
        "validOn": "2023-11-06",
        "validTo": null,
        "Shape_Leng": 0.05386645616,
        "Shape_Area": 0.00017569941,
        "AREA_SQKM": 2.10874159375
      },
      "geometry": {
        "type": "MultiPolygon",
        "coordinates": [
          [
            [
              [
                123.6527516970001,
                13.001120854000021
              ],
              [
                123.65506062000009,
                13.001794290000078
              ],
              [
                123.656913,
                13.001373
              ],
              [
                123.65888477300007,
                12.999677777000045
              ],
              [
                123.65929364400006,
                12.998427111000069
              ],
              [
                123.659997814,
                12.99784143900007
              ],
              [
                123.65492717400002,
                12.988697202000026
              ],
              [
                123.65281683,
                12.986390394000068
              ],
              [
                123.65103031500007,
                12.985901631000047
              ],
              [
                123.64722285000005,
                12.984871
              ],
              [
                123.64706572700004,
                12.98500922900007
              ],
              [
                123.64631495700007,
                12.985501400000032
              ],
              [
                123.6457135490001,
                12.986521760000073
              ],
              [
                123.64631524800006,
                12.989648268000053
              ],
              [
                123.64624288100003,
                12.992721630000062
              ],
              [
                123.64583789000005,
                12.997943529000054
              ],
              [
                123.64559347900001,
                13.00225282200006
              ],
              [
                123.6527516970001,
                13.001120854000021
              ]
            ]
          ]
        ]
      }
    }
  ]
}