{
  "type": "FeatureCollection",
  "name": "San Jose",
  "crs": {
    "type": "name",
    "properties": {
      "name": "urn:ogc:def:crs:OGC:1.3:CRS84"
    }
  },
  "features": [
    {
      "type": "Feature",
      "properties": {
        "ADM4_EN": "San Jose",
        "ADM4_PCODE": "PH0506213049",
        "ADM4_REF": null,
        "ADM3_EN": "Pilar",
        "ADM3_PCODE": "PH0506213",
        "ADM2_EN": "Sorsogon",
        "ADM2_PCODE": "PH05062",
        "ADM1_EN": "Region V (Bicol Region)",
        "ADM1_PCODE": "PH05",
        "ADM0_EN": "Philippines (the)",
        "ADM0_PCODE": "PH",
        "date": "2022-11-09",
        "validOn": "2023-11-06",
        "validTo": null,
        "Shape_Leng": 0.0675976823,
        "Shape_Area": 0.00025264326,
        "AREA_SQKM": 3.03242953188
      },
      "geometry": {
        "type": "MultiPolygon",
        "coordinates": [
          [
            [
              [
                123.6772856770001,
                12.98288090400007
              ],
              [
                123.682292,
                12.982776
              ],
              [
                123.6928715680001,
                12.981510882000066
              ],
              [
                123.689625653,
                12.978033116000063
              ],
              [
                123.68655362600009,
                12.974178591000054
              ],
              [
                123.68507557500004,
                12.97301933600005
              ],
              [
                123.68452492900008,
                12.972091931000023
              ],
              [
                123.68232859000011,
                12.971329179000065
              ],
              [
                123.678783,
                12.970015
              ],
              [
                123.6772856770001,
                12.970099159000029
              ],
              [
                123.67080630100008,
                12.970463342000073
              ],
              [
                123.66534487000001,
                12.971462384000063
              ],
              [
                123.6658776920001,
                12.974426210000047
              ],
              [
                123.6703453880001,
                12.983026332000065
              ],
              [
                123.6772856770001,
                12.98288090400007
              ]
            ]
          ]
        ]
      }
    }
  ]
}